{
  "type": "FeatureCollection",
  "features": [
    {
      "type": "Feature",
      "properties": {
        "cell_id": "SYN_disk_like_r001_c008",
        "region_id": "Synthetic-disk_like"
      },
      "geometry": {
        "type": "Polygon",
        "coordinates": [
          [
            [
              7.5,
              14.5
            ],
            [
              8.5,
              14.5
            ],
            [
              8.5,
              15.5
            ],
            [
              7.5,
              15.5
            ],
            [
              7.5,
              14.5
            ]
          ]
        ]
      }
    },
    {
      "type": "Feature",
      "properties": {
        "cell_id": "SYN_disk_like_r002_c005",
        "region_id": "Synthetic-disk_like"
      },
      "geometry": {
        "type": "Polygon",
        "coordinates": [
          [
            [
              4.5,
              13.5
            ],
            [
              5.5,
              13.5
            ],
            [
              5.5,
              14.5
            ],
            [
              4.5,
              14.5
            ],
            [
              4.5,
              13.5
            ]
          ]
        ]
      }
    },
    {
      "type": "Feature",
      "properties": {
        "cell_id": "SYN_disk_like_r002_c006",
        "region_id": "Synthetic-disk_like"
      },
      "geometry": {
        "type": "Polygon",
        "coordinates": [
          [
            [
              5.5,
              13.5
            ],
            [
              6.5,
              13.5
            ],
            [
              6.5,
              14.5
            ],
            [
              5.5,
              14.5
            ],
            [
              5.5,
              13.5
            ]
          ]
        ]
      }
    },
    {
      "type": "Feature",
      "properties": {
        "cell_id": "SYN_disk_like_r002_c007",
        "region_id": "Synthetic-disk_like"
      },
      "geometry": {
        "type": "Polygon",
        "coordinates": [
          [
            [
              6.5,
              13.5
            ],
            [
              7.5,
              13.5
            ],
            [
              7.5,
              14.5
            ],
            [
              6.5,
              14.5
            ],
            [
              6.5,
              13.5
            ]
          ]
        ]
      }
    },
    {
      "type": "Feature",
      "properties": {
        "cell_id": "SYN_disk_like_r002_c008",
        "region_id": "Synthetic-disk_like"
      },
      "geometry": {
        "type": "Polygon",
        "coordinates": [
          [
            [
              7.5,
              13.5
            ],
            [
              8.5,
              13.5
            ],
            [
              8.5,
              14.5
            ],
            [
              7.5,
              14.5
            ],
            [
              7.5,
              13.5
            ]
          ]
        ]
      }
    },
    {
      "type": "Feature",
      "properties": {
        "cell_id": "SYN_disk_like_r002_c009",
        "region_id": "Synthetic-disk_like"
      },
      "geometry": {
        "type": "Polygon",
        "coordinates": [
          [
            [
              8.5,
              13.5
            ],
            [
              9.5,
              13.5
            ],
            [
              9.5,
              14.5
            ],
            [
              8.5,
              14.5
            ],
            [
              8.5,
              13.5
            ]
          ]
        ]
      }
    },
    {
      "type": "Feature",
      "properties": {
        "cell_id": "SYN_disk_like_r002_c010",
        "region_id": "Synthetic-disk_like"
      },
      "geometry": {
        "type": "Polygon",
        "coordinates": [
          [
            [
              9.5,
              13.5
            ],
            [
              10.5,
              13.5
            ],
            [
              10.5,
              14.5
            ],
            [
              9.5,
              14.5
            ],
            [
              9.5,
              13.5
            ]
          ]
        ]
      }
    },
    {
      "type": "Feature",
      "properties": {
        "cell_id": "SYN_disk_like_r002_c011",
        "region_id": "Synthetic-disk_like"
      },
      "geometry": {
        "type": "Polygon",
        "coordinates": [
          [
            [
              10.5,
              13.5
            ],
            [
              11.5,
              13.5
            ],
            [
              11.5,
              14.5
            ],
            [
              10.5,
              14.5
            ],
            [
              10.5,
              13.5
            ]
          ]
        ]
      }
    },
    {
      "type": "Feature",
      "properties": {
        "cell_id": "SYN_disk_like_r003_c004",
        "region_id": "Synthetic-disk_like"
      },
      "geometry": {
        "type": "Polygon",
        "coordinates": [
          [
            [
              3.5,
              12.5
            ],
            [
              4.5,
              12.5
            ],
            [
              4.5,
              13.5
            ],
            [
              3.5,
              13.5
            ],
            [
              3.5,
              12.5
            ]
          ]
        ]
      }
    },
    {
      "type": "Feature",
      "properties": {
        "cell_id": "SYN_disk_like_r003_c005",
        "region_id": "Synthetic-disk_like"
      },
      "geometry": {
        "type": "Polygon",
        "coordinates": [
          [
            [
              4.5,
              12.5
            ],
            [
              5.5,
              12.5
            ],
            [
              5.5,
              13.5
            ],
            [
              4.5,
              13.5
            ],
            [
              4.5,
              12.5
            ]
          ]
        ]
      }
    },
    {
      "type": "Feature",
      "properties": {
        "cell_id": "SYN_disk_like_r003_c006",
        "region_id": "Synthetic-disk_like"
      },
      "geometry": {
        "type": "Polygon",
        "coordinates": [
          [
            [
              5.5,
              12.5
            ],
            [
              6.5,
              12.5
            ],
            [
              6.5,
              13.5
            ],
            [
              5.5,
              13.5
            ],
            [
              5.5,
              12.5
            ]
          ]
        ]
      }
    },
    {
      "type": "Feature",
      "properties": {
        "cell_id": "SYN_disk_like_r003_c007",
        "region_id": "Synthetic-disk_like"
      },
      "geometry": {
        "type": "Polygon",
        "coordinates": [
          [
            [
              6.5,
              12.5
            ],
            [
              7.5,
              12.5
            ],
            [
              7.5,
              13.5
            ],
            [
              6.5,
              13.5
            ],
            [
              6.5,
              12.5
            ]
          ]
        ]
      }
    },
    {
      "type": "Feature",
      "properties": {
        "cell_id": "SYN_disk_like_r003_c008",
        "region_id": "Synthetic-disk_like"
      },
      "geometry": {
        "type": "Polygon",
        "coordinates": [
          [
            [
              7.5,
              12.5
            ],
            [
              8.5,
              12.5
            ],
            [
              8.5,
              13.5
            ],
            [
              7.5,
              13.5
            ],
            [
              7.5,
              12.5
            ]
          ]
        ]
      }
    },
    {
      "type": "Feature",
      "properties": {
        "cell_id": "SYN_disk_like_r003_c009",
        "region_id": "Synthetic-disk_like"
      },
      "geometry": {
        "type": "Polygon",
        "coordinates": [
          [
            [
              8.5,
              12.5
            ],
            [
              9.5,
              12.5
            ],
            [
              9.5,
              13.5
            ],
            [
              8.5,
              13.5
            ],
            [
              8.5,
              12.5
            ]
          ]
        ]
      }
    },
    {
      "type": "Feature",
      "properties": {
        "cell_id": "SYN_disk_like_r003_c010",
        "region_id": "Synthetic-disk_like"
      },
      "geometry": {
        "type": "Polygon",
        "coordinates": [
          [
            [
              9.5,
              12.5
            ],
            [
              10.5,
              12.5
            ],
            [
              10.5,
              13.5
            ],
            [
              9.5,
              13.5
            ],
            [
              9.5,
              12.5
            ]
          ]
        ]
      }
    },
    {
      "type": "Feature",
      "properties": {
        "cell_id": "SYN_disk_like_r003_c011",
        "region_id": "Synthetic-disk_like"
      },
      "geometry": {
        "type": "Polygon",
        "coordinates": [
          [
            [
              10.5,
              12.5
            ],
            [
              11.5,
              12.5
            ],
            [
              11.5,
              13.5
            ],
            [
              10.5,
              13.5
            ],
            [
              10.5,
              12.5
            ]
          ]
        ]
      }
    },
    {
      "type": "Feature",
      "properties": {
        "cell_id": "SYN_disk_like_r003_c012",
        "region_id": "Synthetic-disk_like"
      },
      "geometry": {
        "type": "Polygon",
        "coordinates": [
          [
            [
              11.5,
              12.5
            ],
            [
              12.5,
              12.5
            ],
            [
              12.5,
              13.5
            ],
            [
              11.5,
              13.5
            ],
            [
              11.5,
              12.5
            ]
          ]
        ]
      }
    },
    {
      "type": "Feature",
      "properties": {
        "cell_id": "SYN_disk_like_r004_c003",
        "region_id": "Synthetic-disk_like"
      },
      "geometry": {
        "type": "Polygon",
        "coordinates": [
          [
            [
              2.5,
              11.5
            ],
            [
              3.5,
              11.5
            ],
            [
              3.5,
              12.5
            ],
            [
              2.5,
              12.5
            ],
            [
              2.5,
              11.5
            ]
          ]
        ]
      }
    },
    {
      "type": "Feature",
      "properties": {
        "cell_id": "SYN_disk_like_r004_c004",
        "region_id": "Synthetic-disk_like"
      },
      "geometry": {
        "type": "Polygon",
        "coordinates": [
          [
            [
              3.5,
              11.5
            ],
            [
              4.5,
              11.5
            ],
            [
              4.5,
              12.5
            ],
            [
              3.5,
              12.5
            ],
            [
              3.5,
              11.5
            ]
          ]
        ]
      }
    },
    {
      "type": "Feature",
      "properties": {
        "cell_id": "SYN_disk_like_r004_c005",
        "region_id": "Synthetic-disk_like"
      },
      "geometry": {
        "type": "Polygon",
        "coordinates": [
          [
            [
              4.5,
              11.5
            ],
            [
              5.5,
              11.5
            ],
            [
              5.5,
              12.5
            ],
            [
              4.5,
              12.5
            ],
            [
              4.5,
              11.5
            ]
          ]
        ]
      }
    },
    {
      "type": "Feature",
      "properties": {
        "cell_id": "SYN_disk_like_r004_c006",
        "region_id": "Synthetic-disk_like"
      },
      "geometry": {
        "type": "Polygon",
        "coordinates": [
          [
            [
              5.5,
              11.5
            ],
            [
              6.5,
              11.5
            ],
            [
              6.5,
              12.5
            ],
            [
              5.5,
              12.5
            ],
            [
              5.5,
              11.5
            ]
          ]
        ]
      }
    },
    {
      "type": "Feature",
      "properties": {
        "cell_id": "SYN_disk_like_r004_c007",
        "region_id": "Synthetic-disk_like"
      },
      "geometry": {
        "type": "Polygon",
        "coordinates": [
          [
            [
              6.5,
              11.5
            ],
            [
              7.5,
              11.5
            ],
            [
              7.5,
              12.5
            ],
            [
              6.5,
              12.5
            ],
            [
              6.5,
              11.5
            ]
          ]
        ]
      }
    },
    {
      "type": "Feature",
      "properties": {
        "cell_id": "SYN_disk_like_r004_c008",
        "region_id": "Synthetic-disk_like"
      },
      "geometry": {
        "type": "Polygon",
        "coordinates": [
          [
            [
              7.5,
              11.5
            ],
            [
              8.5,
              11.5
            ],
            [
              8.5,
              12.5
            ],
            [
              7.5,
              12.5
            ],
            [
              7.5,
              11.5
            ]
          ]
        ]
      }
    },
    {
      "type": "Feature",
      "properties": {
        "cell_id": "SYN_disk_like_r004_c009",
        "region_id": "Synthetic-disk_like"
      },
      "geometry": {
        "type": "Polygon",
        "coordinates": [
          [
            [
              8.5,
              11.5
            ],
            [
              9.5,
              11.5
            ],
            [
              9.5,
              12.5
            ],
            [
              8.5,
              12.5
            ],
            [
              8.5,
              11.5
            ]
          ]
        ]
      }
    },
    {
      "type": "Feature",
      "properties": {
        "cell_id": "SYN_disk_like_r004_c010",
        "region_id": "Synthetic-disk_like"
      },
      "geometry": {
        "type": "Polygon",
        "coordinates": [
          [
            [
              9.5,
              11.5
            ],
            [
              10.5,
              11.5
            ],
            [
              10.5,
              12.5
            ],
            [
              9.5,
              12.5
            ],
            [
              9.5,
              11.5
            ]
          ]
        ]
      }
    },
    {
      "type": "Feature",
      "properties": {
        "cell_id": "SYN_disk_like_r004_c011",
        "region_id": "Synthetic-disk_like"
      },
      "geometry": {
        "type": "Polygon",
        "coordinates": [
          [
            [
              10.5,
              11.5
            ],
            [
              11.5,
              11.5
            ],
            [
              11.5,
              12.5
            ],
            [
              10.5,
              12.5
            ],
            [
              10.5,
              11.5
            ]
          ]
        ]
      }
    },
    {
      "type": "Feature",
      "properties": {
        "cell_id": "SYN_disk_like_r004_c012",
        "region_id": "Synthetic-disk_like"
      },
      "geometry": {
        "type": "Polygon",
        "coordinates": [
          [
            [
              11.5,
              11.5
            ],
            [
              12.5,
              11.5
            ],
            [
              12.5,
              12.5
            ],
            [
              11.5,
              12.5
            ],
            [
              11.5,
              11.5
            ]
          ]
        ]
      }
    },
    {
      "type": "Feature",
      "properties": {
        "cell_id": "SYN_disk_like_r004_c013",
        "region_id": "Synthetic-disk_like"
      },
      "geometry": {
        "type": "Polygon",
        "coordinates": [
          [
            [
              12.5,
              11.5
            ],
            [
              13.5,
              11.5
            ],
            [
              13.5,
              12.5
            ],
            [
              12.5,
              12.5
            ],
            [
              12.5,
              11.5
            ]
          ]
        ]
      }
    },
    {
      "type": "Feature",
      "properties": {
        "cell_id": "SYN_disk_like_r005_c002",
        "region_id": "Synthetic-disk_like"
      },
      "geometry": {
        "type": "Polygon",
        "coordinates": [
          [
            [
              1.5,
              10.5
            ],
            [
              2.5,
              10.5
            ],
            [
              2.5,
              11.5
            ],
            [
              1.5,
              11.5
            ],
            [
              1.5,
              10.5
            ]
          ]
        ]
      }
    },
    {
      "type": "Feature",
      "properties": {
        "cell_id": "SYN_disk_like_r005_c003",
        "region_id": "Synthetic-disk_like"
      },
      "geometry": {
        "type": "Polygon",
        "coordinates": [
          [
            [
              2.5,
              10.5
            ],
            [
              3.5,
              10.5
            ],
            [
              3.5,
              11.5
            ],
            [
              2.5,
              11.5
            ],
            [
              2.5,
              10.5
            ]
          ]
        ]
      }
    },
    {
      "type": "Feature",
      "properties": {
        "cell_id": "SYN_disk_like_r005_c004",
        "region_id": "Synthetic-disk_like"
      },
      "geometry": {
        "type": "Polygon",
        "coordinates": [
          [
            [
              3.5,
              10.5
            ],
            [
              4.5,
              10.5
            ],
            [
              4.5,
              11.5
            ],
            [
              3.5,
              11.5
            ],
            [
              3.5,
              10.5
            ]
          ]
        ]
      }
    },
    {
      "type": "Feature",
      "properties": {
        "cell_id": "SYN_disk_like_r005_c005",
        "region_id": "Synthetic-disk_like"
      },
      "geometry": {
        "type": "Polygon",
        "coordinates": [
          [
            [
              4.5,
              10.5
            ],
            [
              5.5,
              10.5
            ],
            [
              5.5,
              11.5
            ],
            [
              4.5,
              11.5
            ],
            [
              4.5,
              10.5
            ]
          ]
        ]
      }
    },
    {
      "type": "Feature",
      "properties": {
        "cell_id": "SYN_disk_like_r005_c006",
        "region_id": "Synthetic-disk_like"
      },
      "geometry": {
        "type": "Polygon",
        "coordinates": [
          [
            [
              5.5,
              10.5
            ],
            [
              6.5,
              10.5
            ],
            [
              6.5,
              11.5
            ],
            [
              5.5,
              11.5
            ],
            [
              5.5,
              10.5
            ]
          ]
        ]
      }
    },
    {
      "type": "Feature",
      "properties": {
        "cell_id": "SYN_disk_like_r005_c007",
        "region_id": "Synthetic-disk_like"
      },
      "geometry": {
        "type": "Polygon",
        "coordinates": [
          [
            [
              6.5,
              10.5
            ],
            [
              7.5,
              10.5
            ],
            [
              7.5,
              11.5
            ],
            [
              6.5,
              11.5
            ],
            [
              6.5,
              10.5
            ]
          ]
        ]
      }
    },
    {
      "type": "Feature",
      "properties": {
        "cell_id": "SYN_disk_like_r005_c008",
        "region_id": "Synthetic-disk_like"
      },
      "geometry": {
        "type": "Polygon",
        "coordinates": [
          [
            [
              7.5,
              10.5
            ],
            [
              8.5,
              10.5
            ],
            [
              8.5,
              11.5
            ],
            [
              7.5,
              11.5
            ],
            [
              7.5,
              10.5
            ]
          ]
        ]
      }
    },
    {
      "type": "Feature",
      "properties": {
        "cell_id": "SYN_disk_like_r005_c009",
        "region_id": "Synthetic-disk_like"
      },
      "geometry": {
        "type": "Polygon",
        "coordinates": [
          [
            [
              8.5,
              10.5
            ],
            [
              9.5,
              10.5
            ],
            [
              9.5,
              11.5
            ],
            [
              8.5,
              11.5
            ],
            [
              8.5,
              10.5
            ]
          ]
        ]
      }
    },
    {
      "type": "Feature",
      "properties": {
        "cell_id": "SYN_disk_like_r005_c010",
        "region_id": "Synthetic-disk_like"
      },
      "geometry": {
        "type": "Polygon",
        "coordinates": [
          [
            [
              9.5,
              10.5
            ],
            [
              10.5,
              10.5
            ],
            [
              10.5,
              11.5
            ],
            [
              9.5,
              11.5
            ],
            [
              9.5,
              10.5
            ]
          ]
        ]
      }
    },
    {
      "type": "Feature",
      "properties": {
        "cell_id": "SYN_disk_like_r005_c011",
        "region_id": "Synthetic-disk_like"
      },
      "geometry": {
        "type": "Polygon",
        "coordinates": [
          [
            [
              10.5,
              10.5
            ],
            [
              11.5,
              10.5
            ],
            [
              11.5,
              11.5
            ],
            [
              10.5,
              11.5
            ],
            [
              10.5,
              10.5
            ]
          ]
        ]
      }
    },
    {
      "type": "Feature",
      "properties": {
        "cell_id": "SYN_disk_like_r005_c012",
        "region_id": "Synthetic-disk_like"
      },
      "geometry": {
        "type": "Polygon",
        "coordinates": [
          [
            [
              11.5,
              10.5
            ],
            [
              12.5,
              10.5
            ],
            [
              12.5,
              11.5
            ],
            [
              11.5,
              11.5
            ],
            [
              11.5,
              10.5
            ]
          ]
        ]
      }
    },
    {
      "type": "Feature",
      "properties": {
        "cell_id": "SYN_disk_like_r005_c013",
        "region_id": "Synthetic-disk_like"
      },
      "geometry": {
        "type": "Polygon",
        "coordinates": [
          [
            [
              12.5,
              10.5
            ],
            [
              13.5,
              10.5
            ],
            [
              13.5,
              11.5
            ],
            [
              12.5,
              11.5
            ],
            [
              12.5,
              10.5
            ]
          ]
        ]
      }
    },
    {
      "type": "Feature",
      "properties": {
        "cell_id": "SYN_disk_like_r005_c014",
        "region_id": "Synthetic-disk_like"
      },
      "geometry": {
        "type": "Polygon",
        "coordinates": [
          [
            [
              13.5,
              10.5
            ],
            [
              14.5,
              10.5
            ],
            [
              14.5,
              11.5
            ],
            [
              13.5,
              11.5
            ],
            [
              13.5,
              10.5
            ]
          ]
        ]
      }
    },
    {
      "type": "Feature",
      "properties": {
        "cell_id": "SYN_disk_like_r006_c002",
        "region_id": "Synthetic-disk_like"
      },
      "geometry": {
        "type": "Polygon",
        "coordinates": [
          [
            [
              1.5,
              9.5
            ],
            [
              2.5,
              9.5
            ],
            [
              2.5,
              10.5
            ],
            [
              1.5,
              10.5
            ],
            [
              1.5,
              9.5
            ]
          ]
        ]
      }
    },
    {
      "type": "Feature",
      "properties": {
        "cell_id": "SYN_disk_like_r006_c003",
        "region_id": "Synthetic-disk_like"
      },
      "geometry": {
        "type": "Polygon",
        "coordinates": [
          [
            [
              2.5,
              9.5
            ],
            [
              3.5,
              9.5
            ],
            [
              3.5,
              10.5
            ],
            [
              2.5,
              10.5
            ],
            [
              2.5,
              9.5
            ]
          ]
        ]
      }
    },
    {
      "type": "Feature",
      "properties": {
        "cell_id": "SYN_disk_like_r006_c004",
        "region_id": "Synthetic-disk_like"
      },
      "geometry": {
        "type": "Polygon",
        "coordinates": [
          [
            [
              3.5,
              9.5
            ],
            [
              4.5,
              9.5
            ],
            [
              4.5,
              10.5
            ],
            [
              3.5,
              10.5
            ],
            [
              3.5,
              9.5
            ]
          ]
        ]
      }
    },
    {
      "type": "Feature",
      "properties": {
        "cell_id": "SYN_disk_like_r006_c005",
        "region_id": "Synthetic-disk_like"
      },
      "geometry": {
        "type": "Polygon",
        "coordinates": [
          [
            [
              4.5,
              9.5
            ],
            [
              5.5,
              9.5
            ],
            [
              5.5,
              10.5
            ],
            [
              4.5,
              10.5
            ],
            [
              4.5,
              9.5
            ]
          ]
        ]
      }
    },
    {
      "type": "Feature",
      "properties": {
        "cell_id": "SYN_disk_like_r006_c006",
        "region_id": "Synthetic-disk_like"
      },
      "geometry": {
        "type": "Polygon",
        "coordinates": [
          [
            [
              5.5,
              9.5
            ],
            [
              6.5,
              9.5
            ],
            [
              6.5,
              10.5
            ],
            [
              5.5,
              10.5
            ],
            [
              5.5,
              9.5
            ]
          ]
        ]
      }
    },
    {
      "type": "Feature",
      "properties": {
        "cell_id": "SYN_disk_like_r006_c007",
        "region_id": "Synthetic-disk_like"
      },
      "geometry": {
        "type": "Polygon",
        "coordinates": [
          [
            [
              6.5,
              9.5
            ],
            [
              7.5,
              9.5
            ],
            [
              7.5,
              10.5
            ],
            [
              6.5,
              10.5
            ],
            [
              6.5,
              9.5
            ]
          ]
        ]
      }
    },
    {
      "type": "Feature",
      "properties": {
        "cell_id": "SYN_disk_like_r006_c008",
        "region_id": "Synthetic-disk_like"
      },
      "geometry": {
        "type": "Polygon",
        "coordinates": [
          [
            [
              7.5,
              9.5
            ],
            [
              8.5,
              9.5
            ],
            [
              8.5,
              10.5
            ],
            [
              7.5,
              10.5
            ],
            [
              7.5,
              9.5
            ]
          ]
        ]
      }
    },
    {
      "type": "Feature",
      "properties": {
        "cell_id": "SYN_disk_like_r006_c009",
        "region_id": "Synthetic-disk_like"
      },
      "geometry": {
        "type": "Polygon",
        "coordinates": [
          [
            [
              8.5,
              9.5
            ],
            [
              9.5,
              9.5
            ],
            [
              9.5,
              10.5
            ],
            [
              8.5,
              10.5
            ],
            [
              8.5,
              9.5
            ]
          ]
        ]
      }
    },
    {
      "type": "Feature",
      "properties": {
        "cell_id": "SYN_disk_like_r006_c010",
        "region_id": "Synthetic-disk_like"
      },
      "geometry": {
        "type": "Polygon",
        "coordinates": [
          [
            [
              9.5,
              9.5
            ],
            [
              10.5,
              9.5
            ],
            [
              10.5,
              10.5
            ],
            [
              9.5,
              10.5
            ],
            [
              9.5,
              9.5
            ]
          ]
        ]
      }
    },
    {
      "type": "Feature",
      "properties": {
        "cell_id": "SYN_disk_like_r006_c011",
        "region_id": "Synthetic-disk_like"
      },
      "geometry": {
        "type": "Polygon",
        "coordinates": [
          [
            [
              10.5,
              9.5
            ],
            [
              11.5,
              9.5
            ],
            [
              11.5,
              10.5
            ],
            [
              10.5,
              10.5
            ],
            [
              10.5,
              9.5
            ]
          ]
        ]
      }
    },
    {
      "type": "Feature",
      "properties": {
        "cell_id": "SYN_disk_like_r006_c012",
        "region_id": "Synthetic-disk_like"
      },
      "geometry": {
        "type": "Polygon",
        "coordinates": [
          [
            [
              11.5,
              9.5
            ],
            [
              12.5,
              9.5
            ],
            [
              12.5,
              10.5
            ],
            [
              11.5,
              10.5
            ],
            [
              11.5,
              9.5
            ]
          ]
        ]
      }
    },
    {
      "type": "Feature",
      "properties": {
        "cell_id": "SYN_disk_like_r006_c013",
        "region_id": "Synthetic-disk_like"
      },
      "geometry": {
        "type": "Polygon",
        "coordinates": [
          [
            [
              12.5,
              9.5
            ],
            [
              13.5,
              9.5
            ],
            [
              13.5,
              10.5
            ],
            [
              12.5,
              10.5
            ],
            [
              12.5,
              9.5
            ]
          ]
        ]
      }
    },
    {
      "type": "Feature",
      "properties": {
        "cell_id": "SYN_disk_like_r006_c014",
        "region_id": "Synthetic-disk_like"
      },
      "geometry": {
        "type": "Polygon",
        "coordinates": [
          [
            [
              13.5,
              9.5
            ],
            [
              14.5,
              9.5
            ],
            [
              14.5,
              10.5
            ],
            [
              13.5,
              10.5
            ],
            [
              13.5,
              9.5
            ]
          ]
        ]
      }
    },
    {
      "type": "Feature",
      "properties": {
        "cell_id": "SYN_disk_like_r007_c002",
        "region_id": "Synthetic-disk_like"
      },
      "geometry": {
        "type": "Polygon",
        "coordinates": [
          [
            [
              1.5,
              8.5
            ],
            [
              2.5,
              8.5
            ],
            [
              2.5,
              9.5
            ],
            [
              1.5,
              9.5
            ],
            [
              1.5,
              8.5
            ]
          ]
        ]
      }
    },
    {
      "type": "Feature",
      "properties": {
        "cell_id": "SYN_disk_like_r007_c003",
        "region_id": "Synthetic-disk_like"
      },
      "geometry": {
        "type": "Polygon",
        "coordinates": [
          [
            [
              2.5,
              8.5
            ],
            [
              3.5,
              8.5
            ],
            [
              3.5,
              9.5
            ],
            [
              2.5,
              9.5
            ],
            [
              2.5,
              8.5
            ]
          ]
        ]
      }
    },
    {
      "type": "Feature",
      "properties": {
        "cell_id": "SYN_disk_like_r007_c004",
        "region_id": "Synthetic-disk_like"
      },
      "geometry": {
        "type": "Polygon",
        "coordinates": [
          [
            [
              3.5,
              8.5
            ],
            [
              4.5,
              8.5
            ],
            [
              4.5,
              9.5
            ],
            [
              3.5,
              9.5
            ],
            [
              3.5,
              8.5
            ]
          ]
        ]
      }
    },
    {
      "type": "Feature",
      "properties": {
        "cell_id": "SYN_disk_like_r007_c005",
        "region_id": "Synthetic-disk_like"
      },
      "geometry": {
        "type": "Polygon",
        "coordinates": [
          [
            [
              4.5,
              8.5
            ],
            [
              5.5,
              8.5
            ],
            [
              5.5,
              9.5
            ],
            [
              4.5,
              9.5
            ],
            [
              4.5,
              8.5
            ]
          ]
        ]
      }
    },
    {
      "type": "Feature",
      "properties": {
        "cell_id": "SYN_disk_like_r007_c006",
        "region_id": "Synthetic-disk_like"
      },
      "geometry": {
        "type": "Polygon",
        "coordinates": [
          [
            [
              5.5,
              8.5
            ],
            [
              6.5,
              8.5
            ],
            [
              6.5,
              9.5
            ],
            [
              5.5,
              9.5
            ],
            [
              5.5,
              8.5
            ]
          ]
        ]
      }
    },
    {
      "type": "Feature",
      "properties": {
        "cell_id": "SYN_disk_like_r007_c007",
        "region_id": "Synthetic-disk_like"
      },
      "geometry": {
        "type": "Polygon",
        "coordinates": [
          [
            [
              6.5,
              8.5
            ],
            [
              7.5,
              8.5
            ],
            [
              7.5,
              9.5
            ],
            [
              6.5,
              9.5
            ],
            [
              6.5,
              8.5
            ]
          ]
        ]
      }
    },
    {
      "type": "Feature",
      "properties": {
        "cell_id": "SYN_disk_like_r007_c008",
        "region_id": "Synthetic-disk_like"
      },
      "geometry": {
        "type": "Polygon",
        "coordinates": [
          [
            [
              7.5,
              8.5
            ],
            [
              8.5,
              8.5
            ],
            [
              8.5,
              9.5
            ],
            [
              7.5,
              9.5
            ],
            [
              7.5,
              8.5
            ]
          ]
        ]
      }
    },
    {
      "type": "Feature",
      "properties": {
        "cell_id": "SYN_disk_like_r007_c009",
        "region_id": "Synthetic-disk_like"
      },
      "geometry": {
        "type": "Polygon",
        "coordinates": [
          [
            [
              8.5,
              8.5
            ],
            [
              9.5,
              8.5
            ],
            [
              9.5,
              9.5
            ],
            [
              8.5,
              9.5
            ],
            [
              8.5,
              8.5
            ]
          ]
        ]
      }
    },
    {
      "type": "Feature",
      "properties": {
        "cell_id": "SYN_disk_like_r007_c010",
        "region_id": "Synthetic-disk_like"
      },
      "geometry": {
        "type": "Polygon",
        "coordinates": [
          [
            [
              9.5,
              8.5
            ],
            [
              10.5,
              8.5
            ],
            [
              10.5,
              9.5
            ],
            [
              9.5,
              9.5
            ],
            [
              9.5,
              8.5
            ]
          ]
        ]
      }
    },
    {
      "type": "Feature",
      "properties": {
        "cell_id": "SYN_disk_like_r007_c011",
        "region_id": "Synthetic-disk_like"
      },
      "geometry": {
        "type": "Polygon",
        "coordinates": [
          [
            [
              10.5,
              8.5
            ],
            [
              11.5,
              8.5
            ],
            [
              11.5,
              9.5
            ],
            [
              10.5,
              9.5
            ],
            [
              10.5,
              8.5
            ]
          ]
        ]
      }
    },
    {
      "type": "Feature",
      "properties": {
        "cell_id": "SYN_disk_like_r007_c012",
        "region_id": "Synthetic-disk_like"
      },
      "geometry": {
        "type": "Polygon",
        "coordinates": [
          [
            [
              11.5,
              8.5
            ],
            [
              12.5,
              8.5
            ],
            [
              12.5,
              9.5
            ],
            [
              11.5,
              9.5
            ],
            [
              11.5,
              8.5
            ]
          ]
        ]
      }
    },
    {
      "type": "Feature",
      "properties": {
        "cell_id": "SYN_disk_like_r007_c013",
        "region_id": "Synthetic-disk_like"
      },
      "geometry": {
        "type": "Polygon",
        "coordinates": [
          [
            [
              12.5,
              8.5
            ],
            [
              13.5,
              8.5
            ],
            [
              13.5,
              9.5
            ],
            [
              12.5,
              9.5
            ],
            [
              12.5,
              8.5
            ]
          ]
        ]
      }
    },
    {
      "type": "Feature",
      "properties": {
        "cell_id": "SYN_disk_like_r007_c014",
        "region_id": "Synthetic-disk_like"
      },
      "geometry": {
        "type": "Polygon",
        "coordinates": [
          [
            [
              13.5,
              8.5
            ],
            [
              14.5,
              8.5
            ],
            [
              14.5,
              9.5
            ],
            [
              13.5,
              9.5
            ],
            [
              13.5,
              8.5
            ]
          ]
        ]
      }
    },
    {
      "type": "Feature",
      "properties": {
        "cell_id": "SYN_disk_like_r008_c001",
        "region_id": "Synthetic-disk_like"
      },
      "geometry": {
        "type": "Polygon",
        "coordinates": [
          [
            [
              0.5,
              7.5
            ],
            [
              1.5,
              7.5
            ],
            [
              1.5,
              8.5
            ],
            [
              0.5,
              8.5
            ],
            [
              0.5,
              7.5
            ]
          ]
        ]
      }
    },
    {
      "type": "Feature",
      "properties": {
        "cell_id": "SYN_disk_like_r008_c002",
        "region_id": "Synthetic-disk_like"
      },
      "geometry": {
        "type": "Polygon",
        "coordinates": [
          [
            [
              1.5,
              7.5
            ],
            [
              2.5,
              7.5
            ],
            [
              2.5,
              8.5
            ],
            [
              1.5,
              8.5
            ],
            [
              1.5,
              7.5
            ]
          ]
        ]
      }
    },
    {
      "type": "Feature",
      "properties": {
        "cell_id": "SYN_disk_like_r008_c003",
        "region_id": "Synthetic-disk_like"
      },
      "geometry": {
        "type": "Polygon",
        "coordinates": [
          [
            [
              2.5,
              7.5
            ],
            [
              3.5,
              7.5
            ],
            [
              3.5,
              8.5
            ],
            [
              2.5,
              8.5
            ],
            [
              2.5,
              7.5
            ]
          ]
        ]
      }
    },
    {
      "type": "Feature",
      "properties": {
        "cell_id": "SYN_disk_like_r008_c004",
        "region_id": "Synthetic-disk_like"
      },
      "geometry": {
        "type": "Polygon",
        "coordinates": [
          [
            [
              3.5,
              7.5
            ],
            [
              4.5,
              7.5
            ],
            [
              4.5,
              8.5
            ],
            [
              3.5,
              8.5
            ],
            [
              3.5,
              7.5
            ]
          ]
        ]
      }
    },
    {
      "type": "Feature",
      "properties": {
        "cell_id": "SYN_disk_like_r008_c005",
        "region_id": "Synthetic-disk_like"
      },
      "geometry": {
        "type": "Polygon",
        "coordinates": [
          [
            [
              4.5,
              7.5
            ],
            [
              5.5,
              7.5
            ],
            [
              5.5,
              8.5
            ],
            [
              4.5,
              8.5
            ],
            [
              4.5,
              7.5
            ]
          ]
        ]
      }
    },
    {
      "type": "Feature",
      "properties": {
        "cell_id": "SYN_disk_like_r008_c006",
        "region_id": "Synthetic-disk_like"
      },
      "geometry": {
        "type": "Polygon",
        "coordinates": [
          [
            [
              5.5,
              7.5
            ],
            [
              6.5,
              7.5
            ],
            [
              6.5,
              8.5
            ],
            [
              5.5,
              8.5
            ],
            [
              5.5,
              7.5
            ]
          ]
        ]
      }
    },
    {
      "type": "Feature",
      "properties": {
        "cell_id": "SYN_disk_like_r008_c007",
        "region_id": "Synthetic-disk_like"
      },
      "geometry": {
        "type": "Polygon",
        "coordinates": [
          [
            [
              6.5,
              7.5
            ],
            [
              7.5,
              7.5
            ],
            [
              7.5,
              8.5
            ],
            [
              6.5,
              8.5
            ],
            [
              6.5,
              7.5
            ]
          ]
        ]
      }
    },
    {
      "type": "Feature",
      "properties": {
        "cell_id": "SYN_disk_like_r008_c008",
        "region_id": "Synthetic-disk_like"
      },
      "geometry": {
        "type": "Polygon",
        "coordinates": [
          [
            [
              7.5,
              7.5
            ],
            [
              8.5,
              7.5
            ],
            [
              8.5,
              8.5
            ],
            [
              7.5,
              8.5
            ],
            [
              7.5,
              7.5
            ]
          ]
        ]
      }
    },
    {
      "type": "Feature",
      "properties": {
        "cell_id": "SYN_disk_like_r008_c009",
        "region_id": "Synthetic-disk_like"
      },
      "geometry": {
        "type": "Polygon",
        "coordinates": [
          [
            [
              8.5,
              7.5
            ],
            [
              9.5,
              7.5
            ],
            [
              9.5,
              8.5
            ],
            [
              8.5,
              8.5
            ],
            [
              8.5,
              7.5
            ]
          ]
        ]
      }
    },
    {
      "type": "Feature",
      "properties": {
        "cell_id": "SYN_disk_like_r008_c010",
        "region_id": "Synthetic-disk_like"
      },
      "geometry": {
        "type": "Polygon",
        "coordinates": [
          [
            [
              9.5,
              7.5
            ],
            [
              10.5,
              7.5
            ],
            [
              10.5,
              8.5
            ],
            [
              9.5,
              8.5
            ],
            [
              9.5,
              7.5
            ]
          ]
        ]
      }
    },
    {
      "type": "Feature",
      "properties": {
        "cell_id": "SYN_disk_like_r008_c011",
        "region_id": "Synthetic-disk_like"
      },
      "geometry": {
        "type": "Polygon",
        "coordinates": [
          [
            [
              10.5,
              7.5
            ],
            [
              11.5,
              7.5
            ],
            [
              11.5,
              8.5
            ],
            [
              10.5,
              8.5
            ],
            [
              10.5,
              7.5
            ]
          ]
        ]
      }
    },
    {
      "type": "Feature",
      "properties": {
        "cell_id": "SYN_disk_like_r008_c012",
        "region_id": "Synthetic-disk_like"
      },
      "geometry": {
        "type": "Polygon",
        "coordinates": [
          [
            [
              11.5,
              7.5
            ],
            [
              12.5,
              7.5
            ],
            [
              12.5,
              8.5
            ],
            [
              11.5,
              8.5
            ],
            [
              11.5,
              7.5
            ]
          ]
        ]
      }
    },
    {
      "type": "Feature",
      "properties": {
        "cell_id": "SYN_disk_like_r008_c013",
        "region_id": "Synthetic-disk_like"
      },
      "geometry": {
        "type": "Polygon",
        "coordinates": [
          [
            [
              12.5,
              7.5
            ],
            [
              13.5,
              7.5
            ],
            [
              13.5,
              8.5
            ],
            [
              12.5,
              8.5
            ],
            [
              12.5,
              7.5
            ]
          ]
        ]
      }
    },
    {
      "type": "Feature",
      "properties": {
        "cell_id": "SYN_disk_like_r008_c014",
        "region_id": "Synthetic-disk_like"
      },
      "geometry": {
        "type": "Polygon",
        "coordinates": [
          [
            [
              13.5,
              7.5
            ],
            [
              14.5,
              7.5
            ],
            [
              14.5,
              8.5
            ],
            [
              13.5,
              8.5
            ],
            [
              13.5,
              7.5
            ]
          ]
        ]
      }
    },
    {
      "type": "Feature",
      "properties": {
        "cell_id": "SYN_disk_like_r008_c015",
        "region_id": "Synthetic-disk_like"
      },
      "geometry": {
        "type": "Polygon",
        "coordinates": [
          [
            [
              14.5,
              7.5
            ],
            [
              15.5,
              7.5
            ],
            [
              15.5,
              8.5
            ],
            [
              14.5,
              8.5
            ],
            [
              14.5,
              7.5
            ]
          ]
        ]
      }
    },
    {
      "type": "Feature",
      "properties": {
        "cell_id": "SYN_disk_like_r009_c002",
        "region_id": "Synthetic-disk_like"
      },
      "geometry": {
        "type": "Polygon",
        "coordinates": [
          [
            [
              1.5,
              6.5
            ],
            [
              2.5,
              6.5
            ],
            [
              2.5,
              7.5
            ],
            [
              1.5,
              7.5
            ],
            [
              1.5,
              6.5
            ]
          ]
        ]
      }
    },
    {
      "type": "Feature",
      "properties": {
        "cell_id": "SYN_disk_like_r009_c003",
        "region_id": "Synthetic-disk_like"
      },
      "geometry": {
        "type": "Polygon",
        "coordinates": [
          [
            [
              2.5,
              6.5
            ],
            [
              3.5,
              6.5
            ],
            [
              3.5,
              7.5
            ],
            [
              2.5,
              7.5
            ],
            [
              2.5,
              6.5
            ]
          ]
        ]
      }
    },
    {
      "type": "Feature",
      "properties": {
        "cell_id": "SYN_disk_like_r009_c004",
        "region_id": "Synthetic-disk_like"
      },
      "geometry": {
        "type": "Polygon",
        "coordinates": [
          [
            [
              3.5,
              6.5
            ],
            [
              4.5,
              6.5
            ],
            [
              4.5,
              7.5
            ],
            [
              3.5,
              7.5
            ],
            [
              3.5,
              6.5
            ]
          ]
        ]
      }
    },
    {
      "type": "Feature",
      "properties": {
        "cell_id": "SYN_disk_like_r009_c005",
        "region_id": "Synthetic-disk_like"
      },
      "geometry": {
        "type": "Polygon",
        "coordinates": [
          [
            [
              4.5,
              6.5
            ],
            [
              5.5,
              6.5
            ],
            [
              5.5,
              7.5
            ],
            [
              4.5,
              7.5
            ],
            [
              4.5,
              6.5
            ]
          ]
        ]
      }
    },
    {
      "type": "Feature",
      "properties": {
        "cell_id": "SYN_disk_like_r009_c006",
        "region_id": "Synthetic-disk_like"
      },
      "geometry": {
        "type": "Polygon",
        "coordinates": [
          [
            [
              5.5,
              6.5
            ],
            [
              6.5,
              6.5
            ],
            [
              6.5,
              7.5
            ],
            [
              5.5,
              7.5
            ],
            [
              5.5,
              6.5
            ]
          ]
        ]
      }
    },
    {
      "type": "Feature",
      "properties": {
        "cell_id": "SYN_disk_like_r009_c007",
        "region_id": "Synthetic-disk_like"
      },
      "geometry": {
        "type": "Polygon",
        "coordinates": [
          [
            [
              6.5,
              6.5
            ],
            [
              7.5,
              6.5
            ],
            [
              7.5,
              7.5
            ],
            [
              6.5,
              7.5
            ],
            [
              6.5,
              6.5
            ]
          ]
        ]
      }
    },
    {
      "type": "Feature",
      "properties": {
        "cell_id": "SYN_disk_like_r009_c008",
        "region_id": "Synthetic-disk_like"
      },
      "geometry": {
        "type": "Polygon",
        "coordinates": [
          [
            [
              7.5,
              6.5
            ],
            [
              8.5,
              6.5
            ],
            [
              8.5,
              7.5
            ],
            [
              7.5,
              7.5
            ],
            [
              7.5,
              6.5
            ]
          ]
        ]
      }
    },
    {
      "type": "Feature",
      "properties": {
        "cell_id": "SYN_disk_like_r009_c009",
        "region_id": "Synthetic-disk_like"
      },
      "geometry": {
        "type": "Polygon",
        "coordinates": [
          [
            [
              8.5,
              6.5
            ],
            [
              9.5,
              6.5
            ],
            [
              9.5,
              7.5
            ],
            [
              8.5,
              7.5
            ],
            [
              8.5,
              6.5
            ]
          ]
        ]
      }
    },
    {
      "type": "Feature",
      "properties": {
        "cell_id": "SYN_disk_like_r009_c010",
        "region_id": "Synthetic-disk_like"
      },
      "geometry": {
        "type": "Polygon",
        "coordinates": [
          [
            [
              9.5,
              6.5
            ],
            [
              10.5,
              6.5
            ],
            [
              10.5,
              7.5
            ],
            [
              9.5,
              7.5
            ],
            [
              9.5,
              6.5
            ]
          ]
        ]
      }
    },
    {
      "type": "Feature",
      "properties": {
        "cell_id": "SYN_disk_like_r009_c011",
        "region_id": "Synthetic-disk_like"
      },
      "geometry": {
        "type": "Polygon",
        "coordinates": [
          [
            [
              10.5,
              6.5
            ],
            [
              11.5,
              6.5
            ],
            [
              11.5,
              7.5
            ],
            [
              10.5,
              7.5
            ],
            [
              10.5,
              6.5
            ]
          ]
        ]
      }
    },
    {
      "type": "Feature",
      "properties": {
        "cell_id": "SYN_disk_like_r009_c012",
        "region_id": "Synthetic-disk_like"
      },
      "geometry": {
        "type": "Polygon",
        "coordinates": [
          [
            [
              11.5,
              6.5
            ],
            [
              12.5,
              6.5
            ],
            [
              12.5,
              7.5
            ],
            [
              11.5,
              7.5
            ],
            [
              11.5,
              6.5
            ]
          ]
        ]
      }
    },
    {
      "type": "Feature",
      "properties": {
        "cell_id": "SYN_disk_like_r009_c013",
        "region_id": "Synthetic-disk_like"
      },
      "geometry": {
        "type": "Polygon",
        "coordinates": [
          [
            [
              12.5,
              6.5
            ],
            [
              13.5,
              6.5
            ],
            [
              13.5,
              7.5
            ],
            [
              12.5,
              7.5
            ],
            [
              12.5,
              6.5
            ]
          ]
        ]
      }
    },
    {
      "type": "Feature",
      "properties": {
        "cell_id": "SYN_disk_like_r009_c014",
        "region_id": "Synthetic-disk_like"
      },
      "geometry": {
        "type": "Polygon",
        "coordinates": [
          [
            [
              13.5,
              6.5
            ],
            [
              14.5,
              6.5
            ],
            [
              14.5,
              7.5
            ],
            [
              13.5,
              7.5
            ],
            [
              13.5,
              6.5
            ]
          ]
        ]
      }
    },
    {
      "type": "Feature",
      "properties": {
        "cell_id": "SYN_disk_like_r010_c002",
        "region_id": "Synthetic-disk_like"
      },
      "geometry": {
        "type": "Polygon",
        "coordinates": [
          [
            [
              1.5,
              5.5
            ],
            [
              2.5,
              5.5
            ],
            [
              2.5,
              6.5
            ],
            [
              1.5,
              6.5
            ],
            [
              1.5,
              5.5
            ]
          ]
        ]
      }
    },
    {
      "type": "Feature",
      "properties": {
        "cell_id": "SYN_disk_like_r010_c003",
        "region_id": "Synthetic-disk_like"
      },
      "geometry": {
        "type": "Polygon",
        "coordinates": [
          [
            [
              2.5,
              5.5
            ],
            [
              3.5,
              5.5
            ],
            [
              3.5,
              6.5
            ],
            [
              2.5,
              6.5
            ],
            [
              2.5,
              5.5
            ]
          ]
        ]
      }
    },
    {
      "type": "Feature",
      "properties": {
        "cell_id": "SYN_disk_like_r010_c004",
        "region_id": "Synthetic-disk_like"
      },
      "geometry": {
        "type": "Polygon",
        "coordinates": [
          [
            [
              3.5,
              5.5
            ],
            [
              4.5,
              5.5
            ],
            [
              4.5,
              6.5
            ],
            [
              3.5,
              6.5
            ],
            [
              3.5,
              5.5
            ]
          ]
        ]
      }
    },
    {
      "type": "Feature",
      "properties": {
        "cell_id": "SYN_disk_like_r010_c005",
        "region_id": "Synthetic-disk_like"
      },
      "geometry": {
        "type": "Polygon",
        "coordinates": [
          [
            [
              4.5,
              5.5
            ],
            [
              5.5,
              5.5
            ],
            [
              5.5,
              6.5
            ],
            [
              4.5,
              6.5
            ],
            [
              4.5,
              5.5
            ]
          ]
        ]
      }
    },
    {
      "type": "Feature",
      "properties": {
        "cell_id": "SYN_disk_like_r010_c006",
        "region_id": "Synthetic-disk_like"
      },
      "geometry": {
        "type": "Polygon",
        "coordinates": [
          [
            [
              5.5,
              5.5
            ],
            [
              6.5,
              5.5
            ],
            [
              6.5,
              6.5
            ],
            [
              5.5,
              6.5
            ],
            [
              5.5,
              5.5
            ]
          ]
        ]
      }
    },
    {
      "type": "Feature",
      "properties": {
        "cell_id": "SYN_disk_like_r010_c007",
        "region_id": "Synthetic-disk_like"
      },
      "geometry": {
        "type": "Polygon",
        "coordinates": [
          [
            [
              6.5,
              5.5
            ],
            [
              7.5,
              5.5
            ],
            [
              7.5,
              6.5
            ],
            [
              6.5,
              6.5
            ],
            [
              6.5,
              5.5
            ]
          ]
        ]
      }
    },
    {
      "type": "Feature",
      "properties": {
        "cell_id": "SYN_disk_like_r010_c008",
        "region_id": "Synthetic-disk_like"
      },
      "geometry": {
        "type": "Polygon",
        "coordinates": [
          [
            [
              7.5,
              5.5
            ],
            [
              8.5,
              5.5
            ],
            [
              8.5,
              6.5
            ],
            [
              7.5,
              6.5
            ],
            [
              7.5,
              5.5
            ]
          ]
        ]
      }
    },
    {
      "type": "Feature",
      "properties": {
        "cell_id": "SYN_disk_like_r010_c009",
        "region_id": "Synthetic-disk_like"
      },
      "geometry": {
        "type": "Polygon",
        "coordinates": [
          [
            [
              8.5,
              5.5
            ],
            [
              9.5,
              5.5
            ],
            [
              9.5,
              6.5
            ],
            [
              8.5,
              6.5
            ],
            [
              8.5,
              5.5
            ]
          ]
        ]
      }
    },
    {
      "type": "Feature",
      "properties": {
        "cell_id": "SYN_disk_like_r010_c010",
        "region_id": "Synthetic-disk_like"
      },
      "geometry": {
        "type": "Polygon",
        "coordinates": [
          [
            [
              9.5,
              5.5
            ],
            [
              10.5,
              5.5
            ],
            [
              10.5,
              6.5
            ],
            [
              9.5,
              6.5
            ],
            [
              9.5,
              5.5
            ]
          ]
        ]
      }
    },
    {
      "type": "Feature",
      "properties": {
        "cell_id": "SYN_disk_like_r010_c011",
        "region_id": "Synthetic-disk_like"
      },
      "geometry": {
        "type": "Polygon",
        "coordinates": [
          [
            [
              10.5,
              5.5
            ],
            [
              11.5,
              5.5
            ],
            [
              11.5,
              6.5
            ],
            [
              10.5,
              6.5
            ],
            [
              10.5,
              5.5
            ]
          ]
        ]
      }
    },
    {
      "type": "Feature",
      "properties": {
        "cell_id": "SYN_disk_like_r010_c012",
        "region_id": "Synthetic-disk_like"
      },
      "geometry": {
        "type": "Polygon",
        "coordinates": [
          [
            [
              11.5,
              5.5
            ],
            [
              12.5,
              5.5
            ],
            [
              12.5,
              6.5
            ],
            [
              11.5,
              6.5
            ],
            [
              11.5,
              5.5
            ]
          ]
        ]
      }
    },
    {
      "type": "Feature",
      "properties": {
        "cell_id": "SYN_disk_like_r010_c013",
        "region_id": "Synthetic-disk_like"
      },
      "geometry": {
        "type": "Polygon",
        "coordinates": [
          [
            [
              12.5,
              5.5
            ],
            [
              13.5,
              5.5
            ],
            [
              13.5,
              6.5
            ],
            [
              12.5,
              6.5
            ],
            [
              12.5,
              5.5
            ]
          ]
        ]
      }
    },
    {
      "type": "Feature",
      "properties": {
        "cell_id": "SYN_disk_like_r010_c014",
        "region_id": "Synthetic-disk_like"
      },
      "geometry": {
        "type": "Polygon",
        "coordinates": [
          [
            [
              13.5,
              5.5
            ],
            [
              14.5,
              5.5
            ],
            [
              14.5,
              6.5
            ],
            [
              13.5,
              6.5
            ],
            [
              13.5,
              5.5
            ]
          ]
        ]
      }
    },
    {
      "type": "Feature",
      "properties": {
        "cell_id": "SYN_disk_like_r011_c002",
        "region_id": "Synthetic-disk_like"
      },
      "geometry": {
        "type": "Polygon",
        "coordinates": [
          [
            [
              1.5,
              4.5
            ],
            [
              2.5,
              4.5
            ],
            [
              2.5,
              5.5
            ],
            [
              1.5,
              5.5
            ],
            [
              1.5,
              4.5
            ]
          ]
        ]
      }
    },
    {
      "type": "Feature",
      "properties": {
        "cell_id": "SYN_disk_like_r011_c003",
        "region_id": "Synthetic-disk_like"
      },
      "geometry": {
        "type": "Polygon",
        "coordinates": [
          [
            [
              2.5,
              4.5
            ],
            [
              3.5,
              4.5
            ],
            [
              3.5,
              5.5
            ],
            [
              2.5,
              5.5
            ],
            [
              2.5,
              4.5
            ]
          ]
        ]
      }
    },
    {
      "type": "Feature",
      "properties": {
        "cell_id": "SYN_disk_like_r011_c004",
        "region_id": "Synthetic-disk_like"
      },
      "geometry": {
        "type": "Polygon",
        "coordinates": [
          [
            [
              3.5,
              4.5
            ],
            [
              4.5,
              4.5
            ],
            [
              4.5,
              5.5
            ],
            [
              3.5,
              5.5
            ],
            [
              3.5,
              4.5
            ]
          ]
        ]
      }
    },
    {
      "type": "Feature",
      "properties": {
        "cell_id": "SYN_disk_like_r011_c005",
        "region_id": "Synthetic-disk_like"
      },
      "geometry": {
        "type": "Polygon",
        "coordinates": [
          [
            [
              4.5,
              4.5
            ],
            [
              5.5,
              4.5
            ],
            [
              5.5,
              5.5
            ],
            [
              4.5,
              5.5
            ],
            [
              4.5,
              4.5
            ]
          ]
        ]
      }
    },
    {
      "type": "Feature",
      "properties": {
        "cell_id": "SYN_disk_like_r011_c006",
        "region_id": "Synthetic-disk_like"
      },
      "geometry": {
        "type": "Polygon",
        "coordinates": [
          [
            [
              5.5,
              4.5
            ],
            [
              6.5,
              4.5
            ],
            [
              6.5,
              5.5
            ],
            [
              5.5,
              5.5
            ],
            [
              5.5,
              4.5
            ]
          ]
        ]
      }
    },
    {
      "type": "Feature",
      "properties": {
        "cell_id": "SYN_disk_like_r011_c007",
        "region_id": "Synthetic-disk_like"
      },
      "geometry": {
        "type": "Polygon",
        "coordinates": [
          [
            [
              6.5,
              4.5
            ],
            [
              7.5,
              4.5
            ],
            [
              7.5,
              5.5
            ],
            [
              6.5,
              5.5
            ],
            [
              6.5,
              4.5
            ]
          ]
        ]
      }
    },
    {
      "type": "Feature",
      "properties": {
        "cell_id": "SYN_disk_like_r011_c008",
        "region_id": "Synthetic-disk_like"
      },
      "geometry": {
        "type": "Polygon",
        "coordinates": [
          [
            [
              7.5,
              4.5
            ],
            [
              8.5,
              4.5
            ],
            [
              8.5,
              5.5
            ],
            [
              7.5,
              5.5
            ],
            [
              7.5,
              4.5
            ]
          ]
        ]
      }
    },
    {
      "type": "Feature",
      "properties": {
        "cell_id": "SYN_disk_like_r011_c009",
        "region_id": "Synthetic-disk_like"
      },
      "geometry": {
        "type": "Polygon",
        "coordinates": [
          [
            [
              8.5,
              4.5
            ],
            [
              9.5,
              4.5
            ],
            [
              9.5,
              5.5
            ],
            [
              8.5,
              5.5
            ],
            [
              8.5,
              4.5
            ]
          ]
        ]
      }
    },
    {
      "type": "Feature",
      "properties": {
        "cell_id": "SYN_disk_like_r011_c010",
        "region_id": "Synthetic-disk_like"
      },
      "geometry": {
        "type": "Polygon",
        "coordinates": [
          [
            [
              9.5,
              4.5
            ],
            [
              10.5,
              4.5
            ],
            [
              10.5,
              5.5
            ],
            [
              9.5,
              5.5
            ],
            [
              9.5,
              4.5
            ]
          ]
        ]
      }
    },
    {
      "type": "Feature",
      "properties": {
        "cell_id": "SYN_disk_like_r011_c011",
        "region_id": "Synthetic-disk_like"
      },
      "geometry": {
        "type": "Polygon",
        "coordinates": [
          [
            [
              10.5,
              4.5
            ],
            [
              11.5,
              4.5
            ],
            [
              11.5,
              5.5
            ],
            [
              10.5,
              5.5
            ],
            [
              10.5,
              4.5
            ]
          ]
        ]
      }
    },
    {
      "type": "Feature",
      "properties": {
        "cell_id": "SYN_disk_like_r011_c012",
        "region_id": "Synthetic-disk_like"
      },
      "geometry": {
        "type": "Polygon",
        "coordinates": [
          [
            [
              11.5,
              4.5
            ],
            [
              12.5,
              4.5
            ],
            [
              12.5,
              5.5
            ],
            [
              11.5,
              5.5
            ],
            [
              11.5,
              4.5
            ]
          ]
        ]
      }
    },
    {
      "type": "Feature",
      "properties": {
        "cell_id": "SYN_disk_like_r011_c013",
        "region_id": "Synthetic-disk_like"
      },
      "geometry": {
        "type": "Polygon",
        "coordinates": [
          [
            [
              12.5,
              4.5
            ],
            [
              13.5,
              4.5
            ],
            [
              13.5,
              5.5
            ],
            [
              12.5,
              5.5
            ],
            [
              12.5,
              4.5
            ]
          ]
        ]
      }
    },
    {
      "type": "Feature",
      "properties": {
        "cell_id": "SYN_disk_like_r011_c014",
        "region_id": "Synthetic-disk_like"
      },
      "geometry": {
        "type": "Polygon",
        "coordinates": [
          [
            [
              13.5,
              4.5
            ],
            [
              14.5,
              4.5
            ],
            [
              14.5,
              5.5
            ],
            [
              13.5,
              5.5
            ],
            [
              13.5,
              4.5
            ]
          ]
        ]
      }
    },
    {
      "type": "Feature",
      "properties": {
        "cell_id": "SYN_disk_like_r012_c003",
        "region_id": "Synthetic-disk_like"
      },
      "geometry": {
        "type": "Polygon",
        "coordinates": [
          [
            [
              2.5,
              3.5
            ],
            [
              3.5,
              3.5
            ],
            [
              3.5,
              4.5
            ],
            [
              2.5,
              4.5
            ],
            [
              2.5,
              3.5
            ]
          ]
        ]
      }
    },
    {
      "type": "Feature",
      "properties": {
        "cell_id": "SYN_disk_like_r012_c004",
        "region_id": "Synthetic-disk_like"
      },
      "geometry": {
        "type": "Polygon",
        "coordinates": [
          [
            [
              3.5,
              3.5
            ],
            [
              4.5,
              3.5
            ],
            [
              4.5,
              4.5
            ],
            [
              3.5,
              4.5
            ],
            [
              3.5,
              3.5
            ]
          ]
        ]
      }
    },
    {
      "type": "Feature",
      "properties": {
        "cell_id": "SYN_disk_like_r012_c005",
        "region_id": "Synthetic-disk_like"
      },
      "geometry": {
        "type": "Polygon",
        "coordinates": [
          [
            [
              4.5,
              3.5
            ],
            [
              5.5,
              3.5
            ],
            [
              5.5,
              4.5
            ],
            [
              4.5,
              4.5
            ],
            [
              4.5,
              3.5
            ]
          ]
        ]
      }
    },
    {
      "type": "Feature",
      "properties": {
        "cell_id": "SYN_disk_like_r012_c006",
        "region_id": "Synthetic-disk_like"
      },
      "geometry": {
        "type": "Polygon",
        "coordinates": [
          [
            [
              5.5,
              3.5
            ],
            [
              6.5,
              3.5
            ],
            [
              6.5,
              4.5
            ],
            [
              5.5,
              4.5
            ],
            [
              5.5,
              3.5
            ]
          ]
        ]
      }
    },
    {
      "type": "Feature",
      "properties": {
        "cell_id": "SYN_disk_like_r012_c007",
        "region_id": "Synthetic-disk_like"
      },
      "geometry": {
        "type": "Polygon",
        "coordinates": [
          [
            [
              6.5,
              3.5
            ],
            [
              7.5,
              3.5
            ],
            [
              7.5,
              4.5
            ],
            [
              6.5,
              4.5
            ],
            [
              6.5,
              3.5
            ]
          ]
        ]
      }
    },
    {
      "type": "Feature",
      "properties": {
        "cell_id": "SYN_disk_like_r012_c008",
        "region_id": "Synthetic-disk_like"
      },
      "geometry": {
        "type": "Polygon",
        "coordinates": [
          [
            [
              7.5,
              3.5
            ],
            [
              8.5,
              3.5
            ],
            [
              8.5,
              4.5
            ],
            [
              7.5,
              4.5
            ],
            [
              7.5,
              3.5
            ]
          ]
        ]
      }
    },
    {
      "type": "Feature",
      "properties": {
        "cell_id": "SYN_disk_like_r012_c009",
        "region_id": "Synthetic-disk_like"
      },
      "geometry": {
        "type": "Polygon",
        "coordinates": [
          [
            [
              8.5,
              3.5
            ],
            [
              9.5,
              3.5
            ],
            [
              9.5,
              4.5
            ],
            [
              8.5,
              4.5
            ],
            [
              8.5,
              3.5
            ]
          ]
        ]
      }
    },
    {
      "type": "Feature",
      "properties": {
        "cell_id": "SYN_disk_like_r012_c010",
        "region_id": "Synthetic-disk_like"
      },
      "geometry": {
        "type": "Polygon",
        "coordinates": [
          [
            [
              9.5,
              3.5
            ],
            [
              10.5,
              3.5
            ],
            [
              10.5,
              4.5
            ],
            [
              9.5,
              4.5
            ],
            [
              9.5,
              3.5
            ]
          ]
        ]
      }
    },
    {
      "type": "Feature",
      "properties": {
        "cell_id": "SYN_disk_like_r012_c011",
        "region_id": "Synthetic-disk_like"
      },
      "geometry": {
        "type": "Polygon",
        "coordinates": [
          [
            [
              10.5,
              3.5
            ],
            [
              11.5,
              3.5
            ],
            [
              11.5,
              4.5
            ],
            [
              10.5,
              4.5
            ],
            [
              10.5,
              3.5
            ]
          ]
        ]
      }
    },
    {
      "type": "Feature",
      "properties": {
        "cell_id": "SYN_disk_like_r012_c012",
        "region_id": "Synthetic-disk_like"
      },
      "geometry": {
        "type": "Polygon",
        "coordinates": [
          [
            [
              11.5,
              3.5
            ],
            [
              12.5,
              3.5
            ],
            [
              12.5,
              4.5
            ],
            [
              11.5,
              4.5
            ],
            [
              11.5,
              3.5
            ]
          ]
        ]
      }
    },
    {
      "type": "Feature",
      "properties": {
        "cell_id": "SYN_disk_like_r012_c013",
        "region_id": "Synthetic-disk_like"
      },
      "geometry": {
        "type": "Polygon",
        "coordinates": [
          [
            [
              12.5,
              3.5
            ],
            [
              13.5,
              3.5
            ],
            [
              13.5,
              4.5
            ],
            [
              12.5,
              4.5
            ],
            [
              12.5,
              3.5
            ]
          ]
        ]
      }
    },
    {
      "type": "Feature",
      "properties": {
        "cell_id": "SYN_disk_like_r013_c004",
        "region_id": "Synthetic-disk_like"
      },
      "geometry": {
        "type": "Polygon",
        "coordinates": [
          [
            [
              3.5,
              2.5
            ],
            [
              4.5,
              2.5
            ],
            [
              4.5,
              3.5
            ],
            [
              3.5,
              3.5
            ],
            [
              3.5,
              2.5
            ]
          ]
        ]
      }
    },
    {
      "type": "Feature",
      "properties": {
        "cell_id": "SYN_disk_like_r013_c005",
        "region_id": "Synthetic-disk_like"
      },
      "geometry": {
        "type": "Polygon",
        "coordinates": [
          [
            [
              4.5,
              2.5
            ],
            [
              5.5,
              2.5
            ],
            [
              5.5,
              3.5
            ],
            [
              4.5,
              3.5
            ],
            [
              4.5,
              2.5
            ]
          ]
        ]
      }
    },
    {
      "type": "Feature",
      "properties": {
        "cell_id": "SYN_disk_like_r013_c006",
        "region_id": "Synthetic-disk_like"
      },
      "geometry": {
        "type": "Polygon",
        "coordinates": [
          [
            [
              5.5,
              2.5
            ],
            [
              6.5,
              2.5
            ],
            [
              6.5,
              3.5
            ],
            [
              5.5,
              3.5
            ],
            [
              5.5,
              2.5
            ]
          ]
        ]
      }
    },
    {
      "type": "Feature",
      "properties": {
        "cell_id": "SYN_disk_like_r013_c007",
        "region_id": "Synthetic-disk_like"
      },
      "geometry": {
        "type": "Polygon",
        "coordinates": [
          [
            [
              6.5,
              2.5
            ],
            [
              7.5,
              2.5
            ],
            [
              7.5,
              3.5
            ],
            [
              6.5,
              3.5
            ],
            [
              6.5,
              2.5
            ]
          ]
        ]
      }
    },
    {
      "type": "Feature",
      "properties": {
        "cell_id": "SYN_disk_like_r013_c008",
        "region_id": "Synthetic-disk_like"
      },
      "geometry": {
        "type": "Polygon",
        "coordinates": [
          [
            [
              7.5,
              2.5
            ],
            [
              8.5,
              2.5
            ],
            [
              8.5,
              3.5
            ],
            [
              7.5,
              3.5
            ],
            [
              7.5,
              2.5
            ]
          ]
        ]
      }
    },
    {
      "type": "Feature",
      "properties": {
        "cell_id": "SYN_disk_like_r013_c009",
        "region_id": "Synthetic-disk_like"
      },
      "geometry": {
        "type": "Polygon",
        "coordinates": [
          [
            [
              8.5,
              2.5
            ],
            [
              9.5,
              2.5
            ],
            [
              9.5,
              3.5
            ],
            [
              8.5,
              3.5
            ],
            [
              8.5,
              2.5
            ]
          ]
        ]
      }
    },
    {
      "type": "Feature",
      "properties": {
        "cell_id": "SYN_disk_like_r013_c010",
        "region_id": "Synthetic-disk_like"
      },
      "geometry": {
        "type": "Polygon",
        "coordinates": [
          [
            [
              9.5,
              2.5
            ],
            [
              10.5,
              2.5
            ],
            [
              10.5,
              3.5
            ],
            [
              9.5,
              3.5
            ],
            [
              9.5,
              2.5
            ]
          ]
        ]
      }
    },
    {
      "type": "Feature",
      "properties": {
        "cell_id": "SYN_disk_like_r013_c011",
        "region_id": "Synthetic-disk_like"
      },
      "geometry": {
        "type": "Polygon",
        "coordinates": [
          [
            [
              10.5,
              2.5
            ],
            [
              11.5,
              2.5
            ],
            [
              11.5,
              3.5
            ],
            [
              10.5,
              3.5
            ],
            [
              10.5,
              2.5
            ]
          ]
        ]
      }
    },
    {
      "type": "Feature",
      "properties": {
        "cell_id": "SYN_disk_like_r013_c012",
        "region_id": "Synthetic-disk_like"
      },
      "geometry": {
        "type": "Polygon",
        "coordinates": [
          [
            [
              11.5,
              2.5
            ],
            [
              12.5,
              2.5
            ],
            [
              12.5,
              3.5
            ],
            [
              11.5,
              3.5
            ],
            [
              11.5,
              2.5
            ]
          ]
        ]
      }
    },
    {
      "type": "Feature",
      "properties": {
        "cell_id": "SYN_disk_like_r014_c005",
        "region_id": "Synthetic-disk_like"
      },
      "geometry": {
        "type": "Polygon",
        "coordinates": [
          [
            [
              4.5,
              1.5
            ],
            [
              5.5,
              1.5
            ],
            [
              5.5,
              2.5
            ],
            [
              4.5,
              2.5
            ],
            [
              4.5,
              1.5
            ]
          ]
        ]
      }
    },
    {
      "type": "Feature",
      "properties": {
        "cell_id": "SYN_disk_like_r014_c006",
        "region_id": "Synthetic-disk_like"
      },
      "geometry": {
        "type": "Polygon",
        "coordinates": [
          [
            [
              5.5,
              1.5
            ],
            [
              6.5,
              1.5
            ],
            [
              6.5,
              2.5
            ],
            [
              5.5,
              2.5
            ],
            [
              5.5,
              1.5
            ]
          ]
        ]
      }
    },
    {
      "type": "Feature",
      "properties": {
        "cell_id": "SYN_disk_like_r014_c007",
        "region_id": "Synthetic-disk_like"
      },
      "geometry": {
        "type": "Polygon",
        "coordinates": [
          [
            [
              6.5,
              1.5
            ],
            [
              7.5,
              1.5
            ],
            [
              7.5,
              2.5
            ],
            [
              6.5,
              2.5
            ],
            [
              6.5,
              1.5
            ]
          ]
        ]
      }
    },
    {
      "type": "Feature",
      "properties": {
        "cell_id": "SYN_disk_like_r014_c008",
        "region_id": "Synthetic-disk_like"
      },
      "geometry": {
        "type": "Polygon",
        "coordinates": [
          [
            [
              7.5,
              1.5
            ],
            [
              8.5,
              1.5
            ],
            [
              8.5,
              2.5
            ],
            [
              7.5,
              2.5
            ],
            [
              7.5,
              1.5
            ]
          ]
        ]
      }
    },
    {
      "type": "Feature",
      "properties": {
        "cell_id": "SYN_disk_like_r014_c009",
        "region_id": "Synthetic-disk_like"
      },
      "geometry": {
        "type": "Polygon",
        "coordinates": [
          [
            [
              8.5,
              1.5
            ],
            [
              9.5,
              1.5
            ],
            [
              9.5,
              2.5
            ],
            [
              8.5,
              2.5
            ],
            [
              8.5,
              1.5
            ]
          ]
        ]
      }
    },
    {
      "type": "Feature",
      "properties": {
        "cell_id": "SYN_disk_like_r014_c010",
        "region_id": "Synthetic-disk_like"
      },
      "geometry": {
        "type": "Polygon",
        "coordinates": [
          [
            [
              9.5,
              1.5
            ],
            [
              10.5,
              1.5
            ],
            [
              10.5,
              2.5
            ],
            [
              9.5,
              2.5
            ],
            [
              9.5,
              1.5
            ]
          ]
        ]
      }
    },
    {
      "type": "Feature",
      "properties": {
        "cell_id": "SYN_disk_like_r014_c011",
        "region_id": "Synthetic-disk_like"
      },
      "geometry": {
        "type": "Polygon",
        "coordinates": [
          [
            [
              10.5,
              1.5
            ],
            [
              11.5,
              1.5
            ],
            [
              11.5,
              2.5
            ],
            [
              10.5,
              2.5
            ],
            [
              10.5,
              1.5
            ]
          ]
        ]
      }
    },
    {
      "type": "Feature",
      "properties": {
        "cell_id": "SYN_disk_like_r015_c008",
        "region_id": "Synthetic-disk_like"
      },
      "geometry": {
        "type": "Polygon",
        "coordinates": [
          [
            [
              7.5,
              0.5
            ],
            [
              8.5,
              0.5
            ],
            [
              8.5,
              1.5
            ],
            [
              7.5,
              1.5
            ],
            [
              7.5,
              0.5
            ]
          ]
        ]
      }
    }
  ]
}