{
  "type": "FeatureCollection",
  "features": [
    {
      "type": "Feature",
      "properties": {
        "cell_id": "CEG2000_f4_r0028_c0108",
        "method": "Direct Polar",
        "view": "disk"
      },
      "geometry": {
        "type": "Polygon",
        "coordinates": [
          [
            [
              -0.1195217367154852,
              -0.9928315841332377
            ],
            [
              0.012132267897277798,
              -0.9999264013294522
            ],
            [
              0.014314713689738249,
              -0.9953200595385492
            ],
            [
              -0.12535785449745304,
              -0.8784848720238568
            ],
            [
              -0.1195217367154852,
              -0.9928315841332377
            ]
          ]
        ]
      }
    },
    {
      "type": "Feature",
      "properties": {
        "cell_id": "CEG2000_f4_r0028_c0109",
        "method": "Direct Polar",
        "view": "disk"
      },
      "geometry": {
        "type": "Polygon",
        "coordinates": [
          [
            [
              0.012134255285946504,
              -0.9999263772141704
            ],
            [
              0.14316681597863992,
              -0.9896985716886421
            ],
            [
              0.14877890210708453,
              -0.8676727808593794
            ],
            [
              0.01431702308552945,
              -0.9953175676027656
            ],
            [
              0.012134255285946504,
              -0.9999263772141704
            ]
          ]
        ]
      }
    },
    {
      "type": "Feature",
      "properties": {
        "cell_id": "CEG2000_f4_r0028_c0110",
        "method": "Direct Polar",
        "view": "disk"
      },
      "geometry": {
        "type": "Polygon",
        "coordinates": [
          [
            [
              0.14316488895194024,
              -0.989698850444608
            ],
            [
              0.26710798254108453,
              -0.9636666050366338
            ],
            [
              0.25633146760544767,
              -0.7801819764243774
            ],
            [
              0.14877695105687994,
              -0.8676733256848096
            ],
            [
              0.14316488895194024,
              -0.989698850444608
            ]
          ]
        ]
      }
    },
    {
      "type": "Feature",
      "properties": {
        "cell_id": "CEG2000_f4_r0028_c0111",
        "method": "Direct Polar",
        "view": "disk"
      },
      "geometry": {
        "type": "Polygon",
        "coordinates": [
          [
            [
              0.26710798254108453,
              -0.9636666050366338
            ],
            [
              0.3791177206211529,
              -0.9253484499965521
            ],
            [
              0.38456982684852437,
              -0.7918819995130918
            ],
            [
              0.25633146760544767,
              -0.7801819764243774
            ],
            [
              0.26710798254108453,
              -0.9636666050366338
            ]
          ]
        ]
      }
    },
    {
      "type": "Feature",
      "properties": {
        "cell_id": "CEG2000_f4_r0028_c0112",
        "method": "Direct Polar",
        "view": "disk"
      },
      "geometry": {
        "type": "Polygon",
        "coordinates": [
          [
            [
              0.37911614556849527,
              -0.9253490952982488
            ],
            [
              0.47666089620349045,
              -0.8790872482470016
            ],
            [
              0.5288352162572658,
              -0.8228049016548947
            ],
            [
              0.38456784958948353,
              -0.7918817701799361
            ],
            [
              0.37911614556849527,
              -0.9253490952982488
            ]
          ]
        ]
      }
    },
    {
      "type": "Feature",
      "properties": {
        "cell_id": "CEG2000_f4_r0029_c0106",
        "method": "Direct Polar",
        "view": "disk"
      },
      "geometry": {
        "type": "Polygon",
        "coordinates": [
          [
            [
              -0.4155538719273153,
              -0.9095685677980613
            ],
            [
              -0.2817413775832306,
              -0.9398198461775241
            ],
            [
              -0.2709381378122889,
              -0.7362683447217603
            ],
            [
              -0.48914463976388295,
              -0.8722026836637579
            ],
            [
              -0.4155538719273153,
              -0.9095685677980613
            ]
          ]
        ]
      }
    },
    {
      "type": "Feature",
      "properties": {
        "cell_id": "CEG2000_f4_r0029_c0107",
        "method": "Direct Polar",
        "view": "disk"
      },
      "geometry": {
        "type": "Polygon",
        "coordinates": [
          [
            [
              -0.2817428128412503,
              -0.9398172469475151
            ],
            [
              -0.12535981098193374,
              -0.878484076921348
            ],
            [
              -0.15018207518927137,
              -0.8573648523298739
            ],
            [
              -0.27094022212540964,
              -0.7362682217798687
            ],
            [
              -0.2817428128412503,
              -0.9398172469475151
            ]
          ]
        ]
      }
    },
    {
      "type": "Feature",
      "properties": {
        "cell_id": "CEG2000_f4_r0029_c0108",
        "method": "Direct Polar",
        "view": "disk"
      },
      "geometry": {
        "type": "Polygon",
        "coordinates": [
          [
            [
              -0.12535785449745301,
              -0.878484872023858
            ],
            [
              0.014314713689738271,
              -0.9953200595385507
            ],
            [
              0.014264869667753375,
              -0.8080159022251515
            ],
            [
              -0.1501793363397529,
              -0.8573633734890682
            ],
            [
              -0.12535785449745301,
              -0.878484872023858
            ]
          ]
        ]
      }
    },
    {
      "type": "Feature",
      "properties": {
        "cell_id": "CEG2000_f4_r0029_c0109",
        "method": "Direct Polar",
        "view": "disk"
      },
      "geometry": {
        "type": "Polygon",
        "coordinates": [
          [
            [
              0.014317023085529474,
              -0.9953175676027672
            ],
            [
              0.14877890210708455,
              -0.8676727808593808
            ],
            [
              0.14713786624999362,
              -0.6990545826710464
            ],
            [
              0.014267162611415724,
              -0.8080134028936148
            ],
            [
              0.014317023085529474,
              -0.9953175676027672
            ]
          ]
        ]
      }
    },
    {
      "type": "Feature",
      "properties": {
        "cell_id": "CEG2000_f4_r0029_c0110",
        "method": "Direct Polar",
        "view": "disk"
      },
      "geometry": {
        "type": "Polygon",
        "coordinates": [
          [
            [
              0.14877695105688002,
              -0.8676733256848111
            ],
            [
              0.2563314676054481,
              -0.7801819764243798
            ],
            [
              0.2568466010872727,
              -0.6368539125117667
            ],
            [
              0.14713597279312482,
              -0.6990551930051725
            ],
            [
              0.14877695105688002,
              -0.8676733256848111
            ]
          ]
        ]
      }
    },
    {
      "type": "Feature",
      "properties": {
        "cell_id": "CEG2000_f4_r0029_c0111",
        "method": "Direct Polar",
        "view": "disk"
      },
      "geometry": {
        "type": "Polygon",
        "coordinates": [
          [
            [
              0.2563314676054481,
              -0.7801819764243798
            ],
            [
              0.38456982684852437,
              -0.791881999513093
            ],
            [
              0.39226719954217154,
              -0.6580202645417924
            ],
            [
              0.2568466010872727,
              -0.6368539125117667
            ],
            [
              0.2563314676054481,
              -0.7801819764243798
            ]
          ]
        ]
      }
    },
    {
      "type": "Feature",
      "properties": {
        "cell_id": "CEG2000_f4_r0029_c0112",
        "method": "Direct Polar",
        "view": "disk"
      },
      "geometry": {
        "type": "Polygon",
        "coordinates": [
          [
            [
              0.3845678495894835,
              -0.7918817701799373
            ],
            [
              0.5288352162572658,
              -0.8228049016548961
            ],
            [
              0.5783974267429733,
              -0.7331196556696309
            ],
            [
              0.39226481820500564,
              -0.6580194625276548
            ],
            [
              0.3845678495894835,
              -0.7918817701799373
            ]
          ]
        ]
      }
    },
    {
      "type": "Feature",
      "properties": {
        "cell_id": "CEG2000_f4_r0029_c0113",
        "method": "Direct Polar",
        "view": "disk"
      },
      "geometry": {
        "type": "Polygon",
        "coordinates": [
          [
            [
              0.5288376200002728,
              -0.8228056251281015
            ],
            [
              0.6246020268974699,
              -0.7809432168830025
            ],
            [
              0.7005743525289676,
              -0.713579411543395
            ],
            [
              0.5784008541359106,
              -0.7331213122189593
            ],
            [
              0.5288376200002728,
              -0.8228056251281015
            ]
          ]
        ]
      }
    },
    {
      "type": "Feature",
      "properties": {
        "cell_id": "CEG2000_f4_r0030_c0105",
        "method": "Direct Polar",
        "view": "disk"
      },
      "geometry": {
        "type": "Polygon",
        "coordinates": [
          [
            [
              -0.6018600076510466,
              -0.7986016098094731
            ],
            [
              -0.48914463976388295,
              -0.8722026836637579
            ],
            [
              -0.5226078761466757,
              -0.7198526474786848
            ],
            [
              -0.6983251987634187,
              -0.715780634532698
            ],
            [
              -0.6018600076510466,
              -0.7986016098094731
            ]
          ]
        ]
      }
    },
    {
      "type": "Feature",
      "properties": {
        "cell_id": "CEG2000_f4_r0030_c0106",
        "method": "Direct Polar",
        "view": "disk"
      },
      "geometry": {
        "type": "Polygon",
        "coordinates": [
          [
            [
              -0.48914463976388295,
              -0.8722026836637579
            ],
            [
              -0.2709381378122889,
              -0.7362683447217603
            ],
            [
              -0.30975321470126926,
              -0.6502335069656103
            ],
            [
              -0.5226078761466757,
              -0.7198526474786848
            ],
            [
              -0.48914463976388295,
              -0.8722026836637579
            ]
          ]
        ]
      }
    },
    {
      "type": "Feature",
      "properties": {
        "cell_id": "CEG2000_f4_r0030_c0107",
        "method": "Direct Polar",
        "view": "disk"
      },
      "geometry": {
        "type": "Polygon",
        "coordinates": [
          [
            [
              -0.27094022212540964,
              -0.7362682217798687
            ],
            [
              -0.15018207518927137,
              -0.8573648523298739
            ],
            [
              -0.14550321596667398,
              -0.6416640420041627
            ],
            [
              -0.30975763368367726,
              -0.6502376724649401
            ],
            [
              -0.27094022212540964,
              -0.7362682217798687
            ]
          ]
        ]
      }
    },
    {
      "type": "Feature",
      "properties": {
        "cell_id": "CEG2000_f4_r0030_c0108",
        "method": "Direct Polar",
        "view": "disk"
      },
      "geometry": {
        "type": "Polygon",
        "coordinates": [
          [
            [
              -0.1501793363397529,
              -0.8573633734890682
            ],
            [
              0.014264869667753375,
              -0.8080159022251515
            ],
            [
              0.014185362636589956,
              -0.6206976174493168
            ],
            [
              -0.14550139035502876,
              -0.6416665863335782
            ],
            [
              -0.1501793363397529,
              -0.8573633734890682
            ]
          ]
        ]
      }
    },
    {
      "type": "Feature",
      "properties": {
        "cell_id": "CEG2000_f4_r0030_c0109",
        "method": "Direct Polar",
        "view": "disk"
      },
      "geometry": {
        "type": "Polygon",
        "coordinates": [
          [
            [
              0.014267162611415724,
              -0.8080134028936148
            ],
            [
              0.14713786624999362,
              -0.6990545826710464
            ],
            [
              0.1441708273895053,
              -0.5291168108192745
            ],
            [
              0.014187629291622584,
              -0.6206951065361104
            ],
            [
              0.014267162611415724,
              -0.8080134028936148
            ]
          ]
        ]
      }
    },
    {
      "type": "Feature",
      "properties": {
        "cell_id": "CEG2000_f4_r0030_c0110",
        "method": "Direct Polar",
        "view": "disk"
      },
      "geometry": {
        "type": "Polygon",
        "coordinates": [
          [
            [
              0.14713597279312482,
              -0.6990551930051725
            ],
            [
              0.2568466010872727,
              -0.6368539125117667
            ],
            [
              0.2612142923925265,
              -0.5003230020284609
            ],
            [
              0.14416903764527023,
              -0.5291175132899315
            ],
            [
              0.14713597279312482,
              -0.6990551930051725
            ]
          ]
        ]
      }
    },
    {
      "type": "Feature",
      "properties": {
        "cell_id": "CEG2000_f4_r0030_c0111",
        "method": "Direct Polar",
        "view": "disk"
      },
      "geometry": {
        "type": "Polygon",
        "coordinates": [
          [
            [
              0.2568466010872727,
              -0.6368539125117667
            ],
            [
              0.39226719954217154,
              -0.6580202645417924
            ],
            [
              0.4310750844080606,
              -0.5585958837781723
            ],
            [
              0.2612142923925265,
              -0.5003230020284609
            ],
            [
              0.2568466010872727,
              -0.6368539125117667
            ]
          ]
        ]
      }
    },
    {
      "type": "Feature",
      "properties": {
        "cell_id": "CEG2000_f4_r0030_c0112",
        "method": "Direct Polar",
        "view": "disk"
      },
      "geometry": {
        "type": "Polygon",
        "coordinates": [
          [
            [
              0.39226481820500564,
              -0.6580194625276548
            ],
            [
              0.5783974267429733,
              -0.7331196556696309
            ],
            [
              0.5772256586997172,
              -0.565173350053881
            ],
            [
              0.4310716820296842,
              -0.558594185138132
            ],
            [
              0.39226481820500564,
              -0.6580194625276548
            ]
          ]
        ]
      }
    },
    {
      "type": "Feature",
      "properties": {
        "cell_id": "CEG2000_f4_r0030_c0113",
        "method": "Direct Polar",
        "view": "disk"
      },
      "geometry": {
        "type": "Polygon",
        "coordinates": [
          [
            [
              0.5784008541359106,
              -0.7331213122189593
            ],
            [
              0.7005743525289676,
              -0.713579411543395
            ],
            [
              0.7509047929753705,
              -0.5908272113992988
            ],
            [
              0.577227105427745,
              -0.5651726946099669
            ],
            [
              0.5784008541359106,
              -0.7331213122189593
            ]
          ]
        ]
      }
    },
    {
      "type": "Feature",
      "properties": {
        "cell_id": "CEG2000_f4_r0031_c0106",
        "method": "Direct Polar",
        "view": "disk"
      },
      "geometry": {
        "type": "Polygon",
        "coordinates": [
          [
            [
              -0.5226077255116052,
              -0.719853500079415
            ],
            [
              -0.3097528429142104,
              -0.6502336840745263
            ],
            [
              -0.3379151888112734,
              -0.5004272685174874
            ],
            [
              -0.6843096037973637,
              -0.6649668895523863
            ],
            [
              -0.5226077255116052,
              -0.719853500079415
            ]
          ]
        ]
      }
    },
    {
      "type": "Feature",
      "properties": {
        "cell_id": "CEG2000_f4_r0031_c0107",
        "method": "Direct Polar",
        "view": "disk"
      },
      "geometry": {
        "type": "Polygon",
        "coordinates": [
          [
            [
              -0.3097572618923959,
              -0.6502378495772606
            ],
            [
              -0.14550326742273664,
              -0.6416652138690411
            ],
            [
              -0.13069962050879227,
              -0.4066204039145081
            ],
            [
              -0.3379184016769056,
              -0.5004280932030744
            ],
            [
              -0.3097572618923959,
              -0.6502378495772606
            ]
          ]
        ]
      }
    },
    {
      "type": "Feature",
      "properties": {
        "cell_id": "CEG2000_f4_r0031_c0108",
        "method": "Direct Polar",
        "view": "disk"
      },
      "geometry": {
        "type": "Polygon",
        "coordinates": [
          [
            [
              -0.1455014418093106,
              -0.641667758198097
            ],
            [
              0.01418536315239402,
              -0.6206985540879477
            ],
            [
              0.014038527431501675,
              -0.43335211566716314
            ],
            [
              -0.13069830023959988,
              -0.4066230105845654
            ],
            [
              -0.1455014418093106,
              -0.641667758198097
            ]
          ]
        ]
      }
    },
    {
      "type": "Feature",
      "properties": {
        "cell_id": "CEG2000_f4_r0031_c0109",
        "method": "Direct Polar",
        "view": "disk"
      },
      "geometry": {
        "type": "Polygon",
        "coordinates": [
          [
            [
              0.014187629807597359,
              -0.6206960431748164
            ],
            [
              0.14417084790180595,
              -0.5291176653036295
            ],
            [
              0.1335894340902615,
              -0.34588044550014146
            ],
            [
              0.014040745397946074,
              -0.43334958405492713
            ],
            [
              0.014187629807597359,
              -0.6206960431748164
            ]
          ]
        ]
      }
    },
    {
      "type": "Feature",
      "properties": {
        "cell_id": "CEG2000_f4_r0031_c0110",
        "method": "Direct Polar",
        "view": "disk"
      },
      "geometry": {
        "type": "Polygon",
        "coordinates": [
          [
            [
              0.14416905815685865,
              -0.5291183677737411
            ],
            [
              0.2612142730950207,
              -0.5003237018660276
            ],
            [
              0.28396690979073747,
              -0.38370812888576233
            ],
            [
              0.1335874511143723,
              -0.3458800642845703
            ],
            [
              0.14416905815685865,
              -0.5291183677737411
            ]
          ]
        ]
      }
    },
    {
      "type": "Feature",
      "properties": {
        "cell_id": "CEG2000_f4_r0031_c0111",
        "method": "Direct Polar",
        "view": "disk"
      },
      "geometry": {
        "type": "Polygon",
        "coordinates": [
          [
            [
              0.2612142730950207,
              -0.5003237018660276
            ],
            [
              0.43107468653545555,
              -0.5585961908209659
            ],
            [
              0.42644027452480543,
              -0.38983672866010377
            ],
            [
              0.28396690979073747,
              -0.38370812888576233
            ],
            [
              0.2612142730950207,
              -0.5003237018660276
            ]
          ]
        ]
      }
    },
    {
      "type": "Feature",
      "properties": {
        "cell_id": "CEG2000_f4_r0031_c0112",
        "method": "Direct Polar",
        "view": "disk"
      },
      "geometry": {
        "type": "Polygon",
        "coordinates": [
          [
            [
              0.4310712841587785,
              -0.5585944921781248
            ],
            [
              0.5772259276034427,
              -0.5651744456446386
            ],
            [
              0.586120210043983,
              -0.4048577658603876
            ],
            [
              0.42643890807701945,
              -0.3898373709451466
            ],
            [
              0.4310712841587785,
              -0.5585944921781248
            ]
          ]
        ]
      }
    },
    {
      "type": "Feature",
      "properties": {
        "cell_id": "CEG2000_f4_r0031_c0113",
        "method": "Direct Polar",
        "view": "disk"
      },
      "geometry": {
        "type": "Polygon",
        "coordinates": [
          [
            [
              0.5772273743332133,
              -0.5651737902005003
            ],
            [
              0.7509051746832953,
              -0.5908283818157043
            ],
            [
              0.7436385081723095,
              -0.41277863847099827
            ],
            [
              0.5861226093855917,
              -0.40485793894709715
            ],
            [
              0.5772273743332133,
              -0.5651737902005003
            ]
          ]
        ]
      }
    },
    {
      "type": "Feature",
      "properties": {
        "cell_id": "CEG2000_f4_r0031_c0114",
        "method": "Direct Polar",
        "view": "disk"
      },
      "geometry": {
        "type": "Polygon",
        "coordinates": [
          [
            [
              0.7509066232762319,
              -0.590827780989165
            ],
            [
              0.8355094248821479,
              -0.5494761149796253
            ],
            [
              0.9000678985888907,
              -0.41759167226476235
            ],
            [
              0.7436408362839309,
              -0.412778714690007
            ],
            [
              0.7509066232762319,
              -0.590827780989165
            ]
          ]
        ]
      }
    },
    {
      "type": "Feature",
      "properties": {
        "cell_id": "CEG2000_f4_r0032_c0104",
        "method": "Direct Polar",
        "view": "disk"
      },
      "geometry": {
        "type": "Polygon",
        "coordinates": [
          [
            [
              -0.8666111415418263,
              -0.49898409729727133
            ],
            [
              -0.8103386855947864,
              -0.585961785979695
            ],
            [
              -0.8186203833629181,
              -0.3448159642679349
            ],
            [
              -0.9480935169821008,
              -0.31799163991606916
            ],
            [
              -0.8666111415418263,
              -0.49898409729727133
            ]
          ]
        ]
      }
    },
    {
      "type": "Feature",
      "properties": {
        "cell_id": "CEG2000_f4_r0032_c0105",
        "method": "Direct Polar",
        "view": "disk"
      },
      "geometry": {
        "type": "Polygon",
        "coordinates": [
          [
            [
              -0.8103397534012432,
              -0.5859603092852044
            ],
            [
              -0.6843093361492526,
              -0.66496524137521
            ],
            [
              -0.6164383064355912,
              -0.3489299008958662
            ],
            [
              -0.8186244228822216,
              -0.34481634242137565
            ],
            [
              -0.8103397534012432,
              -0.5859603092852044
            ]
          ]
        ]
      }
    },
    {
      "type": "Feature",
      "properties": {
        "cell_id": "CEG2000_f4_r0032_c0106",
        "method": "Direct Polar",
        "view": "disk"
      },
      "geometry": {
        "type": "Polygon",
        "coordinates": [
          [
            [
              -0.6843093361492526,
              -0.66496524137521
            ],
            [
              -0.3379153367080244,
              -0.5004264429168271
            ],
            [
              -0.43826119289057985,
              -0.37806585189450376
            ],
            [
              -0.6164383064355912,
              -0.3489299008958662
            ],
            [
              -0.6843093361492526,
              -0.66496524137521
            ]
          ]
        ]
      }
    },
    {
      "type": "Feature",
      "properties": {
        "cell_id": "CEG2000_f4_r0032_c0107",
        "method": "Direct Polar",
        "view": "disk"
      },
      "geometry": {
        "type": "Polygon",
        "coordinates": [
          [
            [
              -0.33791854957406103,
              -0.5004272675995702
            ],
            [
              -0.13069951458557255,
              -0.40661922557103797
            ],
            [
              -0.15369135320266494,
              -0.2785258175142841
            ],
            [
              -0.4382638809518538,
              -0.37806519918374176
            ],
            [
              -0.33791854957406103,
              -0.5004272675995702
            ]
          ]
        ]
      }
    },
    {
      "type": "Feature",
      "properties": {
        "cell_id": "CEG2000_f4_r0032_c0108",
        "method": "Direct Polar",
        "view": "disk"
      },
      "geometry": {
        "type": "Polygon",
        "coordinates": [
          [
            [
              -0.13069819431993307,
              -0.4066218322412662
            ],
            [
              0.01403852638655974,
              -0.4333511788038799
            ],
            [
              0.013676350932336923,
              -0.24591826421312063
            ],
            [
              -0.153688208943703,
              -0.27852471836439313
            ],
            [
              -0.13069819431993307,
              -0.4066218322412662
            ]
          ]
        ]
      }
    },
    {
      "type": "Feature",
      "properties": {
        "cell_id": "CEG2000_f4_r0032_c0109",
        "method": "Direct Polar",
        "view": "disk"
      },
      "geometry": {
        "type": "Polygon",
        "coordinates": [
          [
            [
              0.014040744352657125,
              -0.43334864719149946
            ],
            [
              0.13358945645643872,
              -0.3458797813957214
            ],
            [
              0.1421313191926178,
              -0.2143605530702686
            ],
            [
              0.013678448142084918,
              -0.24591568530608204
            ],
            [
              0.014040744352657125,
              -0.43334864719149946
            ]
          ]
        ]
      }
    },
    {
      "type": "Feature",
      "properties": {
        "cell_id": "CEG2000_f4_r0032_c0110",
        "method": "Direct Polar",
        "view": "disk"
      },
      "geometry": {
        "type": "Polygon",
        "coordinates": [
          [
            [
              0.13358747348044775,
              -0.34587940018147817
            ],
            [
              0.28396729279518224,
              -0.38370784543932557
            ],
            [
              0.3085046922210031,
              -0.24282657857962722
            ],
            [
              0.1421289079906481,
              -0.2143598621887305
            ],
            [
              0.13358747348044775,
              -0.34587940018147817
            ]
          ]
        ]
      }
    },
    {
      "type": "Feature",
      "properties": {
        "cell_id": "CEG2000_f4_r0032_c0111",
        "method": "Direct Polar",
        "view": "disk"
      },
      "geometry": {
        "type": "Polygon",
        "coordinates": [
          [
            [
              0.28396729279518224,
              -0.38370784543932557
            ],
            [
              0.4264399722424095,
              -0.3898356385542879
            ],
            [
              0.4526295959513235,
              -0.24102865078022295
            ],
            [
              0.3085046922210031,
              -0.24282657857962722
            ],
            [
              0.28396729279518224,
              -0.38370784543932557
            ]
          ]
        ]
      }
    },
    {
      "type": "Feature",
      "properties": {
        "cell_id": "CEG2000_f4_r0032_c0112",
        "method": "Direct Polar",
        "view": "disk"
      },
      "geometry": {
        "type": "Polygon",
        "coordinates": [
          [
            [
              0.42643860579703047,
              -0.38983628083884964
            ],
            [
              0.5861203527255714,
              -0.40485701929000406
            ],
            [
              0.901727756867474,
              -0.3628209851876475
            ],
            [
              0.4526272814512934,
              -0.2410285877330901
            ],
            [
              0.42643860579703047,
              -0.38983628083884964
            ]
          ]
        ]
      }
    },
    {
      "type": "Feature",
      "properties": {
        "cell_id": "CEG2000_f4_r0032_c0113",
        "method": "Direct Polar",
        "view": "disk"
      },
      "geometry": {
        "type": "Polygon",
        "coordinates": [
          [
            [
              0.5861227520665373,
              -0.4048571923755468
            ],
            [
              0.7436386054667673,
              -0.4127778308161971
            ],
            [
              0.9514978908251619,
              -0.30765526771903046
            ],
            [
              0.901730682295191,
              -0.3628208321407415
            ],
            [
              0.5861227520665373,
              -0.4048571923755468
            ]
          ]
        ]
      }
    },
    {
      "type": "Feature",
      "properties": {
        "cell_id": "CEG2000_f4_r0032_c0114",
        "method": "Direct Polar",
        "view": "disk"
      },
      "geometry": {
        "type": "Polygon",
        "coordinates": [
          [
            [
              0.7436409335776963,
              -0.41277790703450346
            ],
            [
              0.9000682313862994,
              -0.41759095495980453
            ],
            [
              0.9653665004656573,
              -0.2608975273525796
            ],
            [
              0.9514981561485555,
              -0.3076544471414304
            ],
            [
              0.7436409335776963,
              -0.41277790703450346
            ]
          ]
        ]
      }
    },
    {
      "type": "Feature",
      "properties": {
        "cell_id": "CEG2000_f4_r0033_c0105",
        "method": "Direct Polar",
        "view": "disk"
      },
      "geometry": {
        "type": "Polygon",
        "coordinates": [
          [
            [
              -0.8186244228822216,
              -0.34481634242137565
            ],
            [
              -0.6164383064355912,
              -0.3489299008958662
            ],
            [
              -0.919472752781819,
              -0.1474354046293048
            ],
            [
              -0.9929563539390855,
              -0.11848071223620148
            ],
            [
              -0.8186244228822216,
              -0.34481634242137565
            ]
          ]
        ]
      }
    },
    {
      "type": "Feature",
      "properties": {
        "cell_id": "CEG2000_f4_r0033_c0106",
        "method": "Direct Polar",
        "view": "disk"
      },
      "geometry": {
        "type": "Polygon",
        "coordinates": [
          [
            [
              -0.6164383064355912,
              -0.3489299008958662
            ],
            [
              -0.43826119289057985,
              -0.37806585189450376
            ],
            [
              -0.5984636634481385,
              -0.1462468686493902
            ],
            [
              -0.919472752781819,
              -0.1474354046293048
            ],
            [
              -0.6164383064355912,
              -0.3489299008958662
            ]
          ]
        ]
      }
    },
    {
      "type": "Feature",
      "properties": {
        "cell_id": "CEG2000_f4_r0033_c0107",
        "method": "Direct Polar",
        "view": "disk"
      },
      "geometry": {
        "type": "Polygon",
        "coordinates": [
          [
            [
              -0.4382638809518538,
              -0.37806519918374176
            ],
            [
              -0.15369135320266494,
              -0.2785258175142841
            ],
            [
              -0.19174425106431908,
              -0.09843572137332042
            ],
            [
              -0.5984685204934934,
              -0.14624690607765745
            ],
            [
              -0.4382638809518538,
              -0.37806519918374176
            ]
          ]
        ]
      }
    },
    {
      "type": "Feature",
      "properties": {
        "cell_id": "CEG2000_f4_r0033_c0108",
        "method": "Direct Polar",
        "view": "disk"
      },
      "geometry": {
        "type": "Polygon",
        "coordinates": [
          [
            [
              -0.153688208943703,
              -0.27852471836439313
            ],
            [
              0.013676350932336923,
              -0.24591826421312063
            ],
            [
              0.012393004768932904,
              -0.06312647208847905
            ],
            [
              -0.191741242213685,
              -0.09843580209411017
            ],
            [
              -0.153688208943703,
              -0.27852471836439313
            ]
          ]
        ]
      }
    },
    {
      "type": "Feature",
      "properties": {
        "cell_id": "CEG2000_f4_r0033_c0109",
        "method": "Direct Polar",
        "view": "disk"
      },
      "geometry": {
        "type": "Polygon",
        "coordinates": [
          [
            [
              0.013678448142084918,
              -0.24591568530608204
            ],
            [
              0.1421313191926178,
              -0.2143605530702686
            ],
            [
              0.18136557851676924,
              -0.07748618889141187
            ],
            [
              0.012394919866089179,
              -0.06312588486986974
            ],
            [
              0.013678448142084918,
              -0.24591568530608204
            ]
          ]
        ]
      }
    },
    {
      "type": "Feature",
      "properties": {
        "cell_id": "CEG2000_f4_r0033_c0110",
        "method": "Direct Polar",
        "view": "disk"
      },
      "geometry": {
        "type": "Polygon",
        "coordinates": [
          [
            [
              0.1421289079906481,
              -0.2143598621887305
            ],
            [
              0.3085046922210031,
              -0.24282657857962722
            ],
            [
              0.566223296923026,
              -0.12625149645475353
            ],
            [
              0.18136190890144763,
              -0.07748568587606838
            ],
            [
              0.1421289079906481,
              -0.2143598621887305
            ]
          ]
        ]
      }
    },
    {
      "type": "Feature",
      "properties": {
        "cell_id": "CEG2000_f4_r0033_c0111",
        "method": "Direct Polar",
        "view": "disk"
      },
      "geometry": {
        "type": "Polygon",
        "coordinates": [
          [
            [
              0.3085046922210031,
              -0.24282657857962722
            ],
            [
              0.4526295959513235,
              -0.24102865078022295
            ],
            [
              0.9402763327878999,
              -0.14183897375868906
            ],
            [
              0.566223296923026,
              -0.12625149645475353
            ],
            [
              0.3085046922210031,
              -0.24282657857962722
            ]
          ]
        ]
      }
    },
    {
      "type": "Feature",
      "properties": {
        "cell_id": "CEG2000_f4_r0033_c0112",
        "method": "Direct Polar",
        "view": "disk"
      },
      "geometry": {
        "type": "Polygon",
        "coordinates": [
          [
            [
              0.4526272814512934,
              -0.2410285877330901
            ],
            [
              0.901727756867474,
              -0.3628209851876475
            ],
            [
              0.9935668157941768,
              -0.11324743949697157
            ],
            [
              0.9402707317918753,
              -0.1418388170433672
            ],
            [
              0.4526272814512934,
              -0.2410285877330901
            ]
          ]
        ]
      }
    },
    {
      "type": "Feature",
      "properties": {
        "cell_id": "CEG2000_f4_r0034_c0105",
        "method": "Direct Polar",
        "view": "disk"
      },
      "geometry": {
        "type": "Polygon",
        "coordinates": [
          [
            [
              -0.9929561776068461,
              -0.1184821900219674
            ],
            [
              -0.9194726442847476,
              -0.14743725234592497
            ],
            [
              -0.8683823640880309,
              0.21305091765617087
            ],
            [
              -0.9837396584822539,
              0.17960034612778059
            ],
            [
              -0.9929561776068461,
              -0.1184821900219674
            ]
          ]
        ]
      }
    },
    {
      "type": "Feature",
      "properties": {
        "cell_id": "CEG2000_f4_r0034_c0106",
        "method": "Direct Polar",
        "view": "disk"
      },
      "geometry": {
        "type": "Polygon",
        "coordinates": [
          [
            [
              -0.9194726442847476,
              -0.14743725234592497
            ],
            [
              -0.5984634169315893,
              -0.14624865848592436
            ],
            [
              -0.3642438708367523,
              0.13619166653129308
            ],
            [
              -0.8683823640880309,
              0.21305091765617087
            ],
            [
              -0.9194726442847476,
              -0.14743725234592497
            ]
          ]
        ]
      }
    },
    {
      "type": "Feature",
      "properties": {
        "cell_id": "CEG2000_f4_r0034_c0107",
        "method": "Direct Polar",
        "view": "disk"
      },
      "geometry": {
        "type": "Polygon",
        "coordinates": [
          [
            [
              -0.5984682739798861,
              -0.1462486959158574
            ],
            [
              -0.19174437152751336,
              -0.09843702846569806
            ],
            [
              -0.1564108582079127,
              0.12285894112721049
            ],
            [
              -0.3642474230446513,
              0.13619192425152085
            ],
            [
              -0.5984682739798861,
              -0.1462486959158574
            ]
          ]
        ]
      }
    },
    {
      "type": "Feature",
      "properties": {
        "cell_id": "CEG2000_f4_r0034_c0108",
        "method": "Direct Polar",
        "view": "disk"
      },
      "geometry": {
        "type": "Polygon",
        "coordinates": [
          [
            [
              -0.1917413626694375,
              -0.09843710918470967
            ],
            [
              0.012393013669895907,
              -0.06312731600199832
            ],
            [
              0.015633449676607618,
              0.12184261587413918
            ],
            [
              -0.15640765858481115,
              0.1228584565012784
            ],
            [
              -0.1917413626694375,
              -0.09843710918470967
            ]
          ]
        ]
      }
    },
    {
      "type": "Feature",
      "properties": {
        "cell_id": "CEG2000_f4_r0034_c0109",
        "method": "Direct Polar",
        "view": "disk"
      },
      "geometry": {
        "type": "Polygon",
        "coordinates": [
          [
            [
              0.012394928770778838,
              -0.0631267287875131
            ],
            [
              0.18136449466432322,
              -0.07748670605291402
            ],
            [
              0.28493964271856465,
              0.18626523436274922
            ],
            [
              0.015636007639284636,
              0.12184258990809209
            ],
            [
              0.012394928770778838,
              -0.0631267287875131
            ]
          ]
        ]
      }
    },
    {
      "type": "Feature",
      "properties": {
        "cell_id": "CEG2000_f4_r0034_c0110",
        "method": "Direct Polar",
        "view": "disk"
      },
      "geometry": {
        "type": "Polygon",
        "coordinates": [
          [
            [
              0.1813608250494846,
              -0.07748620302505015
            ],
            [
              0.5662205452006586,
              -0.1262524800216976
            ],
            [
              0.39270217899683096,
              0.13397433306141693
            ],
            [
              0.284937872206223,
              0.18626663659100817
            ],
            [
              0.1813608250494846,
              -0.07748620302505015
            ]
          ]
        ]
      }
    },
    {
      "type": "Feature",
      "properties": {
        "cell_id": "CEG2000_f4_r0034_c0111",
        "method": "Direct Polar",
        "view": "disk"
      },
      "geometry": {
        "type": "Polygon",
        "coordinates": [
          [
            [
              0.5662205452006586,
              -0.1262524800216976
            ],
            [
              0.9402736240745606,
              -0.14184035946616047
            ],
            [
              0.8274639648939531,
              0.19098473558904505
            ],
            [
              0.39270217899683096,
              0.13397433306141693
            ],
            [
              0.5662205452006586,
              -0.1262524800216976
            ]
          ]
        ]
      }
    },
    {
      "type": "Feature",
      "properties": {
        "cell_id": "CEG2000_f4_r0035_c0104",
        "method": "Direct Polar",
        "view": "disk"
      },
      "geometry": {
        "type": "Polygon",
        "coordinates": [
          [
            [
              -0.9895975435758966,
              0.14386348302662277
            ],
            [
              -0.9837392743424449,
              0.17960245019542437
            ],
            [
              -0.6278197806344876,
              0.3041551387508015
            ],
            [
              -0.9296564021180997,
              0.3586264713987208
            ],
            [
              -0.9895975435758966,
              0.14386348302662277
            ]
          ]
        ]
      }
    },
    {
      "type": "Feature",
      "properties": {
        "cell_id": "CEG2000_f4_r0035_c0105",
        "method": "Direct Polar",
        "view": "disk"
      },
      "geometry": {
        "type": "Polygon",
        "coordinates": [
          [
            [
              -0.9837393961266957,
              0.17960178314338673
            ],
            [
              -0.868381776384562,
              0.21305253494574136
            ],
            [
              -0.4866634031458043,
              0.3168346055716244
            ],
            [
              -0.6278337360669478,
              0.30416073230843454
            ],
            [
              -0.9837393961266957,
              0.17960178314338673
            ]
          ]
        ]
      }
    },
    {
      "type": "Feature",
      "properties": {
        "cell_id": "CEG2000_f4_r0035_c0106",
        "method": "Direct Polar",
        "view": "disk"
      },
      "geometry": {
        "type": "Polygon",
        "coordinates": [
          [
            [
              -0.868381776384562,
              0.21305253494574136
            ],
            [
              -0.36424314578363554,
              0.1361925214461974
            ],
            [
              -0.3085042007349051,
              0.30609121898470015
            ],
            [
              -0.4866634031458043,
              0.3168346055716244
            ],
            [
              -0.868381776384562,
              0.21305253494574136
            ]
          ]
        ]
      }
    },
    {
      "type": "Feature",
      "properties": {
        "cell_id": "CEG2000_f4_r0035_c0107",
        "method": "Direct Polar",
        "view": "disk"
      },
      "geometry": {
        "type": "Polygon",
        "coordinates": [
          [
            [
              -0.3642466979926825,
              0.13619277917111602
            ],
            [
              -0.15641054928288145,
              0.12285971425102311
            ],
            [
              -0.16694110884266133,
              0.3479642848787877
            ],
            [
              -0.30850654654353,
              0.3060911405906835
            ],
            [
              -0.3642466979926825,
              0.13619277917111602
            ]
          ]
        ]
      }
    },
    {
      "type": "Feature",
      "properties": {
        "cell_id": "CEG2000_f4_r0035_c0108",
        "method": "Direct Polar",
        "view": "disk"
      },
      "geometry": {
        "type": "Polygon",
        "coordinates": [
          [
            [
              -0.1564073496586343,
              0.12285922961617737
            ],
            [
              0.015633449844561623,
              0.12184362456318013
            ],
            [
              0.015597073481515416,
              0.32256632027831167
            ],
            [
              -0.1669382600797838,
              0.34796409264038025
            ],
            [
              -0.1564073496586343,
              0.12285922961617737
            ]
          ]
        ]
      }
    },
    {
      "type": "Feature",
      "properties": {
        "cell_id": "CEG2000_f4_r0035_c0109",
        "method": "Direct Polar",
        "view": "disk"
      },
      "geometry": {
        "type": "Polygon",
        "coordinates": [
          [
            [
              0.015636007807630335,
              0.12184359859975635
            ],
            [
              0.28494093331309567,
              0.18626761805071018
            ],
            [
              0.27617479163467584,
              0.4790650300175833
            ],
            [
              0.015599637337024215,
              0.3225664964592863
            ],
            [
              0.015636007807630335,
              0.12184359859975635
            ]
          ]
        ]
      }
    },
    {
      "type": "Feature",
      "properties": {
        "cell_id": "CEG2000_f4_r0035_c0110",
        "method": "Direct Polar",
        "view": "disk"
      },
      "geometry": {
        "type": "Polygon",
        "coordinates": [
          [
            [
              0.28493916278334236,
              0.18626902029077388
            ],
            [
              0.3927018404963995,
              0.13397532526122388
            ],
            [
              0.5578382117852133,
              0.5050077698329988
            ],
            [
              0.27617040678446697,
              0.4790640069982936
            ],
            [
              0.28493916278334236,
              0.18626902029077388
            ]
          ]
        ]
      }
    },
    {
      "type": "Feature",
      "properties": {
        "cell_id": "CEG2000_f4_r0035_c0111",
        "method": "Direct Polar",
        "view": "disk"
      },
      "geometry": {
        "type": "Polygon",
        "coordinates": [
          [
            [
              0.3927018404963995,
              0.13397532526122388
            ],
            [
              0.8274639374907565,
              0.19098630830288166
            ],
            [
              0.7782535826147924,
              0.4766528606813882
            ],
            [
              0.5578382117852133,
              0.5050077698329988
            ],
            [
              0.3927018404963995,
              0.13397532526122388
            ]
          ]
        ]
      }
    },
    {
      "type": "Feature",
      "properties": {
        "cell_id": "CEG2000_f4_r0035_c0112",
        "method": "Direct Polar",
        "view": "disk"
      },
      "geometry": {
        "type": "Polygon",
        "coordinates": [
          [
            [
              0.8274599066535683,
              0.1909863045908676
            ],
            [
              0.9851308047796394,
              0.17180598788814064
            ],
            [
              0.7456746247349071,
              0.3450815002459717
            ],
            [
              0.7782519430883256,
              0.47665416919748776
            ],
            [
              0.8274599066535683,
              0.1909863045908676
            ]
          ]
        ]
      }
    },
    {
      "type": "Feature",
      "properties": {
        "cell_id": "CEG2000_f4_r0035_c0113",
        "method": "Direct Polar",
        "view": "disk"
      },
      "geometry": {
        "type": "Polygon",
        "coordinates": [
          [
            [
              0.9851309113826202,
              0.17180537662846343
            ],
            [
              0.9903217404716746,
              0.13879067097306352
            ],
            [
              0.9372847182943791,
              0.3485647097051371
            ],
            [
              0.7456766391623586,
              0.345081167384896
            ],
            [
              0.9851309113826202,
              0.17180537662846343
            ]
          ]
        ]
      }
    },
    {
      "type": "Feature",
      "properties": {
        "cell_id": "CEG2000_f4_r0036_c0103",
        "method": "Direct Polar",
        "view": "disk"
      },
      "geometry": {
        "type": "Polygon",
        "coordinates": [
          [
            [
              -0.9522933034266857,
              0.30518431193082357
            ],
            [
              -0.9296599586072428,
              0.3586267474067504
            ],
            [
              -0.8037617984576,
              0.5032740930238524
            ],
            [
              -0.8871529576137993,
              0.4614754920871621
            ],
            [
              -0.9522933034266857,
              0.30518431193082357
            ]
          ]
        ]
      }
    },
    {
      "type": "Feature",
      "properties": {
        "cell_id": "CEG2000_f4_r0036_c0104",
        "method": "Direct Polar",
        "view": "disk"
      },
      "geometry": {
        "type": "Polygon",
        "coordinates": [
          [
            [
              -0.9296564021180997,
              0.3586264713987208
            ],
            [
              -0.6278197806344876,
              0.3041551387508015
            ],
            [
              -0.6727653307832043,
              0.5290325927591525
            ],
            [
              -0.8037607175737321,
              0.5032749542174774
            ],
            [
              -0.9296564021180997,
              0.3586264713987208
            ]
          ]
        ]
      }
    },
    {
      "type": "Feature",
      "properties": {
        "cell_id": "CEG2000_f4_r0036_c0105",
        "method": "Direct Polar",
        "view": "disk"
      },
      "geometry": {
        "type": "Polygon",
        "coordinates": [
          [
            [
              -0.6278337360669478,
              0.30416073230843454
            ],
            [
              -0.4866634031458043,
              0.3168346055716244
            ],
            [
              -0.47089314649847835,
              0.497605249885261
            ],
            [
              -0.6727685305571383,
              0.5290330785639863
            ],
            [
              -0.6278337360669478,
              0.30416073230843454
            ]
          ]
        ]
      }
    },
    {
      "type": "Feature",
      "properties": {
        "cell_id": "CEG2000_f4_r0036_c0106",
        "method": "Direct Polar",
        "view": "disk"
      },
      "geometry": {
        "type": "Polygon",
        "coordinates": [
          [
            [
              -0.4866634031458043,
              0.3168346055716244
            ],
            [
              -0.3085042007349051,
              0.30609121898470015
            ],
            [
              -0.27633073871385566,
              0.44501807350387723
            ],
            [
              -0.47089314649847835,
              0.497605249885261
            ],
            [
              -0.4866634031458043,
              0.3168346055716244
            ]
          ]
        ]
      }
    },
    {
      "type": "Feature",
      "properties": {
        "cell_id": "CEG2000_f4_r0036_c0107",
        "method": "Direct Polar",
        "view": "disk"
      },
      "geometry": {
        "type": "Polygon",
        "coordinates": [
          [
            [
              -0.30850654654353,
              0.3060911405906835
            ],
            [
              -0.16694110884266133,
              0.3479642848787877
            ],
            [
              -0.11591890814270744,
              0.3921789870882172
            ],
            [
              -0.2763318190432086,
              0.4450163155282602
            ],
            [
              -0.30850654654353,
              0.3060911405906835
            ]
          ]
        ]
      }
    },
    {
      "type": "Feature",
      "properties": {
        "cell_id": "CEG2000_f4_r0036_c0108",
        "method": "Direct Polar",
        "view": "disk"
      },
      "geometry": {
        "type": "Polygon",
        "coordinates": [
          [
            [
              -0.1669382600797838,
              0.34796409264038025
            ],
            [
              0.015597073481515416,
              0.32256632027831167
            ],
            [
              0.015574416526611675,
              0.5228129657032079
            ],
            [
              -0.11591699453139517,
              0.39217898859091893
            ],
            [
              -0.1669382600797838,
              0.34796409264038025
            ]
          ]
        ]
      }
    },
    {
      "type": "Feature",
      "properties": {
        "cell_id": "CEG2000_f4_r0036_c0109",
        "method": "Direct Polar",
        "view": "disk"
      },
      "geometry": {
        "type": "Polygon",
        "coordinates": [
          [
            [
              0.015599637337024215,
              0.3225664964592863
            ],
            [
              0.27617479163467584,
              0.4790650300175833
            ],
            [
              0.21023917032633424,
              0.5919468740160023
            ],
            [
              0.015576974815698561,
              0.5228131894305381
            ],
            [
              0.015599637337024215,
              0.3225664964592863
            ]
          ]
        ]
      }
    },
    {
      "type": "Feature",
      "properties": {
        "cell_id": "CEG2000_f4_r0036_c0110",
        "method": "Direct Polar",
        "view": "disk"
      },
      "geometry": {
        "type": "Polygon",
        "coordinates": [
          [
            [
              0.27617040678446697,
              0.4790640069982936
            ],
            [
              0.5578382117852133,
              0.5050077698329988
            ],
            [
              0.5418733688055646,
              0.7962441779437485
            ],
            [
              0.21023676440466177,
              0.5919482342851154
            ],
            [
              0.27617040678446697,
              0.4790640069982936
            ]
          ]
        ]
      }
    },
    {
      "type": "Feature",
      "properties": {
        "cell_id": "CEG2000_f4_r0036_c0111",
        "method": "Direct Polar",
        "view": "disk"
      },
      "geometry": {
        "type": "Polygon",
        "coordinates": [
          [
            [
              0.5578382117852133,
              0.5050077698329988
            ],
            [
              0.7782535826147924,
              0.4766528606813882
            ],
            [
              0.7091879700690673,
              0.7050194487454341
            ],
            [
              0.5418733688055646,
              0.7962441779437485
            ],
            [
              0.5578382117852133,
              0.5050077698329988
            ]
          ]
        ]
      }
    },
    {
      "type": "Feature",
      "properties": {
        "cell_id": "CEG2000_f4_r0036_c0113",
        "method": "Direct Polar",
        "view": "disk"
      },
      "geometry": {
        "type": "Polygon",
        "coordinates": [
          [
            [
              0.7456766391623586,
              0.345081167384896
            ],
            [
              0.9372847182943791,
              0.3485647097051371
            ],
            [
              0.8561189764799562,
              0.5167787709561146
            ],
            [
              0.7995566264831259,
              0.6005907100904269
            ],
            [
              0.7456766391623586,
              0.345081167384896
            ]
          ]
        ]
      }
    },
    {
      "type": "Feature",
      "properties": {
        "cell_id": "CEG2000_f4_r0037_c0104",
        "method": "Direct Polar",
        "view": "disk"
      },
      "geometry": {
        "type": "Polygon",
        "coordinates": [
          [
            [
              -0.8037607175737321,
              0.5032749542174774
            ],
            [
              -0.6727653307832043,
              0.5290325927591525
            ],
            [
              -0.6330431061296007,
              0.6889079765945816
            ],
            [
              -0.7557371820745573,
              0.6548750351250285
            ],
            [
              -0.8037607175737321,
              0.5032749542174774
            ]
          ]
        ]
      }
    },
    {
      "type": "Feature",
      "properties": {
        "cell_id": "CEG2000_f4_r0037_c0105",
        "method": "Direct Polar",
        "view": "disk"
      },
      "geometry": {
        "type": "Polygon",
        "coordinates": [
          [
            [
              -0.6727685305571383,
              0.5290330785639863
            ],
            [
              -0.47089314649847835,
              0.497605249885261
            ],
            [
              -0.4234229682037229,
              0.6192216040121139
            ],
            [
              -0.6330455127578262,
              0.6889079516716136
            ],
            [
              -0.6727685305571383,
              0.5290330785639863
            ]
          ]
        ]
      }
    },
    {
      "type": "Feature",
      "properties": {
        "cell_id": "CEG2000_f4_r0037_c0106",
        "method": "Direct Polar",
        "view": "disk"
      },
      "geometry": {
        "type": "Polygon",
        "coordinates": [
          [
            [
              -0.47089314649847835,
              0.497605249885261
            ],
            [
              -0.27633073871385566,
              0.44501807350387723
            ],
            [
              -0.3498235522577897,
              0.779662418216245
            ],
            [
              -0.4234229682037229,
              0.6192216040121139
            ],
            [
              -0.47089314649847835,
              0.497605249885261
            ]
          ]
        ]
      }
    },
    {
      "type": "Feature",
      "properties": {
        "cell_id": "CEG2000_f4_r0037_c0107",
        "method": "Direct Polar",
        "view": "disk"
      },
      "geometry": {
        "type": "Polygon",
        "coordinates": [
          [
            [
              -0.2763318190432086,
              0.4450163155282602
            ],
            [
              -0.11591890814270744,
              0.3921789870882172
            ],
            [
              -0.12038279838574316,
              0.5636422982868518
            ],
            [
              -0.3498264164606174,
              0.7796626736588002
            ],
            [
              -0.2763318190432086,
              0.4450163155282602
            ]
          ]
        ]
      }
    },
    {
      "type": "Feature",
      "properties": {
        "cell_id": "CEG2000_f4_r0037_c0108",
        "method": "Direct Polar",
        "view": "disk"
      },
      "geometry": {
        "type": "Polygon",
        "coordinates": [
          [
            [
              -0.11591699453139517,
              0.39217898859091893
            ],
            [
              0.015574416526611675,
              0.5228129657032079
            ],
            [
              0.015562597633395271,
              0.7229791234759883
            ],
            [
              -0.1203811305362275,
              0.5636437961746811
            ],
            [
              -0.11591699453139517,
              0.39217898859091893
            ]
          ]
        ]
      }
    },
    {
      "type": "Feature",
      "properties": {
        "cell_id": "CEG2000_f4_r0037_c0109",
        "method": "Direct Polar",
        "view": "disk"
      },
      "geometry": {
        "type": "Polygon",
        "coordinates": [
          [
            [
              0.015576974815698561,
              0.5228131894305381
            ],
            [
              0.21023917032633424,
              0.5919468740160023
            ],
            [
              0.2019344796366806,
              0.7868440785407382
            ],
            [
              0.015565152592332578,
              0.7229793683548807
            ],
            [
              0.015576974815698561,
              0.5228131894305381
            ]
          ]
        ]
      }
    },
    {
      "type": "Feature",
      "properties": {
        "cell_id": "CEG2000_f4_r0037_c0110",
        "method": "Direct Polar",
        "view": "disk"
      },
      "geometry": {
        "type": "Polygon",
        "coordinates": [
          [
            [
              0.21023676440466177,
              0.5919482342851154
            ],
            [
              0.5418733688055646,
              0.7962441779437485
            ],
            [
              0.3950477651631203,
              0.8033543977282237
            ],
            [
              0.2019309147892717,
              0.7868410005041038
            ],
            [
              0.21023676440466177,
              0.5919482342851154
            ]
          ]
        ]
      }
    },
    {
      "type": "Feature",
      "properties": {
        "cell_id": "CEG2000_f4_r0038_c0105",
        "method": "Direct Polar",
        "view": "disk"
      },
      "geometry": {
        "type": "Polygon",
        "coordinates": [
          [
            [
              -0.6330455127578262,
              0.6889079516716136
            ],
            [
              -0.4234229682037229,
              0.6192216040121139
            ],
            [
              -0.45055686955477514,
              0.8416909955565414
            ],
            [
              -0.5755073102263237,
              0.8000340753630039
            ],
            [
              -0.6330455127578262,
              0.6889079516716136
            ]
          ]
        ]
      }
    },
    {
      "type": "Feature",
      "properties": {
        "cell_id": "CEG2000_f4_r0038_c0106",
        "method": "Direct Polar",
        "view": "disk"
      },
      "geometry": {
        "type": "Polygon",
        "coordinates": [
          [
            [
              -0.4234229682037229,
              0.6192216040121139
            ],
            [
              -0.3498235522577897,
              0.779662418216245
            ],
            [
              -0.33139730032729886,
              0.9434912979650517
            ],
            [
              -0.45055686955477514,
              0.8416909955565414
            ],
            [
              -0.4234229682037229,
              0.6192216040121139
            ]
          ]
        ]
      }
    },
    {
      "type": "Feature",
      "properties": {
        "cell_id": "CEG2000_f4_r0038_c0107",
        "method": "Direct Polar",
        "view": "disk"
      },
      "geometry": {
        "type": "Polygon",
        "coordinates": [
          [
            [
              -0.3498264164606174,
              0.7796626736588002
            ],
            [
              -0.12038279838574316,
              0.5636422982868518
            ],
            [
              -0.12450587068137353,
              0.7446639845511682
            ],
            [
              -0.33139961901816223,
              0.9434904835315601
            ],
            [
              -0.3498264164606174,
              0.7796626736588002
            ]
          ]
        ]
      }
    },
    {
      "type": "Feature",
      "properties": {
        "cell_id": "CEG2000_f4_r0038_c0108",
        "method": "Direct Polar",
        "view": "disk"
      },
      "geometry": {
        "type": "Polygon",
        "coordinates": [
          [
            [
              -0.1203811305362275,
              0.5636437961746811
            ],
            [
              0.015562597633395271,
              0.7229791234759883
            ],
            [
              0.015555439836484358,
              0.9231182584134334
            ],
            [
              -0.12450405486012697,
              0.7446654201375741
            ],
            [
              -0.1203811305362275,
              0.5636437961746811
            ]
          ]
        ]
      }
    },
    {
      "type": "Feature",
      "properties": {
        "cell_id": "CEG2000_f4_r0038_c0109",
        "method": "Direct Polar",
        "view": "disk"
      },
      "geometry": {
        "type": "Polygon",
        "coordinates": [
          [
            [
              0.015565152592332578,
              0.7229793683548807
            ],
            [
              0.2019344796366806,
              0.7868440785407382
            ],
            [
              0.18901545778102158,
              0.9408207803954485
            ],
            [
              0.015557992679269795,
              0.923118515245692
            ],
            [
              0.015565152592332578,
              0.7229793683548807
            ]
          ]
        ]
      }
    },
    {
      "type": "Feature",
      "properties": {
        "cell_id": "CEG2000_f4_r0038_c0110",
        "method": "Direct Polar",
        "view": "disk"
      },
      "geometry": {
        "type": "Polygon",
        "coordinates": [
          [
            [
              0.2019309147892717,
              0.7868410005041038
            ],
            [
              0.3950477651631203,
              0.8033543977282237
            ],
            [
              0.35925594922099735,
              0.9332390706294503
            ],
            [
              0.1890121993801869,
              0.9408174901653383
            ],
            [
              0.2019309147892717,
              0.7868410005041038
            ]
          ]
        ]
      }
    },
    {
      "type": "Feature",
      "properties": {
        "cell_id": "CEG2000_f4_r0039_c0105",
        "method": "Direct Polar",
        "view": "disk"
      },
      "geometry": {
        "type": "Polygon",
        "coordinates": [
          [
            [
              -0.5755074470714918,
              0.8000333968920675
            ],
            [
              -0.4505566688231675,
              0.8416897066309079
            ],
            [
              -0.4025790067058461,
              0.9153852431406868
            ],
            [
              -0.5087918001934463,
              0.8608896003878269
            ],
            [
              -0.5755074470714918,
              0.8000333968920675
            ]
          ]
        ]
      }
    },
    {
      "type": "Feature",
      "properties": {
        "cell_id": "CEG2000_f4_r0039_c0107",
        "method": "Direct Polar",
        "view": "disk"
      },
      "geometry": {
        "type": "Polygon",
        "coordinates": [
          [
            [
              -0.3313999393432264,
              0.9434903710178
            ],
            [
              -0.12450585489715148,
              0.744663081565006
            ],
            [
              -0.12705808999659143,
              0.9249591653798158
            ],
            [
              -0.24351888834763555,
              0.8438551190835946
            ],
            [
              -0.3313999393432264,
              0.9434903710178
            ]
          ]
        ]
      }
    },
    {
      "type": "Feature",
      "properties": {
        "cell_id": "CEG2000_f4_r0039_c0108",
        "method": "Direct Polar",
        "view": "disk"
      },
      "geometry": {
        "type": "Polygon",
        "coordinates": [
          [
            [
              -0.12450403907647122,
              0.7446645171516821
            ],
            [
              0.015555439865168354,
              0.9231172577623681
            ],
            [
              0.013843108431715212,
              0.9999041795836978
            ],
            [
              -0.12705618280318898,
              0.9249605543363197
            ],
            [
              -0.12450403907647122,
              0.7446645171516821
            ]
          ]
        ]
      }
    },
    {
      "type": "Feature",
      "properties": {
        "cell_id": "CEG2000_f4_r0039_c0109",
        "method": "Direct Polar",
        "view": "disk"
      },
      "geometry": {
        "type": "Polygon",
        "coordinates": [
          [
            [
              0.015557992707962341,
              0.9231175145945777
            ],
            [
              0.18901551001349873,
              0.9408200188060276
            ],
            [
              0.16285599760965416,
              0.9866498487521114
            ],
            [
              0.013845375972621936,
              0.9999041481883034
            ],
            [
              0.015557992707962341,
              0.9231175145945777
            ]
          ]
        ]
      }
    },
    {
      "type": "Feature",
      "properties": {
        "cell_id": "CEG2000_f4_r0040_c0106",
        "method": "Direct Polar",
        "view": "disk"
      },
      "geometry": {
        "type": "Polygon",
        "coordinates": [
          [
            [
              -0.40257870577105115,
              0.9153853754893102
            ],
            [
              -0.2435169711460784,
              0.8438558608837595
            ],
            [
              -0.23785635200600339,
              0.9713003427418299
            ],
            [
              -0.34964837352582306,
              0.9368810035915696
            ],
            [
              -0.40257870577105115,
              0.9153853754893102
            ]
          ]
        ]
      }
    },
    {
      "type": "Feature",
      "properties": {
        "cell_id": "CEG2000_f4_r0040_c0107",
        "method": "Direct Polar",
        "view": "disk"
      },
      "geometry": {
        "type": "Polygon",
        "coordinates": [
          [
            [
              -0.24351888802403002,
              0.8438558707657529
            ],
            [
              -0.12705810030477374,
              0.9249600655780172
            ],
            [
              -0.11578408541069192,
              0.9932744059753124
            ],
            [
              -0.23785811576887897,
              0.9712999108220275
            ],
            [
              -0.24351888802403002,
              0.8438558707657529
            ]
          ]
        ]
      }
    }
  ]
}