{
  "type": "FeatureCollection",
  "features": [
    {
      "type": "Feature",
      "properties": {
        "cell_id": "CEG2000_f4_r0028_c0108",
        "method": "Direct Polar",
        "view": "annulus"
      },
      "geometry": {
        "type": "Polygon",
        "coordinates": [
          [
            [
              -0.1195217367154852,
              -0.9928315841332377
            ],
            [
              0.012132267897277798,
              -0.9999264013294522
            ],
            [
              0.014346307205524845,
              -0.9975167964552147
            ],
            [
              -0.13299412914546066,
              -0.9319984853812893
            ],
            [
              -0.1195217367154852,
              -0.9928315841332377
            ]
          ]
        ]
      }
    },
    {
      "type": "Feature",
      "properties": {
        "cell_id": "CEG2000_f4_r0028_c0109",
        "method": "Direct Polar",
        "view": "annulus"
      },
      "geometry": {
        "type": "Polygon",
        "coordinates": [
          [
            [
              0.012134255285946504,
              -0.9999263772141704
            ],
            [
              0.14316681597863992,
              -0.9896985716886421
            ],
            [
              0.1584861974123272,
              -0.9242853502011048
            ],
            [
              0.014348638749064183,
              -0.9975154843861325
            ],
            [
              0.012134255285946504,
              -0.9999263772141704
            ]
          ]
        ]
      }
    },
    {
      "type": "Feature",
      "properties": {
        "cell_id": "CEG2000_f4_r0028_c0110",
        "method": "Direct Polar",
        "view": "annulus"
      },
      "geometry": {
        "type": "Polygon",
        "coordinates": [
          [
            [
              0.14316488895194024,
              -0.989698850444608
            ],
            [
              0.26710798254108453,
              -0.9636666050366338
            ],
            [
              0.2831185356290235,
              -0.8617123006895807
            ],
            [
              0.15848409996482182,
              -0.9242858191929706
            ],
            [
              0.14316488895194024,
              -0.989698850444608
            ]
          ]
        ]
      }
    },
    {
      "type": "Feature",
      "properties": {
        "cell_id": "CEG2000_f4_r0028_c0111",
        "method": "Direct Polar",
        "view": "annulus"
      },
      "geometry": {
        "type": "Polygon",
        "coordinates": [
          [
            [
              0.26710798254108453,
              -0.9636666050366338
            ],
            [
              0.3791177206211529,
              -0.9253484499965521
            ],
            [
              0.40966437092353564,
              -0.8435551063239819
            ],
            [
              0.2831185356290235,
              -0.8617123006895807
            ],
            [
              0.26710798254108453,
              -0.9636666050366338
            ]
          ]
        ]
      }
    },
    {
      "type": "Feature",
      "properties": {
        "cell_id": "CEG2000_f4_r0028_c0112",
        "method": "Direct Polar",
        "view": "annulus"
      },
      "geometry": {
        "type": "Polygon",
        "coordinates": [
          [
            [
              0.37911614556849527,
              -0.9253490952982488
            ],
            [
              0.47666089620349045,
              -0.8790872482470016
            ],
            [
              0.5345194832070017,
              -0.8316489471435036
            ],
            [
              0.40966251952164945,
              -0.8435553868620836
            ],
            [
              0.37911614556849527,
              -0.9253490952982488
            ]
          ]
        ]
      }
    },
    {
      "type": "Feature",
      "properties": {
        "cell_id": "CEG2000_f4_r0029_c0106",
        "method": "Direct Polar",
        "view": "annulus"
      },
      "geometry": {
        "type": "Polygon",
        "coordinates": [
          [
            [
              -0.4155538719273153,
              -0.9095685677980613
            ],
            [
              -0.284340678483193,
              -0.9484904738039193
            ],
            [
              -0.30665474922530717,
              -0.8333274393788304
            ],
            [
              -0.48914463976388295,
              -0.8722026836637579
            ],
            [
              -0.4155538719273153,
              -0.9095685677980613
            ]
          ]
        ]
      }
    },
    {
      "type": "Feature",
      "properties": {
        "cell_id": "CEG2000_f4_r0029_c0107",
        "method": "Direct Polar",
        "view": "annulus"
      },
      "geometry": {
        "type": "Polygon",
        "coordinates": [
          [
            [
              -0.2843424188571613,
              -0.9484888242075827
            ],
            [
              -0.13299624383881417,
              -0.9319979153413441
            ],
            [
              -0.16091387349219394,
              -0.9186309298935462
            ],
            [
              -0.3066569805904022,
              -0.8333269531726151
            ],
            [
              -0.2843424188571613,
              -0.9484888242075827
            ]
          ]
        ]
      }
    },
    {
      "type": "Feature",
      "properties": {
        "cell_id": "CEG2000_f4_r0029_c0108",
        "method": "Direct Polar",
        "view": "annulus"
      },
      "geometry": {
        "type": "Polygon",
        "coordinates": [
          [
            [
              -0.13299412914546055,
              -0.93199848538129
            ],
            [
              0.014346307205524857,
              -0.9975167964552156
            ],
            [
              0.015890425209384686,
              -0.9000934856998545
            ],
            [
              -0.16091112248807868,
              -0.9186303933064699
            ],
            [
              -0.13299412914546055,
              -0.93199848538129
            ]
          ]
        ]
      }
    },
    {
      "type": "Feature",
      "properties": {
        "cell_id": "CEG2000_f4_r0029_c0109",
        "method": "Direct Polar",
        "view": "annulus"
      },
      "geometry": {
        "type": "Polygon",
        "coordinates": [
          [
            [
              0.014348638749064193,
              -0.9975154843861332
            ],
            [
              0.15848619741232714,
              -0.9242853502011057
            ],
            [
              0.17537644148197037,
              -0.8332165487721097
            ],
            [
              0.01589300522499174,
              -0.9000921615469898
            ],
            [
              0.014348638749064193,
              -0.9975154843861332
            ]
          ]
        ]
      }
    },
    {
      "type": "Feature",
      "properties": {
        "cell_id": "CEG2000_f4_r0029_c0110",
        "method": "Direct Polar",
        "view": "annulus"
      },
      "geometry": {
        "type": "Polygon",
        "coordinates": [
          [
            [
              0.15848409996482174,
              -0.9242858191929714
            ],
            [
              0.28311853562902356,
              -0.8617123006895822
            ],
            [
              0.3130954972636797,
              -0.7763236561360595
            ],
            [
              0.1753741559514956,
              -0.8332171399659275
            ],
            [
              0.15848409996482174,
              -0.9242858191929714
            ]
          ]
        ]
      }
    },
    {
      "type": "Feature",
      "properties": {
        "cell_id": "CEG2000_f4_r0029_c0111",
        "method": "Direct Polar",
        "view": "annulus"
      },
      "geometry": {
        "type": "Polygon",
        "coordinates": [
          [
            [
              0.28311853562902356,
              -0.8617123006895822
            ],
            [
              0.4096643709235353,
              -0.8435551063239826
            ],
            [
              0.4497634003420813,
              -0.7544689742597133
            ],
            [
              0.3130954972636797,
              -0.7763236561360595
            ],
            [
              0.28311853562902356,
              -0.8617123006895822
            ]
          ]
        ]
      }
    },
    {
      "type": "Feature",
      "properties": {
        "cell_id": "CEG2000_f4_r0029_c0112",
        "method": "Direct Polar",
        "view": "annulus"
      },
      "geometry": {
        "type": "Polygon",
        "coordinates": [
          [
            [
              0.4096625195216491,
              -0.8435553868620843
            ],
            [
              0.5345194832070014,
              -0.8316489471435046
            ],
            [
              0.5980751796419377,
              -0.758061238675759
            ],
            [
              0.4497612822019379,
              -0.7544690817150919
            ],
            [
              0.4096625195216491,
              -0.8435553868620843
            ]
          ]
        ]
      }
    },
    {
      "type": "Feature",
      "properties": {
        "cell_id": "CEG2000_f4_r0029_c0113",
        "method": "Direct Polar",
        "view": "annulus"
      },
      "geometry": {
        "type": "Polygon",
        "coordinates": [
          [
            [
              0.5345214064546792,
              -0.8316488906028802
            ],
            [
              0.6246020268974699,
              -0.7809432168830025
            ],
            [
              0.7005743525289676,
              -0.713579411543395
            ],
            [
              0.5980776336814103,
              -0.7580615700652077
            ],
            [
              0.5345214064546792,
              -0.8316488906028802
            ]
          ]
        ]
      }
    },
    {
      "type": "Feature",
      "properties": {
        "cell_id": "CEG2000_f4_r0030_c0105",
        "method": "Direct Polar",
        "view": "annulus"
      },
      "geometry": {
        "type": "Polygon",
        "coordinates": [
          [
            [
              -0.6018600076510466,
              -0.7986016098094731
            ],
            [
              -0.48914463976388295,
              -0.8722026836637579
            ],
            [
              -0.5537532538674824,
              -0.7627530392109247
            ],
            [
              -0.6983251987634187,
              -0.715780634532698
            ],
            [
              -0.6018600076510466,
              -0.7986016098094731
            ]
          ]
        ]
      }
    },
    {
      "type": "Feature",
      "properties": {
        "cell_id": "CEG2000_f4_r0030_c0106",
        "method": "Direct Polar",
        "view": "annulus"
      },
      "geometry": {
        "type": "Polygon",
        "coordinates": [
          [
            [
              -0.48914463976388295,
              -0.8722026836637579
            ],
            [
              -0.30665474922530717,
              -0.8333274393788304
            ],
            [
              -0.3675040068181759,
              -0.7714638874942946
            ],
            [
              -0.5537532538674824,
              -0.7627530392109247
            ],
            [
              -0.48914463976388295,
              -0.8722026836637579
            ]
          ]
        ]
      }
    },
    {
      "type": "Feature",
      "properties": {
        "cell_id": "CEG2000_f4_r0030_c0107",
        "method": "Direct Polar",
        "view": "annulus"
      },
      "geometry": {
        "type": "Polygon",
        "coordinates": [
          [
            [
              -0.3066569805904022,
              -0.8333269531726151
            ],
            [
              -0.16091387349219394,
              -0.9186309298935462
            ],
            [
              -0.18181120000893294,
              -0.8017809689242837
            ],
            [
              -0.36750762712742097,
              -0.7714654235784851
            ],
            [
              -0.3066569805904022,
              -0.8333269531726151
            ]
          ]
        ]
      }
    },
    {
      "type": "Feature",
      "properties": {
        "cell_id": "CEG2000_f4_r0030_c0108",
        "method": "Direct Polar",
        "view": "annulus"
      },
      "geometry": {
        "type": "Polygon",
        "coordinates": [
          [
            [
              -0.16091112248807868,
              -0.9186303933064699
            ],
            [
              0.015890425209384686,
              -0.9000934856998545
            ],
            [
              0.018343397955294053,
              -0.8026374579531171
            ],
            [
              -0.18180858366359326,
              -0.8017826699862092
            ],
            [
              -0.16091112248807868,
              -0.9186303933064699
            ]
          ]
        ]
      }
    },
    {
      "type": "Feature",
      "properties": {
        "cell_id": "CEG2000_f4_r0030_c0109",
        "method": "Direct Polar",
        "view": "annulus"
      },
      "geometry": {
        "type": "Polygon",
        "coordinates": [
          [
            [
              0.01589300522499174,
              -0.9000921615469898
            ],
            [
              0.17537644148197037,
              -0.8332165487721097
            ],
            [
              0.20115621369342676,
              -0.7382570814995145
            ],
            [
              0.018346372449743083,
              -0.8026361112330769
            ],
            [
              0.01589300522499174,
              -0.9000921615469898
            ]
          ]
        ]
      }
    },
    {
      "type": "Feature",
      "properties": {
        "cell_id": "CEG2000_f4_r0030_c0110",
        "method": "Direct Polar",
        "view": "annulus"
      },
      "geometry": {
        "type": "Polygon",
        "coordinates": [
          [
            [
              0.1753741559514956,
              -0.8332171399659275
            ],
            [
              0.3130954972636797,
              -0.7763236561360595
            ],
            [
              0.3579808959970848,
              -0.6856672156550957
            ],
            [
              0.20115366884040062,
              -0.7382578866057302
            ],
            [
              0.1753741559514956,
              -0.8332171399659275
            ]
          ]
        ]
      }
    },
    {
      "type": "Feature",
      "properties": {
        "cell_id": "CEG2000_f4_r0030_c0111",
        "method": "Direct Polar",
        "view": "annulus"
      },
      "geometry": {
        "type": "Polygon",
        "coordinates": [
          [
            [
              0.3130954972636797,
              -0.7763236561360595
            ],
            [
              0.4497634003420813,
              -0.7544689742597133
            ],
            [
              0.5174121923668887,
              -0.6704732686410383
            ],
            [
              0.3579808959970848,
              -0.6856672156550957
            ],
            [
              0.3130954972636797,
              -0.7763236561360595
            ]
          ]
        ]
      }
    },
    {
      "type": "Feature",
      "properties": {
        "cell_id": "CEG2000_f4_r0030_c0112",
        "method": "Direct Polar",
        "view": "annulus"
      },
      "geometry": {
        "type": "Polygon",
        "coordinates": [
          [
            [
              0.4497612822019379,
              -0.7544690817150919
            ],
            [
              0.5980751796419377,
              -0.758061238675759
            ],
            [
              0.6431302996271016,
              -0.6297019207015084
            ],
            [
              0.51740953137358,
              -0.6704730735256814
            ],
            [
              0.4497612822019379,
              -0.7544690817150919
            ]
          ]
        ]
      }
    },
    {
      "type": "Feature",
      "properties": {
        "cell_id": "CEG2000_f4_r0030_c0113",
        "method": "Direct Polar",
        "view": "annulus"
      },
      "geometry": {
        "type": "Polygon",
        "coordinates": [
          [
            [
              0.5980776336814103,
              -0.7580615700652077
            ],
            [
              0.7005743525289676,
              -0.713579411543395
            ],
            [
              0.7677004998541048,
              -0.6040424162448059
            ],
            [
              0.6431316673422783,
              -0.6297009513291738
            ],
            [
              0.5980776336814103,
              -0.7580615700652077
            ]
          ]
        ]
      }
    },
    {
      "type": "Feature",
      "properties": {
        "cell_id": "CEG2000_f4_r0031_c0106",
        "method": "Direct Polar",
        "view": "annulus"
      },
      "geometry": {
        "type": "Polygon",
        "coordinates": [
          [
            [
              -0.553752903589408,
              -0.7627536799953453
            ],
            [
              -0.3675035657146544,
              -0.7714640976236274
            ],
            [
              -0.4443321009208731,
              -0.6580228025874726
            ],
            [
              -0.7000825487873169,
              -0.6802939960416822
            ],
            [
              -0.553752903589408,
              -0.7627536799953453
            ]
          ]
        ]
      }
    },
    {
      "type": "Feature",
      "properties": {
        "cell_id": "CEG2000_f4_r0031_c0107",
        "method": "Direct Polar",
        "view": "annulus"
      },
      "geometry": {
        "type": "Polygon",
        "coordinates": [
          [
            [
              -0.36750718602083704,
              -0.7714656337109289
            ],
            [
              -0.18181107809030123,
              -0.8017816120075956
            ],
            [
              -0.21484841803921087,
              -0.6684162523457373
            ],
            [
              -0.4443352217101385,
              -0.6580222522358319
            ],
            [
              -0.36750718602083704,
              -0.7714656337109289
            ]
          ]
        ]
      }
    },
    {
      "type": "Feature",
      "properties": {
        "cell_id": "CEG2000_f4_r0031_c0108",
        "method": "Direct Polar",
        "view": "annulus"
      },
      "geometry": {
        "type": "Polygon",
        "coordinates": [
          [
            [
              -0.18180846174613025,
              -0.8017833130683023
            ],
            [
              0.018343382081424907,
              -0.8026379453741145
            ],
            [
              0.02284157623991323,
              -0.70509143049631
            ],
            [
              -0.21484553324770755,
              -0.6684183143902884
            ],
            [
              -0.18180846174613025,
              -0.8017833130683023
            ]
          ]
        ]
      }
    },
    {
      "type": "Feature",
      "properties": {
        "cell_id": "CEG2000_f4_r0031_c0109",
        "method": "Direct Polar",
        "view": "annulus"
      },
      "geometry": {
        "type": "Polygon",
        "coordinates": [
          [
            [
              0.0183463565733222,
              -0.8026365986542342
            ],
            [
              0.2011560513734146,
              -0.738257572965726
            ],
            [
              0.24240612664386035,
              -0.6276210363979243
            ],
            [
              0.022845273149721786,
              -0.7050900316518334
            ],
            [
              0.0183463565733222,
              -0.8026365986542342
            ]
          ]
        ]
      }
    },
    {
      "type": "Feature",
      "properties": {
        "cell_id": "CEG2000_f4_r0031_c0110",
        "method": "Direct Polar",
        "view": "annulus"
      },
      "geometry": {
        "type": "Polygon",
        "coordinates": [
          [
            [
              0.20115350652190245,
              -0.7382583780704969
            ],
            [
              0.3579806288879677,
              -0.6856677137868497
            ],
            [
              0.43320231089883715,
              -0.5853613305383902
            ],
            [
              0.24240302750232537,
              -0.6276216368818672
            ],
            [
              0.20115350652190245,
              -0.7382583780704969
            ]
          ]
        ]
      }
    },
    {
      "type": "Feature",
      "properties": {
        "cell_id": "CEG2000_f4_r0031_c0111",
        "method": "Direct Polar",
        "view": "annulus"
      },
      "geometry": {
        "type": "Polygon",
        "coordinates": [
          [
            [
              0.3579806288879677,
              -0.6856677137868497
            ],
            [
              0.5174117148070752,
              -0.6704736371793526
            ],
            [
              0.5760240877887425,
              -0.5265809995625114
            ],
            [
              0.43320231089883715,
              -0.5853613305383902
            ],
            [
              0.3579806288879677,
              -0.6856677137868497
            ]
          ]
        ]
      }
    },
    {
      "type": "Feature",
      "properties": {
        "cell_id": "CEG2000_f4_r0031_c0112",
        "method": "Direct Polar",
        "view": "annulus"
      },
      "geometry": {
        "type": "Polygon",
        "coordinates": [
          [
            [
              0.5174090538144929,
              -0.6704734420616474
            ],
            [
              0.6431301922459258,
              -0.6297027428914007
            ],
            [
              0.6997239560861696,
              -0.4833286290516759
            ],
            [
              0.5760225947071205,
              -0.5265821895526205
            ],
            [
              0.5174090538144929,
              -0.6704734420616474
            ]
          ]
        ]
      }
    },
    {
      "type": "Feature",
      "properties": {
        "cell_id": "CEG2000_f4_r0031_c0113",
        "method": "Direct Polar",
        "view": "annulus"
      },
      "geometry": {
        "type": "Polygon",
        "coordinates": [
          [
            [
              0.6431315599624906,
              -0.6297017735193831
            ],
            [
              0.7677004859266852,
              -0.6040432948281341
            ],
            [
              0.8063722707572186,
              -0.4476008764554269
            ],
            [
              0.6997256714216293,
              -0.48332804198953416
            ],
            [
              0.6431315599624906,
              -0.6297017735193831
            ]
          ]
        ]
      }
    },
    {
      "type": "Feature",
      "properties": {
        "cell_id": "CEG2000_f4_r0031_c0114",
        "method": "Direct Polar",
        "view": "annulus"
      },
      "geometry": {
        "type": "Polygon",
        "coordinates": [
          [
            [
              0.7677016641349477,
              -0.6040424423259941
            ],
            [
              0.8355094248821479,
              -0.5494761149796253
            ],
            [
              0.9034544726697115,
              -0.41916289276476637
            ],
            [
              0.806373772596517,
              -0.44760039144089536
            ],
            [
              0.7677016641349477,
              -0.6040424423259941
            ]
          ]
        ]
      }
    },
    {
      "type": "Feature",
      "properties": {
        "cell_id": "CEG2000_f4_r0032_c0104",
        "method": "Direct Polar",
        "view": "annulus"
      },
      "geometry": {
        "type": "Polygon",
        "coordinates": [
          [
            [
              -0.8666111415418263,
              -0.49898409729727133
            ],
            [
              -0.8103386855947864,
              -0.585961785979695
            ],
            [
              -0.8680417364573633,
              -0.3656330265705875
            ],
            [
              -0.9480935169821008,
              -0.31799163991606916
            ],
            [
              -0.8666111415418263,
              -0.49898409729727133
            ]
          ]
        ]
      }
    },
    {
      "type": "Feature",
      "properties": {
        "cell_id": "CEG2000_f4_r0032_c0105",
        "method": "Direct Polar",
        "view": "annulus"
      },
      "geometry": {
        "type": "Polygon",
        "coordinates": [
          [
            [
              -0.8103397534012432,
              -0.5859603092852044
            ],
            [
              -0.7000827586071786,
              -0.6802927798405923
            ],
            [
              -0.7382704668000143,
              -0.4178920065892916
            ],
            [
              -0.8680440928300861,
              -0.36563261586591456
            ],
            [
              -0.8103397534012432,
              -0.5859603092852044
            ]
          ]
        ]
      }
    },
    {
      "type": "Feature",
      "properties": {
        "cell_id": "CEG2000_f4_r0032_c0106",
        "method": "Direct Polar",
        "view": "annulus"
      },
      "geometry": {
        "type": "Polygon",
        "coordinates": [
          [
            [
              -0.7000827586071786,
              -0.6802927798405923
            ],
            [
              -0.44433256295091833,
              -0.6580221132187665
            ],
            [
              -0.591348213076098,
              -0.5101263118195491
            ],
            [
              -0.7382704668000143,
              -0.4178920065892916
            ],
            [
              -0.7000827586071786,
              -0.6802927798405923
            ]
          ]
        ]
      }
    },
    {
      "type": "Feature",
      "properties": {
        "cell_id": "CEG2000_f4_r0032_c0107",
        "method": "Direct Polar",
        "view": "annulus"
      },
      "geometry": {
        "type": "Polygon",
        "coordinates": [
          [
            [
              -0.44433568374057697,
              -0.6580215628634792
            ],
            [
              -0.21484864086395225,
              -0.6684155502803518
            ],
            [
              -0.31182200339416877,
              -0.5650967123685705
            ],
            [
              -0.5913508297023721,
              -0.5101245595081535
            ],
            [
              -0.44433568374057697,
              -0.6580215628634792
            ]
          ]
        ]
      }
    },
    {
      "type": "Feature",
      "properties": {
        "cell_id": "CEG2000_f4_r0032_c0108",
        "method": "Direct Polar",
        "view": "annulus"
      },
      "geometry": {
        "type": "Polygon",
        "coordinates": [
          [
            [
              -0.2148457560709968,
              -0.6684176123275273
            ],
            [
              0.022841608105021376,
              -0.7050909422775226
            ],
            [
              0.03376494932187979,
              -0.6071369307179535
            ],
            [
              -0.3118174329705867,
              -0.5650977605644035
            ],
            [
              -0.2148457560709968,
              -0.6684176123275273
            ]
          ]
        ]
      }
    },
    {
      "type": "Feature",
      "properties": {
        "cell_id": "CEG2000_f4_r0032_c0109",
        "method": "Direct Polar",
        "view": "annulus"
      },
      "geometry": {
        "type": "Polygon",
        "coordinates": [
          [
            [
              0.022845305019942492,
              -0.7050895434326273
            ],
            [
              0.24240645241823505,
              -0.6276205697316497
            ],
            [
              0.3391612999096369,
              -0.5115185325912119
            ],
            [
              0.03377039311905891,
              -0.6071353475675305
            ],
            [
              0.022845305019942492,
              -0.7050895434326273
            ]
          ]
        ]
      }
    },
    {
      "type": "Feature",
      "properties": {
        "cell_id": "CEG2000_f4_r0032_c0110",
        "method": "Direct Polar",
        "view": "annulus"
      },
      "geometry": {
        "type": "Polygon",
        "coordinates": [
          [
            [
              0.24240335327401147,
              -0.6276211702189685
            ],
            [
              0.4332028951866706,
              -0.5853608981300802
            ],
            [
              0.5375996862678946,
              -0.42314913112698005
            ],
            [
              0.3391575141604126,
              -0.511519852108356
            ],
            [
              0.24240335327401147,
              -0.6276211702189685
            ]
          ]
        ]
      }
    },
    {
      "type": "Feature",
      "properties": {
        "cell_id": "CEG2000_f4_r0032_c0111",
        "method": "Direct Polar",
        "view": "annulus"
      },
      "geometry": {
        "type": "Polygon",
        "coordinates": [
          [
            [
              0.4332028951866706,
              -0.5853608981300802
            ],
            [
              0.5760242672746564,
              -0.526580064422604
            ],
            [
              0.6590419963366989,
              -0.35094480035199005
            ],
            [
              0.5375996862678946,
              -0.42314913112698005
            ],
            [
              0.4332028951866706,
              -0.5853608981300802
            ]
          ]
        ]
      }
    },
    {
      "type": "Feature",
      "properties": {
        "cell_id": "CEG2000_f4_r0032_c0112",
        "method": "Direct Polar",
        "view": "annulus"
      },
      "geometry": {
        "type": "Polygon",
        "coordinates": [
          [
            [
              0.5760227741953222,
              -0.5265812544131168
            ],
            [
              0.6997242965776486,
              -0.4833278553114169
            ],
            [
              0.9142036291424857,
              -0.3678408021284276
            ],
            [
              0.6590403386682738,
              -0.3509456203767179
            ],
            [
              0.5760227741953222,
              -0.5265812544131168
            ]
          ]
        ]
      }
    },
    {
      "type": "Feature",
      "properties": {
        "cell_id": "CEG2000_f4_r0032_c0113",
        "method": "Direct Polar",
        "view": "annulus"
      },
      "geometry": {
        "type": "Polygon",
        "coordinates": [
          [
            [
              0.6997260119117674,
              -0.483327268248712
            ],
            [
              0.8063725276995507,
              -0.44760008472753954
            ],
            [
              0.9514978908251619,
              -0.30765526771903046
            ],
            [
              0.9142053778347535,
              -0.367840157206676
            ],
            [
              0.6997260119117674,
              -0.483327268248712
            ]
          ]
        ]
      }
    },
    {
      "type": "Feature",
      "properties": {
        "cell_id": "CEG2000_f4_r0032_c0114",
        "method": "Direct Polar",
        "view": "annulus"
      },
      "geometry": {
        "type": "Polygon",
        "coordinates": [
          [
            [
              0.8063740295377029,
              -0.44759959971296415
            ],
            [
              0.9034548067192957,
              -0.41916217276089396
            ],
            [
              0.9653665004656573,
              -0.2608975273525796
            ],
            [
              0.9514981561485555,
              -0.3076544471414304
            ],
            [
              0.8063740295377029,
              -0.44759959971296415
            ]
          ]
        ]
      }
    },
    {
      "type": "Feature",
      "properties": {
        "cell_id": "CEG2000_f4_r0033_c0105",
        "method": "Direct Polar",
        "view": "annulus"
      },
      "geometry": {
        "type": "Polygon",
        "coordinates": [
          [
            [
              -0.8680440928300861,
              -0.36563261586591456
            ],
            [
              -0.7382704668000143,
              -0.4178920065892916
            ],
            [
              -0.9520715939985055,
              -0.15266255609267076
            ],
            [
              -0.9929563539390855,
              -0.11848071223620148
            ],
            [
              -0.8680440928300861,
              -0.36563261586591456
            ]
          ]
        ]
      }
    },
    {
      "type": "Feature",
      "properties": {
        "cell_id": "CEG2000_f4_r0033_c0106",
        "method": "Direct Polar",
        "view": "annulus"
      },
      "geometry": {
        "type": "Polygon",
        "coordinates": [
          [
            [
              -0.7382704668000143,
              -0.4178920065892916
            ],
            [
              -0.591348213076098,
              -0.5101263118195491
            ],
            [
              -0.7774805791943248,
              -0.18999332304949135
            ],
            [
              -0.9520715939985055,
              -0.15266255609267076
            ],
            [
              -0.7382704668000143,
              -0.4178920065892916
            ]
          ]
        ]
      }
    },
    {
      "type": "Feature",
      "properties": {
        "cell_id": "CEG2000_f4_r0033_c0107",
        "method": "Direct Polar",
        "view": "annulus"
      },
      "geometry": {
        "type": "Polygon",
        "coordinates": [
          [
            [
              -0.5913508297023721,
              -0.5101245595081535
            ],
            [
              -0.31182200339416877,
              -0.5650967123685705
            ],
            [
              -0.52672410169083,
              -0.27040428397125127
            ],
            [
              -0.7774833113806193,
              -0.1899924973876111
            ],
            [
              -0.5913508297023721,
              -0.5101245595081535
            ]
          ]
        ]
      }
    },
    {
      "type": "Feature",
      "properties": {
        "cell_id": "CEG2000_f4_r0033_c0108",
        "method": "Direct Polar",
        "view": "annulus"
      },
      "geometry": {
        "type": "Polygon",
        "coordinates": [
          [
            [
              -0.3118174329705867,
              -0.5650977605644035
            ],
            [
              0.03376494932187979,
              -0.6071369307179535
            ],
            [
              0.09891298288624796,
              -0.5038348463327976
            ],
            [
              -0.5267210663928686,
              -0.2704071907099941
            ],
            [
              -0.3118174329705867,
              -0.5650977605644035
            ]
          ]
        ]
      }
    },
    {
      "type": "Feature",
      "properties": {
        "cell_id": "CEG2000_f4_r0033_c0109",
        "method": "Direct Polar",
        "view": "annulus"
      },
      "geometry": {
        "type": "Polygon",
        "coordinates": [
          [
            [
              0.03377039311905891,
              -0.6071353475675305
            ],
            [
              0.3391612999096369,
              -0.5115185325912119
            ],
            [
              0.5357126097882796,
              -0.2288765531642917
            ],
            [
              0.09892856591420514,
              -0.5038316769862126
            ],
            [
              0.03377039311905891,
              -0.6071353475675305
            ]
          ]
        ]
      }
    },
    {
      "type": "Feature",
      "properties": {
        "cell_id": "CEG2000_f4_r0033_c0110",
        "method": "Direct Polar",
        "view": "annulus"
      },
      "geometry": {
        "type": "Polygon",
        "coordinates": [
          [
            [
              0.3391575141604126,
              -0.511519852108356
            ],
            [
              0.5375996862678946,
              -0.42314913112698005
            ],
            [
              0.7629314758178763,
              -0.17011175809591367
            ],
            [
              0.535709765304201,
              -0.22887848306482125
            ],
            [
              0.3391575141604126,
              -0.511519852108356
            ]
          ]
        ]
      }
    },
    {
      "type": "Feature",
      "properties": {
        "cell_id": "CEG2000_f4_r0033_c0111",
        "method": "Direct Polar",
        "view": "annulus"
      },
      "geometry": {
        "type": "Polygon",
        "coordinates": [
          [
            [
              0.5375996862678946,
              -0.42314913112698005
            ],
            [
              0.6590419963366989,
              -0.35094480035199005
            ],
            [
              0.963573922133999,
              -0.14535337271639148
            ],
            [
              0.7629314758178763,
              -0.17011175809591367
            ],
            [
              0.5375996862678946,
              -0.42314913112698005
            ]
          ]
        ]
      }
    },
    {
      "type": "Feature",
      "properties": {
        "cell_id": "CEG2000_f4_r0033_c0112",
        "method": "Direct Polar",
        "view": "annulus"
      },
      "geometry": {
        "type": "Polygon",
        "coordinates": [
          [
            [
              0.6590403386682738,
              -0.3509456203767179
            ],
            [
              0.9142036291424857,
              -0.3678408021284276
            ],
            [
              0.9935668157941768,
              -0.11324743949697157
            ],
            [
              0.9635709583798692,
              -0.14535363087766084
            ],
            [
              0.6590403386682738,
              -0.3509456203767179
            ]
          ]
        ]
      }
    },
    {
      "type": "Feature",
      "properties": {
        "cell_id": "CEG2000_f4_r0034_c0105",
        "method": "Direct Polar",
        "view": "annulus"
      },
      "geometry": {
        "type": "Polygon",
        "coordinates": [
          [
            [
              -0.9929561776068461,
              -0.1184821900219674
            ],
            [
              -0.952071387288167,
              -0.1526644541862732
            ],
            [
              -0.9177336410494786,
              0.2251588729520875
            ],
            [
              -0.9837396584822539,
              0.17960034612778059
            ],
            [
              -0.9929561776068461,
              -0.1184821900219674
            ]
          ]
        ]
      }
    },
    {
      "type": "Feature",
      "properties": {
        "cell_id": "CEG2000_f4_r0034_c0106",
        "method": "Direct Polar",
        "view": "annulus"
      },
      "geometry": {
        "type": "Polygon",
        "coordinates": [
          [
            [
              -0.952071387288167,
              -0.1526644541862732
            ],
            [
              -0.7774801186065722,
              -0.18999561398200931
            ],
            [
              -0.6390068465010527,
              0.23892620938263837
            ],
            [
              -0.9177336410494786,
              0.2251588729520875
            ],
            [
              -0.952071387288167,
              -0.1526644541862732
            ]
          ]
        ]
      }
    },
    {
      "type": "Feature",
      "properties": {
        "cell_id": "CEG2000_f4_r0034_c0107",
        "method": "Direct Polar",
        "view": "annulus"
      },
      "geometry": {
        "type": "Polygon",
        "coordinates": [
          [
            [
              -0.77748285079918,
              -0.18999478831211147
            ],
            [
              -0.5267230376046946,
              -0.2704071584119092
            ],
            [
              -0.4588078369213978,
              0.3603883110857911
            ],
            [
              -0.6390091270874264,
              0.23892518416431713
            ],
            [
              -0.77748285079918,
              -0.18999478831211147
            ]
          ]
        ]
      }
    },
    {
      "type": "Feature",
      "properties": {
        "cell_id": "CEG2000_f4_r0034_c0108",
        "method": "Direct Polar",
        "view": "annulus"
      },
      "geometry": {
        "type": "Polygon",
        "coordinates": [
          [
            [
              -0.5267200022772959,
              -0.2704100651632904
            ],
            [
              0.09891186117633516,
              -0.5038355062894677
            ],
            [
              0.06921670893936752,
              0.5394551461019248
            ],
            [
              -0.45880379482119094,
              0.3603910868475508
            ],
            [
              -0.5267200022772959,
              -0.2704100651632904
            ]
          ]
        ]
      }
    },
    {
      "type": "Feature",
      "properties": {
        "cell_id": "CEG2000_f4_r0034_c0109",
        "method": "Direct Polar",
        "view": "annulus"
      },
      "geometry": {
        "type": "Polygon",
        "coordinates": [
          [
            [
              0.09892744404224671,
              -0.5038323370134529
            ],
            [
              0.535711184267141,
              -0.22887883949609725
            ],
            [
              0.5499408000161803,
              0.3594966675164491
            ],
            [
              0.06922788513957293,
              0.5394538691624349
            ],
            [
              0.09892744404224671,
              -0.5038323370134529
            ]
          ]
        ]
      }
    },
    {
      "type": "Feature",
      "properties": {
        "cell_id": "CEG2000_f4_r0034_c0110",
        "method": "Direct Polar",
        "view": "annulus"
      },
      "geometry": {
        "type": "Polygon",
        "coordinates": [
          [
            [
              0.5357083397651097,
              -0.2288807694050011
            ],
            [
              0.7629297642257512,
              -0.17011352843393446
            ],
            [
              0.6584951787505369,
              0.2246523118935218
            ],
            [
              0.5499382263965872,
              0.35949992526644375
            ],
            [
              0.5357083397651097,
              -0.2288807694050011
            ]
          ]
        ]
      }
    },
    {
      "type": "Feature",
      "properties": {
        "cell_id": "CEG2000_f4_r0034_c0111",
        "method": "Direct Polar",
        "view": "annulus"
      },
      "geometry": {
        "type": "Polygon",
        "coordinates": [
          [
            [
              0.7629297642257512,
              -0.17011352843393446
            ],
            [
              0.9635723800142638,
              -0.1453549788630987
            ],
            [
              0.8979851327626257,
              0.20726153696075822
            ],
            [
              0.6584951787505369,
              0.2246523118935218
            ],
            [
              0.7629297642257512,
              -0.17011352843393446
            ]
          ]
        ]
      }
    },
    {
      "type": "Feature",
      "properties": {
        "cell_id": "CEG2000_f4_r0035_c0104",
        "method": "Direct Polar",
        "view": "annulus"
      },
      "geometry": {
        "type": "Polygon",
        "coordinates": [
          [
            [
              -0.9895975435758966,
              0.14386348302662277
            ],
            [
              -0.9837392743424449,
              0.17960245019542437
            ],
            [
              -0.7584424915846492,
              0.3674369434956292
            ],
            [
              -0.9312548921885926,
              0.3592431087415505
            ],
            [
              -0.9895975435758966,
              0.14386348302662277
            ]
          ]
        ]
      }
    },
    {
      "type": "Feature",
      "properties": {
        "cell_id": "CEG2000_f4_r0035_c0105",
        "method": "Direct Polar",
        "view": "annulus"
      },
      "geometry": {
        "type": "Polygon",
        "coordinates": [
          [
            [
              -0.9837393961266957,
              0.17960178314338673
            ],
            [
              -0.9177331166149221,
              0.2251606058714394
            ],
            [
              -0.6553276695399446,
              0.4266408411989304
            ],
            [
              -0.7584500635501062,
              0.367439201649049
            ],
            [
              -0.9837393961266957,
              0.17960178314338673
            ]
          ]
        ]
      }
    },
    {
      "type": "Feature",
      "properties": {
        "cell_id": "CEG2000_f4_r0035_c0106",
        "method": "Direct Polar",
        "view": "annulus"
      },
      "geometry": {
        "type": "Polygon",
        "coordinates": [
          [
            [
              -0.9177331166149221,
              0.2251606058714394
            ],
            [
              -0.639006013532736,
              0.2389278733442571
            ],
            [
              -0.5011633860244672,
              0.4972435103745824
            ],
            [
              -0.6553276695399446,
              0.4266408411989304
            ],
            [
              -0.9177331166149221,
              0.2251606058714394
            ]
          ]
        ]
      }
    },
    {
      "type": "Feature",
      "properties": {
        "cell_id": "CEG2000_f4_r0035_c0107",
        "method": "Direct Polar",
        "view": "annulus"
      },
      "geometry": {
        "type": "Polygon",
        "coordinates": [
          [
            [
              -0.6390082941255554,
              0.23892684812231754
            ],
            [
              -0.4588064854417345,
              0.3603902291522548
            ],
            [
              -0.29443765225919716,
              0.6137121516685347
            ],
            [
              -0.5011659344231577,
              0.4972421305527631
            ],
            [
              -0.6390082941255554,
              0.23892684812231754
            ]
          ]
        ]
      }
    },
    {
      "type": "Feature",
      "properties": {
        "cell_id": "CEG2000_f4_r0035_c0108",
        "method": "Direct Polar",
        "view": "annulus"
      },
      "geometry": {
        "type": "Polygon",
        "coordinates": [
          [
            [
              -0.45880244332411424,
              0.3603930049057565
            ],
            [
              0.06921621214837816,
              0.5394557343737013
            ],
            [
              0.03129286959335716,
              0.6471743438050116
            ],
            [
              -0.29443338399843216,
              0.6137133887527444
            ],
            [
              -0.45880244332411424,
              0.3603930049057565
            ]
          ]
        ]
      }
    },
    {
      "type": "Feature",
      "properties": {
        "cell_id": "CEG2000_f4_r0035_c0109",
        "method": "Direct Polar",
        "view": "annulus"
      },
      "geometry": {
        "type": "Polygon",
        "coordinates": [
          [
            [
              0.06922738827133784,
              0.5394544574559594
            ],
            [
              0.5499404766150116,
              0.35949942838220705
            ],
            [
              0.3833416193576906,
              0.6649613576155332
            ],
            [
              0.031297992007076836,
              0.6471742521842095
            ],
            [
              0.06922738827133784,
              0.5394544574559594
            ]
          ]
        ]
      }
    },
    {
      "type": "Feature",
      "properties": {
        "cell_id": "CEG2000_f4_r0035_c0110",
        "method": "Direct Polar",
        "view": "annulus"
      },
      "geometry": {
        "type": "Polygon",
        "coordinates": [
          [
            [
              0.5499379029713065,
              0.359502686140469
            ],
            [
              0.6584946111425278,
              0.2246539756448943
            ],
            [
              0.6459187715712541,
              0.5847466011347122
            ],
            [
              0.38333686665169564,
              0.664962251048329
            ],
            [
              0.5499379029713065,
              0.359502686140469
            ]
          ]
        ]
      }
    },
    {
      "type": "Feature",
      "properties": {
        "cell_id": "CEG2000_f4_r0035_c0111",
        "method": "Direct Polar",
        "view": "annulus"
      },
      "geometry": {
        "type": "Polygon",
        "coordinates": [
          [
            [
              0.6584946111425278,
              0.2246539756448943
            ],
            [
              0.8979849229326192,
              0.20726320214343413
            ],
            [
              0.8140204145188659,
              0.49855878328222925
            ],
            [
              0.6459187715712541,
              0.5847466011347122
            ],
            [
              0.6584946111425278,
              0.2246539756448943
            ]
          ]
        ]
      }
    },
    {
      "type": "Feature",
      "properties": {
        "cell_id": "CEG2000_f4_r0035_c0112",
        "method": "Direct Polar",
        "view": "annulus"
      },
      "geometry": {
        "type": "Polygon",
        "coordinates": [
          [
            [
              0.8979827121217988,
              0.20726369748622753
            ],
            [
              0.9851308047796394,
              0.17180598788814064
            ],
            [
              0.8233657026929019,
              0.3810351894934805
            ],
            [
              0.8140190202037444,
              0.49856034826775003
            ],
            [
              0.8979827121217988,
              0.20726369748622753
            ]
          ]
        ]
      }
    },
    {
      "type": "Feature",
      "properties": {
        "cell_id": "CEG2000_f4_r0035_c0113",
        "method": "Direct Polar",
        "view": "annulus"
      },
      "geometry": {
        "type": "Polygon",
        "coordinates": [
          [
            [
              0.9851309113826202,
              0.17180537662846343
            ],
            [
              0.9903217404716746,
              0.13879067097306352
            ],
            [
              0.9372847182943791,
              0.3485647097051371
            ],
            [
              0.8233670318839449,
              0.3810344077131326
            ],
            [
              0.9851309113826202,
              0.17180537662846343
            ]
          ]
        ]
      }
    },
    {
      "type": "Feature",
      "properties": {
        "cell_id": "CEG2000_f4_r0036_c0103",
        "method": "Direct Polar",
        "view": "annulus"
      },
      "geometry": {
        "type": "Polygon",
        "coordinates": [
          [
            [
              -0.9522933034266857,
              0.30518431193082357
            ],
            [
              -0.9312569188406868,
              0.3592427927133762
            ],
            [
              -0.8247852199947563,
              0.5164378729231637
            ],
            [
              -0.8871529576137993,
              0.4614754920871621
            ],
            [
              -0.9522933034266857,
              0.30518431193082357
            ]
          ]
        ]
      }
    },
    {
      "type": "Feature",
      "properties": {
        "cell_id": "CEG2000_f4_r0036_c0104",
        "method": "Direct Polar",
        "view": "annulus"
      },
      "geometry": {
        "type": "Polygon",
        "coordinates": [
          [
            [
              -0.9312548921885926,
              0.3592431087415505
            ],
            [
              -0.7584424915846492,
              0.3674369434956292
            ],
            [
              -0.7271532436649063,
              0.5718008170567236
            ],
            [
              -0.8247843077830115,
              0.5164388799589609
            ],
            [
              -0.9312548921885926,
              0.3592431087415505
            ]
          ]
        ]
      }
    },
    {
      "type": "Feature",
      "properties": {
        "cell_id": "CEG2000_f4_r0036_c0105",
        "method": "Direct Polar",
        "view": "annulus"
      },
      "geometry": {
        "type": "Polygon",
        "coordinates": [
          [
            [
              -0.7584500635501062,
              0.367439201649049
            ],
            [
              -0.6553276695399446,
              0.4266408411989304
            ],
            [
              -0.5747889427985279,
              0.6073946873921443
            ],
            [
              -0.7271554608411548,
              0.5718003660558237
            ],
            [
              -0.7584500635501062,
              0.367439201649049
            ]
          ]
        ]
      }
    },
    {
      "type": "Feature",
      "properties": {
        "cell_id": "CEG2000_f4_r0036_c0106",
        "method": "Direct Polar",
        "view": "annulus"
      },
      "geometry": {
        "type": "Polygon",
        "coordinates": [
          [
            [
              -0.6553276695399446,
              0.4266408411989304
            ],
            [
              -0.5011633860244672,
              0.4972435103745824
            ],
            [
              -0.396900652634911,
              0.6391904303882762
            ],
            [
              -0.5747889427985279,
              0.6073946873921443
            ],
            [
              -0.6553276695399446,
              0.4266408411989304
            ]
          ]
        ]
      }
    },
    {
      "type": "Feature",
      "properties": {
        "cell_id": "CEG2000_f4_r0036_c0107",
        "method": "Direct Polar",
        "view": "annulus"
      },
      "geometry": {
        "type": "Polygon",
        "coordinates": [
          [
            [
              -0.5011659344231577,
              0.4972421305527631
            ],
            [
              -0.29443765225919716,
              0.6137121516685347
            ],
            [
              -0.19633562639270638,
              0.6642463108195372
            ],
            [
              -0.3969026507795964,
              0.6391886243318122
            ],
            [
              -0.5011659344231577,
              0.4972421305527631
            ]
          ]
        ]
      }
    },
    {
      "type": "Feature",
      "properties": {
        "cell_id": "CEG2000_f4_r0036_c0108",
        "method": "Direct Polar",
        "view": "annulus"
      },
      "geometry": {
        "type": "Polygon",
        "coordinates": [
          [
            [
              -0.29443338399843216,
              0.6137133887527444
            ],
            [
              0.03129286959335716,
              0.6471743438050116
            ],
            [
              0.02239138932469885,
              0.7516499022007207
            ],
            [
              -0.196332565226034,
              0.6642469222832765
            ],
            [
              -0.29443338399843216,
              0.6137133887527444
            ]
          ]
        ]
      }
    },
    {
      "type": "Feature",
      "properties": {
        "cell_id": "CEG2000_f4_r0036_c0109",
        "method": "Direct Polar",
        "view": "annulus"
      },
      "geometry": {
        "type": "Polygon",
        "coordinates": [
          [
            [
              0.031297992007076836,
              0.6471742521842095
            ],
            [
              0.3833416193576906,
              0.6649613576155332
            ],
            [
              0.26997241354934215,
              0.7601310736863721
            ],
            [
              0.02239505919128395,
              0.7516499488386555
            ],
            [
              0.031297992007076836,
              0.6471742521842095
            ]
          ]
        ]
      }
    },
    {
      "type": "Feature",
      "properties": {
        "cell_id": "CEG2000_f4_r0036_c0110",
        "method": "Direct Polar",
        "view": "annulus"
      },
      "geometry": {
        "type": "Polygon",
        "coordinates": [
          [
            [
              0.38333686665169564,
              0.664962251048329
            ],
            [
              0.6459187715712541,
              0.5847466011347122
            ],
            [
              0.5518285730857282,
              0.8108726389544707
            ],
            [
              0.2699692021709196,
              0.7601324772523642
            ],
            [
              0.38333686665169564,
              0.664962251048329
            ]
          ]
        ]
      }
    },
    {
      "type": "Feature",
      "properties": {
        "cell_id": "CEG2000_f4_r0036_c0111",
        "method": "Direct Polar",
        "view": "annulus"
      },
      "geometry": {
        "type": "Polygon",
        "coordinates": [
          [
            [
              0.6459187715712541,
              0.5847466011347122
            ],
            [
              0.8140204145188659,
              0.49855878328222925
            ],
            [
              0.7091879700690673,
              0.7050194487454341
            ],
            [
              0.5518285730857282,
              0.8108726389544707
            ],
            [
              0.6459187715712541,
              0.5847466011347122
            ]
          ]
        ]
      }
    },
    {
      "type": "Feature",
      "properties": {
        "cell_id": "CEG2000_f4_r0036_c0113",
        "method": "Direct Polar",
        "view": "annulus"
      },
      "geometry": {
        "type": "Polygon",
        "coordinates": [
          [
            [
              0.8233670318839449,
              0.3810344077131326
            ],
            [
              0.9372847182943791,
              0.3485647097051371
            ],
            [
              0.8561189764799562,
              0.5167787709561146
            ],
            [
              0.7995566264831259,
              0.6005907100904269
            ],
            [
              0.8233670318839449,
              0.3810344077131326
            ]
          ]
        ]
      }
    },
    {
      "type": "Feature",
      "properties": {
        "cell_id": "CEG2000_f4_r0037_c0104",
        "method": "Direct Polar",
        "view": "annulus"
      },
      "geometry": {
        "type": "Polygon",
        "coordinates": [
          [
            [
              -0.8247843077830115,
              0.5164388799589609
            ],
            [
              -0.7271532436649063,
              0.5718008170567236
            ],
            [
              -0.6539604770537,
              0.7116712663918634
            ],
            [
              -0.7557371820745573,
              0.6548750351250285
            ],
            [
              -0.8247843077830115,
              0.5164388799589609
            ]
          ]
        ]
      }
    },
    {
      "type": "Feature",
      "properties": {
        "cell_id": "CEG2000_f4_r0037_c0105",
        "method": "Direct Polar",
        "view": "annulus"
      },
      "geometry": {
        "type": "Polygon",
        "coordinates": [
          [
            [
              -0.7271554608411548,
              0.5718003660558237
            ],
            [
              -0.5747889427985279,
              0.6073946873921443
            ],
            [
              -0.4911170859723449,
              0.718218737693117
            ],
            [
              -0.6539624043052532,
              0.7116706324281672
            ],
            [
              -0.7271554608411548,
              0.5718003660558237
            ]
          ]
        ]
      }
    },
    {
      "type": "Feature",
      "properties": {
        "cell_id": "CEG2000_f4_r0037_c0106",
        "method": "Direct Polar",
        "view": "annulus"
      },
      "geometry": {
        "type": "Polygon",
        "coordinates": [
          [
            [
              -0.5747889427985279,
              0.6073946873921443
            ],
            [
              -0.396900652634911,
              0.6391904303882762
            ],
            [
              -0.37840460225523265,
              0.8433618758781027
            ],
            [
              -0.4911170859723449,
              0.718218737693117
            ],
            [
              -0.5747889427985279,
              0.6073946873921443
            ]
          ]
        ]
      }
    },
    {
      "type": "Feature",
      "properties": {
        "cell_id": "CEG2000_f4_r0037_c0107",
        "method": "Direct Polar",
        "view": "annulus"
      },
      "geometry": {
        "type": "Polygon",
        "coordinates": [
          [
            [
              -0.3969026507795964,
              0.6391886243318122
            ],
            [
              -0.19633562639270638,
              0.6642463108195372
            ],
            [
              -0.16285632785466875,
              0.7625069042541335
            ],
            [
              -0.37840737726455986,
              0.8433614318646369
            ],
            [
              -0.3969026507795964,
              0.6391886243318122
            ]
          ]
        ]
      }
    },
    {
      "type": "Feature",
      "properties": {
        "cell_id": "CEG2000_f4_r0037_c0108",
        "method": "Direct Polar",
        "view": "annulus"
      },
      "geometry": {
        "type": "Polygon",
        "coordinates": [
          [
            [
              -0.196332565226034,
              0.6642469222832765
            ],
            [
              0.02239138932469885,
              0.7516499022007207
            ],
            [
              0.018422471213363673,
              0.8558379779425995
            ],
            [
              -0.16285387734231804,
              0.7625080212996195
            ],
            [
              -0.196332565226034,
              0.6642469222832765
            ]
          ]
        ]
      }
    },
    {
      "type": "Feature",
      "properties": {
        "cell_id": "CEG2000_f4_r0037_c0109",
        "method": "Direct Polar",
        "view": "annulus"
      },
      "geometry": {
        "type": "Polygon",
        "coordinates": [
          [
            [
              0.02239505919128395,
              0.7516499488386555
            ],
            [
              0.26997241354934215,
              0.7601310736863721
            ],
            [
              0.22432566390878414,
              0.8740920353419643
            ],
            [
              0.018425491403027787,
              0.8558380688636092
            ],
            [
              0.02239505919128395,
              0.7516499488386555
            ]
          ]
        ]
      }
    },
    {
      "type": "Feature",
      "properties": {
        "cell_id": "CEG2000_f4_r0037_c0110",
        "method": "Direct Polar",
        "view": "annulus"
      },
      "geometry": {
        "type": "Polygon",
        "coordinates": [
          [
            [
              0.2699692021709196,
              0.7601324772523642
            ],
            [
              0.5518285730857282,
              0.8108726389544707
            ],
            [
              0.4172390329742889,
              0.8484817320896924
            ],
            [
              0.22432227185423,
              0.8740908295558983
            ],
            [
              0.2699692021709196,
              0.7601324772523642
            ]
          ]
        ]
      }
    },
    {
      "type": "Feature",
      "properties": {
        "cell_id": "CEG2000_f4_r0038_c0105",
        "method": "Direct Polar",
        "view": "annulus"
      },
      "geometry": {
        "type": "Polygon",
        "coordinates": [
          [
            [
              -0.6539624043052532,
              0.7116706324281672
            ],
            [
              -0.4911170859723449,
              0.718218737693117
            ],
            [
              -0.4608194892962487,
              0.8608627254998775
            ],
            [
              -0.5795641370689444,
              0.8056736209504742
            ],
            [
              -0.6539624043052532,
              0.7116706324281672
            ]
          ]
        ]
      }
    },
    {
      "type": "Feature",
      "properties": {
        "cell_id": "CEG2000_f4_r0038_c0106",
        "method": "Direct Polar",
        "view": "annulus"
      },
      "geometry": {
        "type": "Polygon",
        "coordinates": [
          [
            [
              -0.4911170859723449,
              0.718218737693117
            ],
            [
              -0.37840460225523265,
              0.8433618758781027
            ],
            [
              -0.33139730032729886,
              0.9434912979650517
            ],
            [
              -0.4608194892962487,
              0.8608627254998775
            ],
            [
              -0.4911170859723449,
              0.718218737693117
            ]
          ]
        ]
      }
    },
    {
      "type": "Feature",
      "properties": {
        "cell_id": "CEG2000_f4_r0038_c0107",
        "method": "Direct Polar",
        "view": "annulus"
      },
      "geometry": {
        "type": "Polygon",
        "coordinates": [
          [
            [
              -0.37840737726455986,
              0.8433614318646369
            ],
            [
              -0.16285632785466875,
              0.7625069042541335
            ],
            [
              -0.14389902232818813,
              0.8606535479291021
            ],
            [
              -0.33139961901816223,
              0.9434904835315601
            ],
            [
              -0.37840737726455986,
              0.8433614318646369
            ]
          ]
        ]
      }
    },
    {
      "type": "Feature",
      "properties": {
        "cell_id": "CEG2000_f4_r0038_c0108",
        "method": "Direct Polar",
        "view": "annulus"
      },
      "geometry": {
        "type": "Polygon",
        "coordinates": [
          [
            [
              -0.16285387734231804,
              0.7625080212996195
            ],
            [
              0.018422471213363673,
              0.8558379779425995
            ],
            [
              0.016176147092061444,
              0.9599533596240721
            ],
            [
              -0.14389680661943915,
              0.860654507020693
            ],
            [
              -0.16285387734231804,
              0.7625080212996195
            ]
          ]
        ]
      }
    },
    {
      "type": "Feature",
      "properties": {
        "cell_id": "CEG2000_f4_r0038_c0109",
        "method": "Direct Polar",
        "view": "annulus"
      },
      "geometry": {
        "type": "Polygon",
        "coordinates": [
          [
            [
              0.018425491403027787,
              0.8558380688636092
            ],
            [
              0.22432566390878414,
              0.8740920353419643
            ],
            [
              0.19283318902151503,
              0.95982346370605
            ],
            [
              0.016178799174029805,
              0.959953470854158
            ],
            [
              0.018425491403027787,
              0.8558380688636092
            ]
          ]
        ]
      }
    },
    {
      "type": "Feature",
      "properties": {
        "cell_id": "CEG2000_f4_r0038_c0110",
        "method": "Direct Polar",
        "view": "annulus"
      },
      "geometry": {
        "type": "Polygon",
        "coordinates": [
          [
            [
              0.22432227185423,
              0.8740908295558983
            ],
            [
              0.4172390329742889,
              0.8484817320896924
            ],
            [
              0.35925594922099735,
              0.9332390706294503
            ],
            [
              0.19283024584958872,
              0.9598220036753472
            ],
            [
              0.22432227185423,
              0.8740908295558983
            ]
          ]
        ]
      }
    },
    {
      "type": "Feature",
      "properties": {
        "cell_id": "CEG2000_f4_r0039_c0105",
        "method": "Direct Polar",
        "view": "annulus"
      },
      "geometry": {
        "type": "Polygon",
        "coordinates": [
          [
            [
              -0.5795644087990742,
              0.8056731238643159
            ],
            [
              -0.46081957610535934,
              0.8608619529148009
            ],
            [
              -0.4025790067058461,
              0.9153852431406868
            ],
            [
              -0.5087918001934463,
              0.8608896003878269
            ],
            [
              -0.5795644087990742,
              0.8056731238643159
            ]
          ]
        ]
      }
    },
    {
      "type": "Feature",
      "properties": {
        "cell_id": "CEG2000_f4_r0039_c0107",
        "method": "Direct Polar",
        "view": "annulus"
      },
      "geometry": {
        "type": "Polygon",
        "coordinates": [
          [
            [
              -0.3313999393432264,
              0.9434903710178
            ],
            [
              -0.1438990977333361,
              0.8606530643964246
            ],
            [
              -0.13139254575832277,
              0.9565131938077128
            ],
            [
              -0.2597169545580632,
              0.8999855539080647
            ],
            [
              -0.3313999393432264,
              0.9434903710178
            ]
          ]
        ]
      }
    },
    {
      "type": "Feature",
      "properties": {
        "cell_id": "CEG2000_f4_r0039_c0108",
        "method": "Direct Polar",
        "view": "annulus"
      },
      "geometry": {
        "type": "Polygon",
        "coordinates": [
          [
            [
              -0.1438968820236135,
              0.860654023488599
            ],
            [
              0.01617615588597985,
              0.9599528391375834
            ],
            [
              0.013843108431715212,
              0.9999041795836978
            ],
            [
              -0.1313904953891654,
              0.9565140614836398
            ],
            [
              -0.1438968820236135,
              0.860654023488599
            ]
          ]
        ]
      }
    },
    {
      "type": "Feature",
      "properties": {
        "cell_id": "CEG2000_f4_r0039_c0109",
        "method": "Direct Polar",
        "view": "annulus"
      },
      "geometry": {
        "type": "Polygon",
        "coordinates": [
          [
            [
              0.016178807969389718,
              0.9599529503675953
            ],
            [
              0.19283331485995836,
              0.9598230478547409
            ],
            [
              0.16285599760965416,
              0.9866498487521114
            ],
            [
              0.013845375972621936,
              0.9999041481883034
            ],
            [
              0.016178807969389718,
              0.9599529503675953
            ]
          ]
        ]
      }
    },
    {
      "type": "Feature",
      "properties": {
        "cell_id": "CEG2000_f4_r0040_c0106",
        "method": "Direct Polar",
        "view": "annulus"
      },
      "geometry": {
        "type": "Polygon",
        "coordinates": [
          [
            [
              -0.40257870577105115,
              0.9153853754893102
            ],
            [
              -0.2597148823817445,
              0.8999862499320541
            ],
            [
              -0.23785635200600339,
              0.9713003427418299
            ],
            [
              -0.34964837352582306,
              0.9368810035915696
            ],
            [
              -0.40257870577105115,
              0.9153853754893102
            ]
          ]
        ]
      }
    },
    {
      "type": "Feature",
      "properties": {
        "cell_id": "CEG2000_f4_r0040_c0107",
        "method": "Direct Polar",
        "view": "annulus"
      },
      "geometry": {
        "type": "Polygon",
        "coordinates": [
          [
            [
              -0.25971684479002377,
              0.8999859764109661
            ],
            [
              -0.13139249392377494,
              0.9565136697674045
            ],
            [
              -0.11578408541069192,
              0.9932744059753124
            ],
            [
              -0.23785811576887897,
              0.9712999108220275
            ],
            [
              -0.25971684479002377,
              0.8999859764109661
            ]
          ]
        ]
      }
    }
  ]
}