{
  "type": "FeatureCollection",
  "features": [
    {
      "type": "Feature",
      "properties": {
        "cell_id": "CEG2000_f4_r0005_c0091",
        "method": "Direct Polar",
        "view": "disk"
      },
      "geometry": {
        "type": "Polygon",
        "coordinates": [
          [
            [
              -0.7873903889884066,
              -0.5593223899023447
            ],
            [
              -0.7336011159418414,
              -0.5812934966564238
            ],
            [
              -0.7161936470893928,
              -0.47776257942821515
            ],
            [
              -0.8064137401899951,
              -0.4822544010849849
            ],
            [
              -0.7873903889884066,
              -0.5593223899023447
            ]
          ]
        ]
      }
    },
    {
      "type": "Feature",
      "properties": {
        "cell_id": "CEG2000_f4_r0006_c0090",
        "method": "Direct Polar",
        "view": "disk"
      },
      "geometry": {
        "type": "Polygon",
        "coordinates": [
          [
            [
              -0.879198832481112,
              -0.4764550482090095
            ],
            [
              -0.8064137401899951,
              -0.4822544010849849
            ],
            [
              -0.8152795688732667,
              -0.3959792950857669
            ],
            [
              -0.9152706532392869,
              -0.402839460975373
            ],
            [
              -0.879198832481112,
              -0.4764550482090095
            ]
          ]
        ]
      }
    },
    {
      "type": "Feature",
      "properties": {
        "cell_id": "CEG2000_f4_r0006_c0091",
        "method": "Direct Polar",
        "view": "disk"
      },
      "geometry": {
        "type": "Polygon",
        "coordinates": [
          [
            [
              -0.8064137401899951,
              -0.4822544010849849
            ],
            [
              -0.7161936470893928,
              -0.47776257942821515
            ],
            [
              -0.7273141968321931,
              -0.394050034457516
            ],
            [
              -0.8152795688732667,
              -0.3959792950857669
            ],
            [
              -0.8064137401899951,
              -0.4822544010849849
            ]
          ]
        ]
      }
    },
    {
      "type": "Feature",
      "properties": {
        "cell_id": "CEG2000_f4_r0007_c0090",
        "method": "Direct Polar",
        "view": "disk"
      },
      "geometry": {
        "type": "Polygon",
        "coordinates": [
          [
            [
              -0.9152706532392866,
              -0.4028394609753738
            ],
            [
              -0.8152795688732661,
              -0.3959792950857675
            ],
            [
              -0.8853633950522285,
              -0.33056952321707217
            ],
            [
              -0.9472499273829093,
              -0.320495826919904
            ],
            [
              -0.9152706532392866,
              -0.4028394609753738
            ]
          ]
        ]
      }
    },
    {
      "type": "Feature",
      "properties": {
        "cell_id": "CEG2000_f4_r0007_c0091",
        "method": "Direct Polar",
        "view": "disk"
      },
      "geometry": {
        "type": "Polygon",
        "coordinates": [
          [
            [
              -0.8152795688732661,
              -0.3959792950857675
            ],
            [
              -0.7273141968321948,
              -0.3940500344575178
            ],
            [
              -0.7708504509698761,
              -0.32105154601153507
            ],
            [
              -0.8853633950522285,
              -0.33056952321707217
            ],
            [
              -0.8152795688732661,
              -0.3959792950857675
            ]
          ]
        ]
      }
    },
    {
      "type": "Feature",
      "properties": {
        "cell_id": "CEG2000_f4_r0007_c0092",
        "method": "Direct Polar",
        "view": "disk"
      },
      "geometry": {
        "type": "Polygon",
        "coordinates": [
          [
            [
              -0.7273155205165844,
              -0.39405006902616485
            ],
            [
              -0.6382927155142983,
              -0.3909685733953038
            ],
            [
              -0.6540769931182709,
              -0.30798258838491344
            ],
            [
              -0.7708522003042538,
              -0.3210517184546995
            ],
            [
              -0.7273155205165844,
              -0.39405006902616485
            ]
          ]
        ]
      }
    },
    {
      "type": "Feature",
      "properties": {
        "cell_id": "CEG2000_f4_r0008_c0090",
        "method": "Direct Polar",
        "view": "disk"
      },
      "geometry": {
        "type": "Polygon",
        "coordinates": [
          [
            [
              -0.9472499273829093,
              -0.320495826919904
            ],
            [
              -0.8853633950522285,
              -0.33056952321707217
            ],
            [
              -0.9675756600765142,
              -0.25258135724454783
            ],
            [
              -0.9731428171444821,
              -0.23020220989404316
            ],
            [
              -0.9472499273829093,
              -0.320495826919904
            ]
          ]
        ]
      }
    },
    {
      "type": "Feature",
      "properties": {
        "cell_id": "CEG2000_f4_r0008_c0091",
        "method": "Direct Polar",
        "view": "disk"
      },
      "geometry": {
        "type": "Polygon",
        "coordinates": [
          [
            [
              -0.8853633950522285,
              -0.33056952321707217
            ],
            [
              -0.7708504509698761,
              -0.32105154601153507
            ],
            [
              -0.8423713958891967,
              -0.24529198325021173
            ],
            [
              -0.9675756600765142,
              -0.25258135724454783
            ],
            [
              -0.8853633950522285,
              -0.33056952321707217
            ]
          ]
        ]
      }
    },
    {
      "type": "Feature",
      "properties": {
        "cell_id": "CEG2000_f4_r0008_c0092",
        "method": "Direct Polar",
        "view": "disk"
      },
      "geometry": {
        "type": "Polygon",
        "coordinates": [
          [
            [
              -0.7708522003042538,
              -0.3210517184546995
            ],
            [
              -0.6540769931182709,
              -0.30798258838491344
            ],
            [
              -0.7118044626025806,
              -0.23433281323599287
            ],
            [
              -0.8423731952891829,
              -0.24529208231779048
            ],
            [
              -0.7708522003042538,
              -0.3210517184546995
            ]
          ]
        ]
      }
    },
    {
      "type": "Feature",
      "properties": {
        "cell_id": "CEG2000_f4_r0008_c0093",
        "method": "Direct Polar",
        "view": "disk"
      },
      "geometry": {
        "type": "Polygon",
        "coordinates": [
          [
            [
              -0.6540752396625443,
              -0.30798236589248434
            ],
            [
              -0.5593440471154084,
              -0.3029252310049761
            ],
            [
              -0.6093292154223287,
              -0.23071909399427704
            ],
            [
              -0.7118029323037854,
              -0.23433276836244452
            ],
            [
              -0.6540752396625443,
              -0.30798236589248434
            ]
          ]
        ]
      }
    },
    {
      "type": "Feature",
      "properties": {
        "cell_id": "CEG2000_f4_r0008_c0094",
        "method": "Direct Polar",
        "view": "disk"
      },
      "geometry": {
        "type": "Polygon",
        "coordinates": [
          [
            [
              -0.5593427235070799,
              -0.30292519650488775
            ],
            [
              -0.4700777004223684,
              -0.2995659145246318
            ],
            [
              -0.49285604651980874,
              -0.21959272323856832
            ],
            [
              -0.609327670825084,
              -0.23071902882855003
            ],
            [
              -0.5593427235070799,
              -0.30292519650488775
            ]
          ]
        ]
      }
    },
    {
      "type": "Feature",
      "properties": {
        "cell_id": "CEG2000_f4_r0008_c0095",
        "method": "Direct Polar",
        "view": "disk"
      },
      "geometry": {
        "type": "Polygon",
        "coordinates": [
          [
            [
              -0.47007905564785907,
              -0.29956598417311175
            ],
            [
              -0.3890415920104401,
              -0.3011341965187523
            ],
            [
              -0.3913699018767752,
              -0.21180030180921888
            ],
            [
              -0.4928577985324954,
              -0.21959292182299053
            ],
            [
              -0.47007905564785907,
              -0.29956598417311175
            ]
          ]
        ]
      }
    },
    {
      "type": "Feature",
      "properties": {
        "cell_id": "CEG2000_f4_r0009_c0092",
        "method": "Direct Polar",
        "view": "disk"
      },
      "geometry": {
        "type": "Polygon",
        "coordinates": [
          [
            [
              -0.8423731952891824,
              -0.2452920823177912
            ],
            [
              -0.7118044626025806,
              -0.23433281323599356
            ],
            [
              -0.9646635411237974,
              -0.18092564362610616
            ],
            [
              -0.9865172424030937,
              -0.16365735682026517
            ],
            [
              -0.8423731952891824,
              -0.2452920823177912
            ]
          ]
        ]
      }
    },
    {
      "type": "Feature",
      "properties": {
        "cell_id": "CEG2000_f4_r0009_c0093",
        "method": "Direct Polar",
        "view": "disk"
      },
      "geometry": {
        "type": "Polygon",
        "coordinates": [
          [
            [
              -0.711802932303785,
              -0.2343327683624454
            ],
            [
              -0.6093292154223285,
              -0.23071909399427787
            ],
            [
              -0.7312052321796044,
              -0.15773304511897207
            ],
            [
              -0.9646615877381948,
              -0.18092563158586375
            ],
            [
              -0.711802932303785,
              -0.2343327683624454
            ]
          ]
        ]
      }
    },
    {
      "type": "Feature",
      "properties": {
        "cell_id": "CEG2000_f4_r0009_c0094",
        "method": "Direct Polar",
        "view": "disk"
      },
      "geometry": {
        "type": "Polygon",
        "coordinates": [
          [
            [
              -0.6093276708250834,
              -0.2307190288285507
            ],
            [
              -0.4928560465198086,
              -0.21959272323856902
            ],
            [
              -0.6161559786465968,
              -0.15640130909196925
            ],
            [
              -0.7312035119288965,
              -0.15773302932117794
            ],
            [
              -0.6093276708250834,
              -0.2307190288285507
            ]
          ]
        ]
      }
    },
    {
      "type": "Feature",
      "properties": {
        "cell_id": "CEG2000_f4_r0009_c0095",
        "method": "Direct Polar",
        "view": "disk"
      },
      "geometry": {
        "type": "Polygon",
        "coordinates": [
          [
            [
              -0.4928577985324952,
              -0.2195929218229912
            ],
            [
              -0.3913699018767761,
              -0.21180030180922008
            ],
            [
              -0.44701673020204236,
              -0.1378208074920563
            ],
            [
              -0.6161577106123001,
              -0.15640133418455796
            ],
            [
              -0.4928577985324952,
              -0.2195929218229912
            ]
          ]
        ]
      }
    },
    {
      "type": "Feature",
      "properties": {
        "cell_id": "CEG2000_f4_r0009_c0096",
        "method": "Direct Polar",
        "view": "disk"
      },
      "geometry": {
        "type": "Polygon",
        "coordinates": [
          [
            [
              -0.3913699018767761,
              -0.21180030180922008
            ],
            [
              -0.3012903373047715,
              -0.20760969929785728
            ],
            [
              -0.3315335843850336,
              -0.13014929688231802
            ],
            [
              -0.44701673020204236,
              -0.1378208074920563
            ],
            [
              -0.3913699018767761,
              -0.21180030180922008
            ]
          ]
        ]
      }
    },
    {
      "type": "Feature",
      "properties": {
        "cell_id": "CEG2000_f4_r0009_c0097",
        "method": "Direct Polar",
        "view": "disk"
      },
      "geometry": {
        "type": "Polygon",
        "coordinates": [
          [
            [
              -0.3012919699415123,
              -0.20760997328025105
            ],
            [
              -0.5025921492741106,
              -0.4765462051051736
            ],
            [
              -0.223396999946768,
              -0.12067533496798062
            ],
            [
              -0.33153533075993974,
              -0.130149448955283
            ],
            [
              -0.3012919699415123,
              -0.20760997328025105
            ]
          ]
        ]
      }
    },
    {
      "type": "Feature",
      "properties": {
        "cell_id": "CEG2000_f4_r0009_c0098",
        "method": "Direct Polar",
        "view": "disk"
      },
      "geometry": {
        "type": "Polygon",
        "coordinates": [
          [
            [
              -0.5025897755099563,
              -0.4765466423117784
            ],
            [
              -0.5295622498606206,
              -0.8047117961390418
            ],
            [
              -0.155749713465745,
              -0.13483494637346205
            ],
            [
              -0.2233956768310205,
              -0.12067530091025512
            ],
            [
              -0.5025897755099563,
              -0.4765466423117784
            ]
          ]
        ]
      }
    },
    {
      "type": "Feature",
      "properties": {
        "cell_id": "CEG2000_f4_r0009_c0099",
        "method": "Direct Polar",
        "view": "disk"
      },
      "geometry": {
        "type": "Polygon",
        "coordinates": [
          [
            [
              -0.5295608231960893,
              -0.8047169025506826
            ],
            [
              -0.2529804769122368,
              -0.9674713837118167
            ],
            [
              -0.25662345308341883,
              -0.559112661186285
            ],
            [
              -0.15574911031378488,
              -0.13483564307949328
            ],
            [
              -0.5295608231960893,
              -0.8047169025506826
            ]
          ]
        ]
      }
    },
    {
      "type": "Feature",
      "properties": {
        "cell_id": "CEG2000_f4_r0010_c0093",
        "method": "Direct Polar",
        "view": "disk"
      },
      "geometry": {
        "type": "Polygon",
        "coordinates": [
          [
            [
              -0.9646615877381948,
              -0.18092563158586375
            ],
            [
              -0.7312052321796044,
              -0.15773304511897207
            ],
            [
              -0.941575616521652,
              -0.04970449042383939
            ],
            [
              -0.9989484042932959,
              -0.045848506626473426
            ],
            [
              -0.9646615877381948,
              -0.18092563158586375
            ]
          ]
        ]
      }
    },
    {
      "type": "Feature",
      "properties": {
        "cell_id": "CEG2000_f4_r0010_c0094",
        "method": "Direct Polar",
        "view": "disk"
      },
      "geometry": {
        "type": "Polygon",
        "coordinates": [
          [
            [
              -0.7312035119288965,
              -0.15773302932117794
            ],
            [
              -0.6161559786465968,
              -0.15640130909196925
            ],
            [
              -0.7845246128135219,
              -0.04873189673847075
            ],
            [
              -0.941573261185442,
              -0.049704478046634866
            ],
            [
              -0.7312035119288965,
              -0.15773302932117794
            ]
          ]
        ]
      }
    },
    {
      "type": "Feature",
      "properties": {
        "cell_id": "CEG2000_f4_r0010_c0095",
        "method": "Direct Polar",
        "view": "disk"
      },
      "geometry": {
        "type": "Polygon",
        "coordinates": [
          [
            [
              -0.6161577106123001,
              -0.15640133418455796
            ],
            [
              -0.44701673020204236,
              -0.1378208074920563
            ],
            [
              -0.6274059059797737,
              -0.047336554134599175
            ],
            [
              -0.7845269689937698,
              -0.04873191393294061
            ],
            [
              -0.6161577106123001,
              -0.15640133418455796
            ]
          ]
        ]
      }
    },
    {
      "type": "Feature",
      "properties": {
        "cell_id": "CEG2000_f4_r0010_c0096",
        "method": "Direct Polar",
        "view": "disk"
      },
      "geometry": {
        "type": "Polygon",
        "coordinates": [
          [
            [
              -0.44701673020204236,
              -0.1378208074920563
            ],
            [
              -0.3315335843850336,
              -0.13014929688231802
            ],
            [
              -0.4701745816686314,
              -0.045167959262185885
            ],
            [
              -0.6274059059797737,
              -0.047336554134599175
            ],
            [
              -0.44701673020204236,
              -0.1378208074920563
            ]
          ]
        ]
      }
    },
    {
      "type": "Feature",
      "properties": {
        "cell_id": "CEG2000_f4_r0010_c0097",
        "method": "Direct Polar",
        "view": "disk"
      },
      "geometry": {
        "type": "Polygon",
        "coordinates": [
          [
            [
              -0.33153533075993974,
              -0.130149448955283
            ],
            [
              -0.223396999946768,
              -0.12067533496798062
            ],
            [
              -0.3378348026625459,
              -0.044658341323550906
            ],
            [
              -0.4701769412245425,
              -0.04516800078749273
            ],
            [
              -0.33153533075993974,
              -0.130149448955283
            ]
          ]
        ]
      }
    },
    {
      "type": "Feature",
      "properties": {
        "cell_id": "CEG2000_f4_r0010_c0098",
        "method": "Direct Polar",
        "view": "disk"
      },
      "geometry": {
        "type": "Polygon",
        "coordinates": [
          [
            [
              -0.2233956768310205,
              -0.12067530091025512
            ],
            [
              -0.155749713465745,
              -0.13483494637346205
            ],
            [
              -0.18234363610092283,
              -0.038629834390172424
            ],
            [
              -0.33783286438391563,
              -0.04465833699745915
            ],
            [
              -0.2233956768310205,
              -0.12067530091025512
            ]
          ]
        ]
      }
    },
    {
      "type": "Feature",
      "properties": {
        "cell_id": "CEG2000_f4_r0010_c0099",
        "method": "Direct Polar",
        "view": "disk"
      },
      "geometry": {
        "type": "Polygon",
        "coordinates": [
          [
            [
              -0.15574911031378488,
              -0.13483564307949328
            ],
            [
              -0.25662345308341883,
              -0.559112661186285
            ],
            [
              -0.055423280118694386,
              -0.029549642616066005
            ],
            [
              -0.1823419169811173,
              -0.03862981939067886
            ],
            [
              -0.15574911031378488,
              -0.13483564307949328
            ]
          ]
        ]
      }
    },
    {
      "type": "Feature",
      "properties": {
        "cell_id": "CEG2000_f4_r0010_c0101",
        "method": "Direct Polar",
        "view": "disk"
      },
      "geometry": {
        "type": "Polygon",
        "coordinates": [
          [
            [
              0.1361209163258492,
              -0.5740191979463025
            ],
            [
              0.6822923037912353,
              -0.7310794841788741
            ],
            [
              0.49674513563107536,
              -0.13025211150339408
            ],
            [
              0.2949854364226846,
              -0.30441016733366577
            ],
            [
              0.1361209163258492,
              -0.5740191979463025
            ]
          ]
        ]
      }
    },
    {
      "type": "Feature",
      "properties": {
        "cell_id": "CEG2000_f4_r0011_c0094",
        "method": "Direct Polar",
        "view": "disk"
      },
      "geometry": {
        "type": "Polygon",
        "coordinates": [
          [
            [
              -0.941573261185442,
              -0.049704478046634866
            ],
            [
              -0.7845246128135219,
              -0.04873189673847075
            ],
            [
              -0.921153987086772,
              0.11938249856349954
            ],
            [
              -0.9939892764694579,
              0.10947747834017507
            ],
            [
              -0.941573261185442,
              -0.049704478046634866
            ]
          ]
        ]
      }
    },
    {
      "type": "Feature",
      "properties": {
        "cell_id": "CEG2000_f4_r0011_c0095",
        "method": "Direct Polar",
        "view": "disk"
      },
      "geometry": {
        "type": "Polygon",
        "coordinates": [
          [
            [
              -0.7845269689937698,
              -0.04873191393294061
            ],
            [
              -0.6274059059797737,
              -0.047336554134599175
            ],
            [
              -0.7514591816101761,
              0.11829193028449068
            ],
            [
              -0.9211565286753027,
              0.11938251153462509
            ],
            [
              -0.7845269689937698,
              -0.04873191393294061
            ]
          ]
        ]
      }
    },
    {
      "type": "Feature",
      "properties": {
        "cell_id": "CEG2000_f4_r0011_c0096",
        "method": "Direct Polar",
        "view": "disk"
      },
      "geometry": {
        "type": "Polygon",
        "coordinates": [
          [
            [
              -0.6274059059797737,
              -0.047336554134599175
            ],
            [
              -0.4701745816686314,
              -0.045167959262185885
            ],
            [
              -0.5810093101402246,
              0.11645445295641142
            ],
            [
              -0.7514591816101761,
              0.11829193028449068
            ],
            [
              -0.6274059059797737,
              -0.047336554134599175
            ]
          ]
        ]
      }
    },
    {
      "type": "Feature",
      "properties": {
        "cell_id": "CEG2000_f4_r0011_c0097",
        "method": "Direct Polar",
        "view": "disk"
      },
      "geometry": {
        "type": "Polygon",
        "coordinates": [
          [
            [
              -0.4701769412245425,
              -0.04516800078749273
            ],
            [
              -0.3378348026625459,
              -0.044658341323550906
            ],
            [
              -0.4091463881523298,
              0.11284403551379965
            ],
            [
              -0.5810118751143292,
              0.11645448970650087
            ],
            [
              -0.4701769412245425,
              -0.04516800078749273
            ]
          ]
        ]
      }
    },
    {
      "type": "Feature",
      "properties": {
        "cell_id": "CEG2000_f4_r0011_c0098",
        "method": "Direct Polar",
        "view": "disk"
      },
      "geometry": {
        "type": "Polygon",
        "coordinates": [
          [
            [
              -0.33783286438391563,
              -0.04465833699745915
            ],
            [
              -0.18234363610092283,
              -0.038629834390172424
            ],
            [
              -0.270700775690966,
              0.11965295303700606
            ],
            [
              -0.40914379361829534,
              0.1128439564267982
            ],
            [
              -0.33783286438391563,
              -0.04465833699745915
            ]
          ]
        ]
      }
    },
    {
      "type": "Feature",
      "properties": {
        "cell_id": "CEG2000_f4_r0011_c0099",
        "method": "Direct Polar",
        "view": "disk"
      },
      "geometry": {
        "type": "Polygon",
        "coordinates": [
          [
            [
              -0.1823419169811173,
              -0.03862981939067886
            ],
            [
              -0.055423280118694386,
              -0.029549642616066005
            ],
            [
              -0.09559593042954208,
              0.10634108764364236
            ],
            [
              -0.2706979287073782,
              0.11965277625308306
            ],
            [
              -0.1823419169811173,
              -0.03862981939067886
            ]
          ]
        ]
      }
    },
    {
      "type": "Feature",
      "properties": {
        "cell_id": "CEG2000_f4_r0011_c0100",
        "method": "Direct Polar",
        "view": "disk"
      },
      "geometry": {
        "type": "Polygon",
        "coordinates": [
          [
            [
              -0.055424600728361924,
              -0.029549674465946738
            ],
            [
              0.2949854364226846,
              -0.30441016733366577
            ],
            [
              0.06394288304659798,
              0.1376741735651892
            ],
            [
              -0.0955978464090924,
              0.10634079974671226
            ],
            [
              -0.055424600728361924,
              -0.029549674465946738
            ]
          ]
        ]
      }
    },
    {
      "type": "Feature",
      "properties": {
        "cell_id": "CEG2000_f4_r0011_c0101",
        "method": "Direct Polar",
        "view": "disk"
      },
      "geometry": {
        "type": "Polygon",
        "coordinates": [
          [
            [
              0.2949854364226846,
              -0.30441016733366577
            ],
            [
              0.49674513563107536,
              -0.13025211150339408
            ],
            [
              0.15581685571010848,
              0.08524467736615697
            ],
            [
              0.06394288304659798,
              0.1376741735651892
            ],
            [
              0.2949854364226846,
              -0.30441016733366577
            ]
          ]
        ]
      }
    },
    {
      "type": "Feature",
      "properties": {
        "cell_id": "CEG2000_f4_r0011_c0102",
        "method": "Direct Polar",
        "view": "disk"
      },
      "geometry": {
        "type": "Polygon",
        "coordinates": [
          [
            [
              0.4967406465693951,
              -0.13025239174223124
            ],
            [
              0.7894258784957098,
              -0.1185623911578343
            ],
            [
              0.2795833359346872,
              0.08760896682094563
            ],
            [
              0.1558150867427003,
              0.08524466334967283
            ],
            [
              0.4967406465693951,
              -0.13025239174223124
            ]
          ]
        ]
      }
    },
    {
      "type": "Feature",
      "properties": {
        "cell_id": "CEG2000_f4_r0011_c0103",
        "method": "Direct Polar",
        "view": "disk"
      },
      "geometry": {
        "type": "Polygon",
        "coordinates": [
          [
            [
              0.7894302139063976,
              -0.11856228248297321
            ],
            [
              0.7671353110961112,
              -0.08072634229974879
            ],
            [
              0.39260252426362924,
              0.08619817574555694
            ],
            [
              0.2795850617518717,
              0.08760894617646456
            ],
            [
              0.7894302139063976,
              -0.11856228248297321
            ]
          ]
        ]
      }
    },
    {
      "type": "Feature",
      "properties": {
        "cell_id": "CEG2000_f4_r0011_c0104",
        "method": "Direct Polar",
        "view": "disk"
      },
      "geometry": {
        "type": "Polygon",
        "coordinates": [
          [
            [
              0.7671385842618186,
              -0.08072632426398403
            ],
            [
              0.9850361708823702,
              -0.07977556302279178
            ],
            [
              0.5026791522092681,
              0.08493960937351594
            ],
            [
              0.39260418543952835,
              0.08619815342309285
            ],
            [
              0.7671385842618186,
              -0.08072632426398403
            ]
          ]
        ]
      }
    },
    {
      "type": "Feature",
      "properties": {
        "cell_id": "CEG2000_f4_r0011_c0105",
        "method": "Direct Polar",
        "view": "disk"
      },
      "geometry": {
        "type": "Polygon",
        "coordinates": [
          [
            [
              0.9850329060134744,
              -0.07977557428984515
            ],
            [
              0.9978406729190559,
              -0.06568098254781099
            ],
            [
              0.6119108209364613,
              0.08403655831338833
            ],
            [
              0.502677508857263,
              0.08493962521592845
            ],
            [
              0.9850329060134744,
              -0.07977557428984515
            ]
          ]
        ]
      }
    },
    {
      "type": "Feature",
      "properties": {
        "cell_id": "CEG2000_f4_r0011_c0106",
        "method": "Direct Polar",
        "view": "disk"
      },
      "geometry": {
        "type": "Polygon",
        "coordinates": [
          [
            [
              0.9978406729190559,
              -0.06568098254781099
            ],
            [
              0.9984666340093405,
              -0.055356849350894716
            ],
            [
              0.9070346077339776,
              0.10492122467524377
            ],
            [
              0.6119108209364613,
              0.08403655831338833
            ],
            [
              0.9978406729190559,
              -0.06568098254781099
            ]
          ]
        ]
      }
    },
    {
      "type": "Feature",
      "properties": {
        "cell_id": "CEG2000_f4_r0012_c0094",
        "method": "Direct Polar",
        "view": "disk"
      },
      "geometry": {
        "type": "Polygon",
        "coordinates": [
          [
            [
              -0.9939891883531835,
              0.10947827837968321
            ],
            [
              -0.9211537077877383,
              0.11938334537243721
            ],
            [
              -0.8930490283541342,
              0.28695318429960986
            ],
            [
              -0.9646803976856344,
              0.2634231013428517
            ],
            [
              -0.9939891883531835,
              0.10947827837968321
            ]
          ]
        ]
      }
    },
    {
      "type": "Feature",
      "properties": {
        "cell_id": "CEG2000_f4_r0012_c0095",
        "method": "Direct Polar",
        "view": "disk"
      },
      "geometry": {
        "type": "Polygon",
        "coordinates": [
          [
            [
              -0.9211562493765418,
              0.11938335834378992
            ],
            [
              -0.7514588811105735,
              0.11829275792091479
            ],
            [
              -0.7599132613839893,
              0.29657945675340663
            ],
            [
              -0.8930509961491079,
              0.2869530560242934
            ],
            [
              -0.9211562493765418,
              0.11938335834378992
            ]
          ]
        ]
      }
    },
    {
      "type": "Feature",
      "properties": {
        "cell_id": "CEG2000_f4_r0012_c0096",
        "method": "Direct Polar",
        "view": "disk"
      },
      "geometry": {
        "type": "Polygon",
        "coordinates": [
          [
            [
              -0.7514588811105735,
              0.11829275792091479
            ],
            [
              -0.5810089792972998,
              0.11645524799300708
            ],
            [
              -0.6071581900698936,
              0.3017186695813088
            ],
            [
              -0.7599132613839893,
              0.29657945675340663
            ],
            [
              -0.7514588811105735,
              0.11829275792091479
            ]
          ]
        ]
      }
    },
    {
      "type": "Feature",
      "properties": {
        "cell_id": "CEG2000_f4_r0012_c0097",
        "method": "Direct Polar",
        "view": "disk"
      },
      "geometry": {
        "type": "Polygon",
        "coordinates": [
          [
            [
              -0.5810115442719547,
              0.11645528474375057
            ],
            [
              -0.40914601213340385,
              0.11284476645090202
            ],
            [
              -0.44371269990543644,
              0.30340942319981545
            ],
            [
              -0.6071586829515228,
              0.301717677737707
            ],
            [
              -0.5810115442719547,
              0.11645528474375057
            ]
          ]
        ]
      }
    },
    {
      "type": "Feature",
      "properties": {
        "cell_id": "CEG2000_f4_r0012_c0098",
        "method": "Direct Polar",
        "view": "disk"
      },
      "geometry": {
        "type": "Polygon",
        "coordinates": [
          [
            [
              -0.40914341759854855,
              0.11284468736250418
            ],
            [
              -0.2707004484425989,
              0.11965369339532553
            ],
            [
              -0.24014872173358684,
              0.2631731137618304
            ],
            [
              -0.44370939975877544,
              0.3034088779428755
            ],
            [
              -0.40914341759854855,
              0.11284468736250418
            ]
          ]
        ]
      }
    },
    {
      "type": "Feature",
      "properties": {
        "cell_id": "CEG2000_f4_r0012_c0099",
        "method": "Direct Polar",
        "view": "disk"
      },
      "geometry": {
        "type": "Polygon",
        "coordinates": [
          [
            [
              -0.2706976014575033,
              0.11965351660812089
            ],
            [
              -0.09559601457086987,
              0.10634196778980702
            ],
            [
              -0.0901687015401854,
              0.2486822725622722
            ],
            [
              -0.24014681811759775,
              0.26317340662529276
            ],
            [
              -0.2706976014575033,
              0.11965351660812089
            ]
          ]
        ]
      }
    },
    {
      "type": "Feature",
      "properties": {
        "cell_id": "CEG2000_f4_r0012_c0100",
        "method": "Direct Polar",
        "view": "disk"
      },
      "geometry": {
        "type": "Polygon",
        "coordinates": [
          [
            [
              -0.09559793055651379,
              0.10634167989539661
            ],
            [
              0.0639430423303345,
              0.13767553481852987
            ],
            [
              0.048968126005172134,
              0.2613972815624644
            ],
            [
              -0.09017085177051036,
              0.24868254533792966
            ],
            [
              -0.09559793055651379,
              0.10634167989539661
            ]
          ]
        ]
      }
    },
    {
      "type": "Feature",
      "properties": {
        "cell_id": "CEG2000_f4_r0012_c0101",
        "method": "Direct Polar",
        "view": "disk"
      },
      "geometry": {
        "type": "Polygon",
        "coordinates": [
          [
            [
              0.0639430423303345,
              0.13767553481852987
            ],
            [
              0.15581683877352998,
              0.08524529860835069
            ],
            [
              0.20446268849031346,
              0.27732831980984335
            ],
            [
              0.048968126005172134,
              0.2613972815624644
            ],
            [
              0.0639430423303345,
              0.13767553481852987
            ]
          ]
        ]
      }
    },
    {
      "type": "Feature",
      "properties": {
        "cell_id": "CEG2000_f4_r0012_c0102",
        "method": "Direct Polar",
        "view": "disk"
      },
      "geometry": {
        "type": "Polygon",
        "coordinates": [
          [
            [
              0.15581506980392346,
              0.08524528459045651
            ],
            [
              0.2795834119728654,
              0.08760963864341693
            ],
            [
              0.28255503201075055,
              0.2195167380460507
            ],
            [
              0.20446055266431729,
              0.27732852569943844
            ],
            [
              0.15581506980392346,
              0.08524528459045651
            ]
          ]
        ]
      }
    },
    {
      "type": "Feature",
      "properties": {
        "cell_id": "CEG2000_f4_r0012_c0103",
        "method": "Direct Polar",
        "view": "disk"
      },
      "geometry": {
        "type": "Polygon",
        "coordinates": [
          [
            [
              0.2795851377912154,
              0.08760961799899569
            ],
            [
              0.3926026917419433,
              0.08619885007714131
            ],
            [
              0.3882874150490761,
              0.21136137237108973
            ],
            [
              0.2825569390715604,
              0.2195168128743205
            ],
            [
              0.2795851377912154,
              0.08760961799899569
            ]
          ]
        ]
      }
    },
    {
      "type": "Feature",
      "properties": {
        "cell_id": "CEG2000_f4_r0012_c0104",
        "method": "Direct Polar",
        "view": "disk"
      },
      "geometry": {
        "type": "Polygon",
        "coordinates": [
          [
            [
              0.3926043529184844,
              0.08619882775448796
            ],
            [
              0.5026793528814839,
              0.08494027153366289
            ],
            [
              0.5134928550036887,
              0.21512015829021408
            ],
            [
              0.3882891825236305,
              0.21136138543672758
            ],
            [
              0.3926043529184844,
              0.08619882775448796
            ]
          ]
        ]
      }
    },
    {
      "type": "Feature",
      "properties": {
        "cell_id": "CEG2000_f4_r0012_c0105",
        "method": "Direct Polar",
        "view": "disk"
      },
      "geometry": {
        "type": "Polygon",
        "coordinates": [
          [
            [
              0.5026777095290939,
              0.08494028737624469
            ],
            [
              0.6119110424785699,
              0.08403721031119768
            ],
            [
              0.6397467356505606,
              0.21782891153583792
            ],
            [
              0.5134908155915715,
              0.2151200472993104
            ],
            [
              0.5026777095290939,
              0.08494028737624469
            ]
          ]
        ]
      }
    },
    {
      "type": "Feature",
      "properties": {
        "cell_id": "CEG2000_f4_r0012_c0106",
        "method": "Direct Polar",
        "view": "disk"
      },
      "geometry": {
        "type": "Polygon",
        "coordinates": [
          [
            [
              0.6119110424785699,
              0.08403721031119768
            ],
            [
              0.9070337188831303,
              0.10492189790122565
            ],
            [
              0.7547686981022962,
              0.21646151437188996
            ],
            [
              0.6397467356505606,
              0.21782891153583792
            ],
            [
              0.6119110424785699,
              0.08403721031119768
            ]
          ]
        ]
      }
    },
    {
      "type": "Feature",
      "properties": {
        "cell_id": "CEG2000_f4_r0012_c0107",
        "method": "Direct Polar",
        "view": "disk"
      },
      "geometry": {
        "type": "Polygon",
        "coordinates": [
          [
            [
              0.9070312888386657,
              0.10492186501539506
            ],
            [
              0.995045281193991,
              0.09942277592971985
            ],
            [
              0.8683258297197015,
              0.21510468343269448
            ],
            [
              0.7547669852962356,
              0.216461535231943
            ],
            [
              0.9070312888386657,
              0.10492186501539506
            ]
          ]
        ]
      }
    },
    {
      "type": "Feature",
      "properties": {
        "cell_id": "CEG2000_f4_r0013_c0095",
        "method": "Direct Polar",
        "view": "disk"
      },
      "geometry": {
        "type": "Polygon",
        "coordinates": [
          [
            [
              -0.8930509961491079,
              0.2869530560242934
            ],
            [
              -0.7599132613839893,
              0.29657945675340663
            ],
            [
              -0.79493814314133,
              0.49536175423893475
            ],
            [
              -0.889740092446017,
              0.4564674883210775
            ],
            [
              -0.8930509961491079,
              0.2869530560242934
            ]
          ]
        ]
      }
    },
    {
      "type": "Feature",
      "properties": {
        "cell_id": "CEG2000_f4_r0013_c0096",
        "method": "Direct Polar",
        "view": "disk"
      },
      "geometry": {
        "type": "Polygon",
        "coordinates": [
          [
            [
              -0.7599132613839893,
              0.29657945675340663
            ],
            [
              -0.6071581900698936,
              0.3017186695813088
            ],
            [
              -0.592120423860526,
              0.4698102227771141
            ],
            [
              -0.79493814314133,
              0.49536175423893475
            ],
            [
              -0.7599132613839893,
              0.29657945675340663
            ]
          ]
        ]
      }
    },
    {
      "type": "Feature",
      "properties": {
        "cell_id": "CEG2000_f4_r0013_c0097",
        "method": "Direct Polar",
        "view": "disk"
      },
      "geometry": {
        "type": "Polygon",
        "coordinates": [
          [
            [
              -0.6071586829515228,
              0.301717677737707
            ],
            [
              -0.44371269990543644,
              0.30340942319981545
            ],
            [
              -0.38469258366298215,
              0.4200036979736716
            ],
            [
              -0.5921225905826176,
              0.4698100161312313
            ],
            [
              -0.6071586829515228,
              0.301717677737707
            ]
          ]
        ]
      }
    },
    {
      "type": "Feature",
      "properties": {
        "cell_id": "CEG2000_f4_r0013_c0098",
        "method": "Direct Polar",
        "view": "disk"
      },
      "geometry": {
        "type": "Polygon",
        "coordinates": [
          [
            [
              -0.44370939975877544,
              0.3034088779428755
            ],
            [
              -0.24014872173358684,
              0.2631731137618304
            ],
            [
              -0.22813765540595288,
              0.39918141043858796
            ],
            [
              -0.3846906831501677,
              0.42000399203851474
            ],
            [
              -0.44370939975877544,
              0.3034088779428755
            ]
          ]
        ]
      }
    },
    {
      "type": "Feature",
      "properties": {
        "cell_id": "CEG2000_f4_r0013_c0099",
        "method": "Direct Polar",
        "view": "disk"
      },
      "geometry": {
        "type": "Polygon",
        "coordinates": [
          [
            [
              -0.24014681811759775,
              0.26317340662529276
            ],
            [
              -0.0901687015401854,
              0.2486822725622722
            ],
            [
              -0.08778508425648766,
              0.38656438303854695
            ],
            [
              -0.22813627436690062,
              0.39918260244257425
            ],
            [
              -0.24014681811759775,
              0.26317340662529276
            ]
          ]
        ]
      }
    },
    {
      "type": "Feature",
      "properties": {
        "cell_id": "CEG2000_f4_r0013_c0100",
        "method": "Direct Polar",
        "view": "disk"
      },
      "geometry": {
        "type": "Polygon",
        "coordinates": [
          [
            [
              -0.09017085177051036,
              0.24868254533792966
            ],
            [
              0.048968126005172134,
              0.2613972815624644
            ],
            [
              0.050322224779463035,
              0.428903421593859
            ],
            [
              -0.08778720251891767,
              0.38656491658421865
            ],
            [
              -0.09017085177051036,
              0.24868254533792966
            ]
          ]
        ]
      }
    },
    {
      "type": "Feature",
      "properties": {
        "cell_id": "CEG2000_f4_r0013_c0101",
        "method": "Direct Polar",
        "view": "disk"
      },
      "geometry": {
        "type": "Polygon",
        "coordinates": [
          [
            [
              0.048968126005172134,
              0.2613972815624644
            ],
            [
              0.20446268849031346,
              0.27732831980984335
            ],
            [
              0.25214414087398607,
              0.5460609610050102
            ],
            [
              0.050322224779463035,
              0.428903421593859
            ],
            [
              0.048968126005172134,
              0.2613972815624644
            ]
          ]
        ]
      }
    },
    {
      "type": "Feature",
      "properties": {
        "cell_id": "CEG2000_f4_r0013_c0102",
        "method": "Direct Polar",
        "view": "disk"
      },
      "geometry": {
        "type": "Polygon",
        "coordinates": [
          [
            [
              0.20446055266431729,
              0.27732852569943844
            ],
            [
              0.28255503201075055,
              0.2195167380460507
            ],
            [
              0.3544941009819373,
              0.43972960125475036
            ],
            [
              0.2521422620720087,
              0.5460630017324299
            ],
            [
              0.20446055266431729,
              0.27732852569943844
            ]
          ]
        ]
      }
    },
    {
      "type": "Feature",
      "properties": {
        "cell_id": "CEG2000_f4_r0013_c0103",
        "method": "Direct Polar",
        "view": "disk"
      },
      "geometry": {
        "type": "Polygon",
        "coordinates": [
          [
            [
              0.2825569390715604,
              0.2195168128743205
            ],
            [
              0.3882874150490761,
              0.21136137237108973
            ],
            [
              0.40022570816695724,
              0.3478478969723295
            ],
            [
              0.35449616933968814,
              0.439729348944447
            ],
            [
              0.2825569390715604,
              0.2195168128743205
            ]
          ]
        ]
      }
    },
    {
      "type": "Feature",
      "properties": {
        "cell_id": "CEG2000_f4_r0013_c0104",
        "method": "Direct Polar",
        "view": "disk"
      },
      "geometry": {
        "type": "Polygon",
        "coordinates": [
          [
            [
              0.3882891825236305,
              0.21136138543672758
            ],
            [
              0.5134928550036887,
              0.21512015829021408
            ],
            [
              0.5009264507534907,
              0.33506785328968625
            ],
            [
              0.40022765281263445,
              0.34784802522830616
            ],
            [
              0.3882891825236305,
              0.21136138543672758
            ]
          ]
        ]
      }
    },
    {
      "type": "Feature",
      "properties": {
        "cell_id": "CEG2000_f4_r0013_c0105",
        "method": "Direct Polar",
        "view": "disk"
      },
      "geometry": {
        "type": "Polygon",
        "coordinates": [
          [
            [
              0.5134908155915715,
              0.2151200472993104
            ],
            [
              0.6397467356505606,
              0.21782891153583792
            ],
            [
              0.6207628565281963,
              0.33747783982202806
            ],
            [
              0.500924620131827,
              0.33506778668733356
            ],
            [
              0.5134908155915715,
              0.2151200472993104
            ]
          ]
        ]
      }
    },
    {
      "type": "Feature",
      "properties": {
        "cell_id": "CEG2000_f4_r0013_c0106",
        "method": "Direct Polar",
        "view": "disk"
      },
      "geometry": {
        "type": "Polygon",
        "coordinates": [
          [
            [
              0.6397467356505606,
              0.21782891153583792
            ],
            [
              0.7547686981022962,
              0.21646151437188996
            ],
            [
              0.7394205385761088,
              0.3385871066016979
            ],
            [
              0.6207628565281963,
              0.33747783982202806
            ],
            [
              0.6397467356505606,
              0.21782891153583792
            ]
          ]
        ]
      }
    },
    {
      "type": "Feature",
      "properties": {
        "cell_id": "CEG2000_f4_r0013_c0107",
        "method": "Direct Polar",
        "view": "disk"
      },
      "geometry": {
        "type": "Polygon",
        "coordinates": [
          [
            [
              0.7547669852962356,
              0.216461535231943
            ],
            [
              0.8683258297197015,
              0.21510468343269448
            ],
            [
              0.8755162686298394,
              0.3462927996963479
            ],
            [
              0.7394184861391104,
              0.33858696776157415
            ],
            [
              0.7547669852962356,
              0.216461535231943
            ]
          ]
        ]
      }
    },
    {
      "type": "Feature",
      "properties": {
        "cell_id": "CEG2000_f4_r0013_c0108",
        "method": "Direct Polar",
        "view": "disk"
      },
      "geometry": {
        "type": "Polygon",
        "coordinates": [
          [
            [
              0.8683275248567255,
              0.21510466380992915
            ],
            [
              0.9770480401640275,
              0.2130190771072696
            ],
            [
              0.9444139974446001,
              0.3287585762086077
            ],
            [
              0.875518299694179,
              0.3462928954229643
            ],
            [
              0.8683275248567255,
              0.21510466380992915
            ]
          ]
        ]
      }
    },
    {
      "type": "Feature",
      "properties": {
        "cell_id": "CEG2000_f4_r0014_c0095",
        "method": "Direct Polar",
        "view": "disk"
      },
      "geometry": {
        "type": "Polygon",
        "coordinates": [
          [
            [
              -0.8897400924460179,
              0.45646748832107586
            ],
            [
              -0.7949381431413309,
              0.4953617542389333
            ],
            [
              -0.7595981275318806,
              0.6502231320959001
            ],
            [
              -0.8174030802554129,
              0.5760661458452173
            ],
            [
              -0.8897400924460179,
              0.45646748832107586
            ]
          ]
        ]
      }
    },
    {
      "type": "Feature",
      "properties": {
        "cell_id": "CEG2000_f4_r0014_c0096",
        "method": "Direct Polar",
        "view": "disk"
      },
      "geometry": {
        "type": "Polygon",
        "coordinates": [
          [
            [
              -0.7949381431413309,
              0.4953617542389333
            ],
            [
              -0.5921204238605264,
              0.46981022277711326
            ],
            [
              -0.5292355115917259,
              0.5768339223144797
            ],
            [
              -0.7595981275318806,
              0.6502231320959001
            ],
            [
              -0.7949381431413309,
              0.4953617542389333
            ]
          ]
        ]
      }
    },
    {
      "type": "Feature",
      "properties": {
        "cell_id": "CEG2000_f4_r0014_c0097",
        "method": "Direct Polar",
        "view": "disk"
      },
      "geometry": {
        "type": "Polygon",
        "coordinates": [
          [
            [
              -0.5921225905826151,
              0.4698100161312275
            ],
            [
              -0.38469258366298126,
              0.42000369797366915
            ],
            [
              -0.3580303297053464,
              0.5369681326690955
            ],
            [
              -0.529237410688412,
              0.5768336277073441
            ],
            [
              -0.5921225905826151,
              0.4698100161312275
            ]
          ]
        ]
      }
    },
    {
      "type": "Feature",
      "properties": {
        "cell_id": "CEG2000_f4_r0014_c0098",
        "method": "Direct Polar",
        "view": "disk"
      },
      "geometry": {
        "type": "Polygon",
        "coordinates": [
          [
            [
              -0.3846906831501682,
              0.4200039920385137
            ],
            [
              -0.2281376554059526,
              0.39918141043858624
            ],
            [
              -0.26856478783514703,
              0.6455231157839169
            ],
            [
              -0.3580274839675567,
              0.5369668934315411
            ],
            [
              -0.3846906831501682,
              0.4200039920385137
            ]
          ]
        ]
      }
    },
    {
      "type": "Feature",
      "properties": {
        "cell_id": "CEG2000_f4_r0014_c0099",
        "method": "Direct Polar",
        "view": "disk"
      },
      "geometry": {
        "type": "Polygon",
        "coordinates": [
          [
            [
              -0.22813627436689995,
              0.3991826024425714
            ],
            [
              -0.08778508425648786,
              0.38656438303854623
            ],
            [
              -0.09202653266198958,
              0.5566773604716397
            ],
            [
              -0.2685624722584286,
              0.6455233853481487
            ],
            [
              -0.22813627436689995,
              0.3991826024425714
            ]
          ]
        ]
      }
    },
    {
      "type": "Feature",
      "properties": {
        "cell_id": "CEG2000_f4_r0014_c0100",
        "method": "Direct Polar",
        "view": "disk"
      },
      "geometry": {
        "type": "Polygon",
        "coordinates": [
          [
            [
              -0.08778720251891778,
              0.3865649165842179
            ],
            [
              0.050322224779462965,
              0.42890342159385764
            ],
            [
              0.050868580500707875,
              0.5955780587771582
            ],
            [
              -0.09202836434721734,
              0.5566757762276887
            ],
            [
              -0.08778720251891778,
              0.3865649165842179
            ]
          ]
        ]
      }
    },
    {
      "type": "Feature",
      "properties": {
        "cell_id": "CEG2000_f4_r0014_c0101",
        "method": "Direct Polar",
        "view": "disk"
      },
      "geometry": {
        "type": "Polygon",
        "coordinates": [
          [
            [
              0.050322224779462965,
              0.42890342159385764
            ],
            [
              0.2521441408739855,
              0.5460609610050073
            ],
            [
              0.1906168984678286,
              0.5670783156140878
            ],
            [
              0.050868580500707875,
              0.5955780587771582
            ],
            [
              0.050322224779462965,
              0.42890342159385764
            ]
          ]
        ]
      }
    },
    {
      "type": "Feature",
      "properties": {
        "cell_id": "CEG2000_f4_r0014_c0102",
        "method": "Direct Polar",
        "view": "disk"
      },
      "geometry": {
        "type": "Polygon",
        "coordinates": [
          [
            [
              0.2521422620720086,
              0.5460630017324283
            ],
            [
              0.35449410098193773,
              0.43972960125474925
            ],
            [
              0.40025117416036654,
              0.6820224925811603
            ],
            [
              0.19061452434286302,
              0.5670775973916711
            ],
            [
              0.2521422620720086,
              0.5460630017324283
            ]
          ]
        ]
      }
    },
    {
      "type": "Feature",
      "properties": {
        "cell_id": "CEG2000_f4_r0014_c0103",
        "method": "Direct Polar",
        "view": "disk"
      },
      "geometry": {
        "type": "Polygon",
        "coordinates": [
          [
            [
              0.35449616933968814,
              0.43972934894444554
            ],
            [
              0.4002257081669562,
              0.34784789697232743
            ],
            [
              0.5041154014240843,
              0.6018714735006445
            ],
            [
              0.4002525429569177,
              0.6820204542884808
            ],
            [
              0.35449616933968814,
              0.43972934894444554
            ]
          ]
        ]
      }
    },
    {
      "type": "Feature",
      "properties": {
        "cell_id": "CEG2000_f4_r0014_c0104",
        "method": "Direct Polar",
        "view": "disk"
      },
      "geometry": {
        "type": "Polygon",
        "coordinates": [
          [
            [
              0.4002276528126334,
              0.3478480252283041
            ],
            [
              0.5009264507534911,
              0.3350678532896853
            ],
            [
              0.5459395751881765,
              0.5016407051872734
            ],
            [
              0.5041174391333759,
              0.6018712038576877
            ],
            [
              0.4002276528126334,
              0.3478480252283041
            ]
          ]
        ]
      }
    },
    {
      "type": "Feature",
      "properties": {
        "cell_id": "CEG2000_f4_r0014_c0105",
        "method": "Direct Polar",
        "view": "disk"
      },
      "geometry": {
        "type": "Polygon",
        "coordinates": [
          [
            [
              0.5009246201318274,
              0.33506778668733267
            ],
            [
              0.6207628565281968,
              0.3374778398220272
            ],
            [
              0.645934566427121,
              0.48238906798522363
            ],
            [
              0.5459381326654895,
              0.5016411132355467
            ],
            [
              0.5009246201318274,
              0.33506778668733267
            ]
          ]
        ]
      }
    },
    {
      "type": "Feature",
      "properties": {
        "cell_id": "CEG2000_f4_r0014_c0106",
        "method": "Direct Polar",
        "view": "disk"
      },
      "geometry": {
        "type": "Polygon",
        "coordinates": [
          [
            [
              0.6207628565281968,
              0.3374778398220272
            ],
            [
              0.739420538576109,
              0.3385871066016969
            ],
            [
              0.7340019721329097,
              0.4617060091125112
            ],
            [
              0.645934566427121,
              0.48238906798522363
            ],
            [
              0.6207628565281968,
              0.3374778398220272
            ]
          ]
        ]
      }
    },
    {
      "type": "Feature",
      "properties": {
        "cell_id": "CEG2000_f4_r0014_c0107",
        "method": "Direct Polar",
        "view": "disk"
      },
      "geometry": {
        "type": "Polygon",
        "coordinates": [
          [
            [
              0.7394184861391107,
              0.3385869677615732
            ],
            [
              0.8755162686298396,
              0.34629279969634685
            ],
            [
              0.8532364532467098,
              0.46359424546619094
            ],
            [
              0.7340001605356672,
              0.4617059618204113
            ],
            [
              0.7394184861391107,
              0.3385869677615732
            ]
          ]
        ]
      }
    },
    {
      "type": "Feature",
      "properties": {
        "cell_id": "CEG2000_f4_r0014_c0108",
        "method": "Direct Polar",
        "view": "disk"
      },
      "geometry": {
        "type": "Polygon",
        "coordinates": [
          [
            [
              0.8755182996941794,
              0.3462928954229633
            ],
            [
              0.9444139974446004,
              0.32875857620860677
            ],
            [
              0.9021577220059193,
              0.4314063567277266
            ],
            [
              0.8532382201733173,
              0.46359425818614963
            ],
            [
              0.8755182996941794,
              0.3462928954229633
            ]
          ]
        ]
      }
    },
    {
      "type": "Feature",
      "properties": {
        "cell_id": "CEG2000_f4_r0015_c0096",
        "method": "Direct Polar",
        "view": "disk"
      },
      "geometry": {
        "type": "Polygon",
        "coordinates": [
          [
            [
              -0.7595981275318806,
              0.6502231320959001
            ],
            [
              -0.5292355115917259,
              0.5768339223144797
            ],
            [
              -0.5083895716556753,
              0.7048519611719196
            ],
            [
              -0.673781991682014,
              0.7336643115458449
            ],
            [
              -0.7595981275318806,
              0.6502231320959001
            ]
          ]
        ]
      }
    },
    {
      "type": "Feature",
      "properties": {
        "cell_id": "CEG2000_f4_r0015_c0097",
        "method": "Direct Polar",
        "view": "disk"
      },
      "geometry": {
        "type": "Polygon",
        "coordinates": [
          [
            [
              -0.529237410688412,
              0.5768336277073441
            ],
            [
              -0.3580303297053464,
              0.5369681326690955
            ],
            [
              -0.3755852917396676,
              0.716533887783726
            ],
            [
              -0.508392469124157,
              0.7048530890691472
            ],
            [
              -0.529237410688412,
              0.5768336277073441
            ]
          ]
        ]
      }
    },
    {
      "type": "Feature",
      "properties": {
        "cell_id": "CEG2000_f4_r0015_c0098",
        "method": "Direct Polar",
        "view": "disk"
      },
      "geometry": {
        "type": "Polygon",
        "coordinates": [
          [
            [
              -0.3580274839675567,
              0.5369668934315411
            ],
            [
              -0.26856478783514703,
              0.6455231157839169
            ],
            [
              -0.2257277381101188,
              0.6901557679808328
            ],
            [
              -0.3755837921870692,
              0.7165350685741555
            ],
            [
              -0.3580274839675567,
              0.5369668934315411
            ]
          ]
        ]
      }
    },
    {
      "type": "Feature",
      "properties": {
        "cell_id": "CEG2000_f4_r0015_c0099",
        "method": "Direct Polar",
        "view": "disk"
      },
      "geometry": {
        "type": "Polygon",
        "coordinates": [
          [
            [
              -0.2685624722584286,
              0.6455233853481487
            ],
            [
              -0.09202653266198958,
              0.5566773604716397
            ],
            [
              -0.09444602124463203,
              0.7267309081817495
            ],
            [
              -0.22572558723346328,
              0.6901554304885127
            ],
            [
              -0.2685624722584286,
              0.6455233853481487
            ]
          ]
        ]
      }
    },
    {
      "type": "Feature",
      "properties": {
        "cell_id": "CEG2000_f4_r0015_c0100",
        "method": "Direct Polar",
        "view": "disk"
      },
      "geometry": {
        "type": "Polygon",
        "coordinates": [
          [
            [
              -0.09202836434721734,
              0.5566757762276887
            ],
            [
              0.050868580500707875,
              0.5955780587771582
            ],
            [
              0.051159711420987006,
              0.7619327153047171
            ],
            [
              -0.09444797124923726,
              0.7267293798460384
            ],
            [
              -0.09202836434721734,
              0.5566757762276887
            ]
          ]
        ]
      }
    },
    {
      "type": "Feature",
      "properties": {
        "cell_id": "CEG2000_f4_r0015_c0101",
        "method": "Direct Polar",
        "view": "disk"
      },
      "geometry": {
        "type": "Polygon",
        "coordinates": [
          [
            [
              0.050868580500707875,
              0.5955780587771582
            ],
            [
              0.1906168984678286,
              0.5670783156140878
            ],
            [
              0.18601984352248482,
              0.703947678005702
            ],
            [
              0.051159711420987006,
              0.7619327153047171
            ],
            [
              0.050868580500707875,
              0.5955780587771582
            ]
          ]
        ]
      }
    },
    {
      "type": "Feature",
      "properties": {
        "cell_id": "CEG2000_f4_r0015_c0102",
        "method": "Direct Polar",
        "view": "disk"
      },
      "geometry": {
        "type": "Polygon",
        "coordinates": [
          [
            [
              0.19061452434286302,
              0.5670775973916711
            ],
            [
              0.40025117416036654,
              0.6820224925811603
            ],
            [
              0.4189202203415553,
              0.9080230443050346
            ],
            [
              0.18601803428039826,
              0.7039487074477258
            ],
            [
              0.19061452434286302,
              0.5670775973916711
            ]
          ]
        ]
      }
    },
    {
      "type": "Feature",
      "properties": {
        "cell_id": "CEG2000_f4_r0015_c0103",
        "method": "Direct Polar",
        "view": "disk"
      },
      "geometry": {
        "type": "Polygon",
        "coordinates": [
          [
            [
              0.4002525429569177,
              0.6820204542884808
            ],
            [
              0.5041154014240843,
              0.6018714735006445
            ],
            [
              0.5390138781223837,
              0.8186027613374579
            ],
            [
              0.41892243383502176,
              0.9080220230973155
            ],
            [
              0.4002525429569177,
              0.6820204542884808
            ]
          ]
        ]
      }
    },
    {
      "type": "Feature",
      "properties": {
        "cell_id": "CEG2000_f4_r0015_c0104",
        "method": "Direct Polar",
        "view": "disk"
      },
      "geometry": {
        "type": "Polygon",
        "coordinates": [
          [
            [
              0.5041174391333759,
              0.6018712038576877
            ],
            [
              0.5459395751881765,
              0.5016407051872734
            ],
            [
              0.6500993785653307,
              0.7598491942411801
            ],
            [
              0.5390149806369179,
              0.8186007600844021
            ],
            [
              0.5041174391333759,
              0.6018712038576877
            ]
          ]
        ]
      }
    },
    {
      "type": "Feature",
      "properties": {
        "cell_id": "CEG2000_f4_r0015_c0105",
        "method": "Direct Polar",
        "view": "disk"
      },
      "geometry": {
        "type": "Polygon",
        "coordinates": [
          [
            [
              0.5459381326654895,
              0.5016411132355467
            ],
            [
              0.645934566427121,
              0.48238906798522363
            ],
            [
              0.6768911759870714,
              0.6430240967619599
            ],
            [
              0.6500980814710693,
              0.7598503039860122
            ],
            [
              0.5459381326654895,
              0.5016411132355467
            ]
          ]
        ]
      }
    },
    {
      "type": "Feature",
      "properties": {
        "cell_id": "CEG2000_f4_r0015_c0106",
        "method": "Direct Polar",
        "view": "disk"
      },
      "geometry": {
        "type": "Polygon",
        "coordinates": [
          [
            [
              0.645934566427121,
              0.48238906798522363
            ],
            [
              0.7340019721329097,
              0.4617060091125112
            ],
            [
              0.7641387152136804,
              0.6114204609820276
            ],
            [
              0.6768911759870714,
              0.6430240967619599
            ],
            [
              0.645934566427121,
              0.48238906798522363
            ]
          ]
        ]
      }
    },
    {
      "type": "Feature",
      "properties": {
        "cell_id": "CEG2000_f4_r0015_c0107",
        "method": "Direct Polar",
        "view": "disk"
      },
      "geometry": {
        "type": "Polygon",
        "coordinates": [
          [
            [
              0.7340001605356672,
              0.4617059618204113
            ],
            [
              0.8532364532467098,
              0.46359424546619094
            ],
            [
              0.8226402246852931,
              0.5685622751552644
            ],
            [
              0.7641367978717576,
              0.6114203732591493
            ],
            [
              0.7340001605356672,
              0.4617059618204113
            ]
          ]
        ]
      }
    },
    {
      "type": "Feature",
      "properties": {
        "cell_id": "CEG2000_f4_r0016_c0096",
        "method": "Direct Polar",
        "view": "disk"
      },
      "geometry": {
        "type": "Polygon",
        "coordinates": [
          [
            [
              -0.6737819017220292,
              0.7336634290917107
            ],
            [
              -0.5083897838701189,
              0.7048515017039907
            ],
            [
              -0.49650025594060737,
              0.8355802677735995
            ],
            [
              -0.6033527972493046,
              0.7974743895896843
            ],
            [
              -0.6737819017220292,
              0.7336634290917107
            ]
          ]
        ]
      }
    },
    {
      "type": "Feature",
      "properties": {
        "cell_id": "CEG2000_f4_r0016_c0097",
        "method": "Direct Polar",
        "view": "disk"
      },
      "geometry": {
        "type": "Polygon",
        "coordinates": [
          [
            [
              -0.5083926813392431,
              0.7048526295996976
            ],
            [
              -0.3755851744056726,
              0.7165328977548887
            ],
            [
              -0.39643870710660395,
              0.918061191592175
            ],
            [
              -0.4965015814683344,
              0.8355790734264769
            ],
            [
              -0.5083926813392431,
              0.7048526295996976
            ]
          ]
        ]
      }
    },
    {
      "type": "Feature",
      "properties": {
        "cell_id": "CEG2000_f4_r0016_c0098",
        "method": "Direct Polar",
        "view": "disk"
      },
      "geometry": {
        "type": "Polygon",
        "coordinates": [
          [
            [
              -0.3755836748544957,
              0.7165340785455049
            ],
            [
              -0.22572775116709684,
              0.6901550699262408
            ],
            [
              -0.22322638699518935,
              0.8284668629449228
            ],
            [
              -0.3964368224318585,
              0.9180620054332557
            ],
            [
              -0.3755836748544957,
              0.7165340785455049
            ]
          ]
        ]
      }
    },
    {
      "type": "Feature",
      "properties": {
        "cell_id": "CEG2000_f4_r0016_c0099",
        "method": "Direct Polar",
        "view": "disk"
      },
      "geometry": {
        "type": "Polygon",
        "coordinates": [
          [
            [
              -0.22572560029041847,
              0.6901547324345729
            ],
            [
              -0.09444601190896625,
              0.7267300592617079
            ],
            [
              -0.09596424306545366,
              0.8963277171377776
            ],
            [
              -0.22322424828791446,
              0.8284664145239085
            ],
            [
              -0.22572560029041847,
              0.6901547324345729
            ]
          ]
        ]
      }
    },
    {
      "type": "Feature",
      "properties": {
        "cell_id": "CEG2000_f4_r0016_c0100",
        "method": "Direct Polar",
        "view": "disk"
      },
      "geometry": {
        "type": "Polygon",
        "coordinates": [
          [
            [
              -0.09444796191311623,
              0.7267285309257625
            ],
            [
              0.05115971030825772,
              0.761931884006458
            ],
            [
              0.05133962769672015,
              0.9281296998406168
            ],
            [
              -0.09596626690213442,
              0.8963262289522702
            ],
            [
              -0.09444796191311623,
              0.7267285309257625
            ]
          ]
        ]
      }
    },
    {
      "type": "Feature",
      "properties": {
        "cell_id": "CEG2000_f4_r0016_c0101",
        "method": "Direct Polar",
        "view": "disk"
      },
      "geometry": {
        "type": "Polygon",
        "coordinates": [
          [
            [
              0.05115971030825772,
              0.761931884006458
            ],
            [
              0.18601981752401928,
              0.7039468268974203
            ],
            [
              0.19016907270638664,
              0.8735513007645835
            ],
            [
              0.05133962769672015,
              0.9281296998406168
            ],
            [
              0.05115971030825772,
              0.761931884006458
            ]
          ]
        ]
      }
    },
    {
      "type": "Feature",
      "properties": {
        "cell_id": "CEG2000_f4_r0016_c0105",
        "method": "Direct Polar",
        "view": "disk"
      },
      "geometry": {
        "type": "Polygon",
        "coordinates": [
          [
            [
              0.6500984828274533,
              0.7598499606010672
            ],
            [
              0.6768910125162731,
              0.64302325389181
            ],
            [
              0.6551648388267058,
              0.7554859588140448
            ],
            [
              0.576108100849045,
              0.8173735107869026
            ],
            [
              0.6500984828274533,
              0.7598499606010672
            ]
          ]
        ]
      }
    },
    {
      "type": "Feature",
      "properties": {
        "cell_id": "CEG2000_f4_r0016_c0106",
        "method": "Direct Polar",
        "view": "disk"
      },
      "geometry": {
        "type": "Polygon",
        "coordinates": [
          [
            [
              0.6768910125162731,
              0.64302325389181
            ],
            [
              0.764138764767898,
              0.6114198468473787
            ],
            [
              0.7173400700907944,
              0.6967232046100763
            ],
            [
              0.6551648388267058,
              0.7554859588140448
            ],
            [
              0.6768910125162731,
              0.64302325389181
            ]
          ]
        ]
      }
    },
    {
      "type": "Feature",
      "properties": {
        "cell_id": "CEG2000_f4_r0017_c0098",
        "method": "Direct Polar",
        "view": "disk"
      },
      "geometry": {
        "type": "Polygon",
        "coordinates": [
          [
            [
              -0.3964365280945327,
              0.9180621325337152
            ],
            [
              -0.2232263752210026,
              0.8284675490451404
            ],
            [
              -0.22104412144482832,
              0.9649004809166074
            ],
            [
              -0.3446437258619538,
              0.9387335629580901
            ],
            [
              -0.3964365280945327,
              0.9180621325337152
            ]
          ]
        ]
      }
    },
    {
      "type": "Feature",
      "properties": {
        "cell_id": "CEG2000_f4_r0017_c0099",
        "method": "Direct Polar",
        "view": "disk"
      },
      "geometry": {
        "type": "Polygon",
        "coordinates": [
          [
            [
              -0.22322423651381423,
              0.8284671006236567
            ],
            [
              -0.09596424923492446,
              0.8963285643389975
            ],
            [
              -0.09065188457789483,
              0.9958826415911044
            ],
            [
              -0.2210420019903273,
              0.9648999514230602
            ],
            [
              -0.22322423651381423,
              0.8284671006236567
            ]
          ]
        ]
      }
    },
    {
      "type": "Feature",
      "properties": {
        "cell_id": "CEG2000_f4_r0017_c0100",
        "method": "Direct Polar",
        "view": "disk"
      },
      "geometry": {
        "type": "Polygon",
        "coordinates": [
          [
            [
              -0.09596627307190445,
              0.8963270761536618
            ],
            [
              0.0513396284236553,
              0.9281305305736803
            ],
            [
              0.04697754896364563,
              0.9988959454784909
            ],
            [
              -0.0906539299454829,
              0.9958824554059779
            ],
            [
              -0.09596627307190445,
              0.8963270761536618
            ]
          ]
        ]
      }
    },
    {
      "type": "Feature",
      "properties": {
        "cell_id": "CEG2000_f4_r0017_c0101",
        "method": "Direct Polar",
        "view": "disk"
      },
      "geometry": {
        "type": "Polygon",
        "coordinates": [
          [
            [
              0.0513396284236553,
              0.9281305305736803
            ],
            [
              0.19016908921360892,
              0.8735521461045409
            ],
            [
              0.1819965700923068,
              0.9832991652974369
            ],
            [
              0.04697754896364563,
              0.9988959454784909
            ],
            [
              0.0513396284236553,
              0.9281305305736803
            ]
          ]
        ]
      }
    },
    {
      "type": "Feature",
      "properties": {
        "cell_id": "CEG2000_f4_r0017_c0102",
        "method": "Direct Polar",
        "view": "disk"
      },
      "geometry": {
        "type": "Polygon",
        "coordinates": [
          [
            [
              0.19016717117583765,
              0.873553109187846
            ],
            [
              0.355277123873104,
              0.9347610203963659
            ],
            [
              0.3074863508571839,
              0.9515524914772346
            ],
            [
              0.18199460128026684,
              0.9832995296982688
            ],
            [
              0.19016717117583765,
              0.873553109187846
            ]
          ]
        ]
      }
    }
  ]
}