{
  "type": "FeatureCollection",
  "features": [
    {
      "type": "Feature",
      "properties": {
        "cell_id": "CEG2000_f4_r0005_c0091",
        "method": "Direct Polar",
        "view": "annulus"
      },
      "geometry": {
        "type": "Polygon",
        "coordinates": [
          [
            [
              -0.8007622599704601,
              -0.5688210921214013
            ],
            [
              -0.7576832778124186,
              -0.6003758068882197
            ],
            [
              -0.7717275849709485,
              -0.5148084782796283
            ],
            [
              -0.8312905252649511,
              -0.49713130420473606
            ],
            [
              -0.8007622599704601,
              -0.5688210921214013
            ]
          ]
        ]
      }
    },
    {
      "type": "Feature",
      "properties": {
        "cell_id": "CEG2000_f4_r0006_c0090",
        "method": "Direct Polar",
        "view": "annulus"
      },
      "geometry": {
        "type": "Polygon",
        "coordinates": [
          [
            [
              -0.879198832481112,
              -0.4764550482090095
            ],
            [
              -0.8312905252649511,
              -0.49713130420473606
            ],
            [
              -0.855712130438112,
              -0.41561729147157855
            ],
            [
              -0.9152706532392869,
              -0.402839460975373
            ],
            [
              -0.879198832481112,
              -0.4764550482090095
            ]
          ]
        ]
      }
    },
    {
      "type": "Feature",
      "properties": {
        "cell_id": "CEG2000_f4_r0006_c0091",
        "method": "Direct Polar",
        "view": "annulus"
      },
      "geometry": {
        "type": "Polygon",
        "coordinates": [
          [
            [
              -0.8312905252649511,
              -0.49713130420473606
            ],
            [
              -0.7717275849709485,
              -0.5148084782796283
            ],
            [
              -0.800242096122301,
              -0.4335614881777183
            ],
            [
              -0.855712130438112,
              -0.41561729147157855
            ],
            [
              -0.8312905252649511,
              -0.49713130420473606
            ]
          ]
        ]
      }
    },
    {
      "type": "Feature",
      "properties": {
        "cell_id": "CEG2000_f4_r0007_c0090",
        "method": "Direct Polar",
        "view": "annulus"
      },
      "geometry": {
        "type": "Polygon",
        "coordinates": [
          [
            [
              -0.9152706532392866,
              -0.4028394609753738
            ],
            [
              -0.8557121304381115,
              -0.4156172914715792
            ],
            [
              -0.9100672579221408,
              -0.3397932433484484
            ],
            [
              -0.9472499273829093,
              -0.320495826919904
            ],
            [
              -0.9152706532392866,
              -0.4028394609753738
            ]
          ]
        ]
      }
    },
    {
      "type": "Feature",
      "properties": {
        "cell_id": "CEG2000_f4_r0007_c0091",
        "method": "Direct Polar",
        "view": "annulus"
      },
      "geometry": {
        "type": "Polygon",
        "coordinates": [
          [
            [
              -0.8557121304381115,
              -0.4156172914715792
            ],
            [
              -0.8002420961223018,
              -0.4335614881777196
            ],
            [
              -0.8439469364220415,
              -0.35149550519051787
            ],
            [
              -0.9100672579221408,
              -0.3397932433484484
            ],
            [
              -0.8557121304381115,
              -0.4156172914715792
            ]
          ]
        ]
      }
    },
    {
      "type": "Feature",
      "properties": {
        "cell_id": "CEG2000_f4_r0007_c0092",
        "method": "Direct Polar",
        "view": "annulus"
      },
      "geometry": {
        "type": "Polygon",
        "coordinates": [
          [
            [
              -0.8002429503353959,
              -0.43356119994991116
            ],
            [
              -0.741230250955211,
              -0.4540201176193904
            ],
            [
              -0.7743865370200494,
              -0.36463225673913746
            ],
            [
              -0.8439479595382904,
              -0.3514953224355609
            ],
            [
              -0.8002429503353959,
              -0.43356119994991116
            ]
          ]
        ]
      }
    },
    {
      "type": "Feature",
      "properties": {
        "cell_id": "CEG2000_f4_r0008_c0090",
        "method": "Direct Polar",
        "view": "annulus"
      },
      "geometry": {
        "type": "Polygon",
        "coordinates": [
          [
            [
              -0.9472499273829093,
              -0.320495826919904
            ],
            [
              -0.9100672579221408,
              -0.3397932433484484
            ],
            [
              -0.9675756600765142,
              -0.25258135724454783
            ],
            [
              -0.9731428171444821,
              -0.23020220989404316
            ],
            [
              -0.9472499273829093,
              -0.320495826919904
            ]
          ]
        ]
      }
    },
    {
      "type": "Feature",
      "properties": {
        "cell_id": "CEG2000_f4_r0008_c0091",
        "method": "Direct Polar",
        "view": "annulus"
      },
      "geometry": {
        "type": "Polygon",
        "coordinates": [
          [
            [
              -0.9100672579221408,
              -0.3397932433484484
            ],
            [
              -0.8439469364220415,
              -0.35149550519051787
            ],
            [
              -0.898891857692677,
              -0.2617503010867983
            ],
            [
              -0.9675756600765142,
              -0.25258135724454783
            ],
            [
              -0.9100672579221408,
              -0.3397932433484484
            ]
          ]
        ]
      }
    },
    {
      "type": "Feature",
      "properties": {
        "cell_id": "CEG2000_f4_r0008_c0092",
        "method": "Direct Polar",
        "view": "annulus"
      },
      "geometry": {
        "type": "Polygon",
        "coordinates": [
          [
            [
              -0.8439479595382904,
              -0.3514953224355609
            ],
            [
              -0.7743865370200494,
              -0.36463225673913746
            ],
            [
              -0.8260672078018424,
              -0.27194919798400463
            ],
            [
              -0.8988928557809275,
              -0.2617501383094169
            ],
            [
              -0.8439479595382904,
              -0.3514953224355609
            ]
          ]
        ]
      }
    },
    {
      "type": "Feature",
      "properties": {
        "cell_id": "CEG2000_f4_r0008_c0093",
        "method": "Direct Polar",
        "view": "annulus"
      },
      "geometry": {
        "type": "Polygon",
        "coordinates": [
          [
            [
              -0.7743854708819158,
              -0.3646324688242675
            ],
            [
              -0.7129357312922515,
              -0.3861062296222971
            ],
            [
              -0.7657490580041592,
              -0.28994659113339566
            ],
            [
              -0.8260663247383937,
              -0.2719494398546866
            ],
            [
              -0.7743854708819158,
              -0.3646324688242675
            ]
          ]
        ]
      }
    },
    {
      "type": "Feature",
      "properties": {
        "cell_id": "CEG2000_f4_r0008_c0094",
        "method": "Direct Polar",
        "view": "annulus"
      },
      "geometry": {
        "type": "Polygon",
        "coordinates": [
          [
            [
              -0.712934827407963,
              -0.3861066097966354
            ],
            [
              -0.6492318511873991,
              -0.41373528900589024
            ],
            [
              -0.6947343655081897,
              -0.3095398997874132
            ],
            [
              -0.765748128024104,
              -0.28994689209792646
            ],
            [
              -0.712934827407963,
              -0.3861066097966354
            ]
          ]
        ]
      }
    },
    {
      "type": "Feature",
      "properties": {
        "cell_id": "CEG2000_f4_r0008_c0095",
        "method": "Direct Polar",
        "view": "annulus"
      },
      "geometry": {
        "type": "Polygon",
        "coordinates": [
          [
            [
              -0.6492328657755855,
              -0.4137348389741618
            ],
            [
              -0.5818770092777092,
              -0.45039674230223525
            ],
            [
              -0.6256590711650218,
              -0.33859215914909613
            ],
            [
              -0.6947354690388459,
              -0.30953957103764346
            ],
            [
              -0.6492328657755855,
              -0.4137348389741618
            ]
          ]
        ]
      }
    },
    {
      "type": "Feature",
      "properties": {
        "cell_id": "CEG2000_f4_r0009_c0092",
        "method": "Direct Polar",
        "view": "annulus"
      },
      "geometry": {
        "type": "Polygon",
        "coordinates": [
          [
            [
              -0.8988928557809271,
              -0.2617501383094176
            ],
            [
              -0.8260672078018421,
              -0.27194919798400535
            ],
            [
              -0.9733991523809216,
              -0.18256403465239235
            ],
            [
              -0.9865172424030937,
              -0.16365735682026517
            ],
            [
              -0.8988928557809271,
              -0.2617501383094176
            ]
          ]
        ]
      }
    },
    {
      "type": "Feature",
      "properties": {
        "cell_id": "CEG2000_f4_r0009_c0093",
        "method": "Direct Polar",
        "view": "annulus"
      },
      "geometry": {
        "type": "Polygon",
        "coordinates": [
          [
            [
              -0.8260663247383931,
              -0.27194943985468767
            ],
            [
              -0.7657490580041587,
              -0.28994659113339666
            ],
            [
              -0.8494338972642792,
              -0.18323692083464288
            ],
            [
              -0.9733981052247782,
              -0.18256419578725086
            ],
            [
              -0.8260663247383931,
              -0.27194943985468767
            ]
          ]
        ]
      }
    },
    {
      "type": "Feature",
      "properties": {
        "cell_id": "CEG2000_f4_r0009_c0094",
        "method": "Direct Polar",
        "view": "annulus"
      },
      "geometry": {
        "type": "Polygon",
        "coordinates": [
          [
            [
              -0.7657481280241035,
              -0.2899468920979274
            ],
            [
              -0.6947343655081893,
              -0.30953989978741414
            ],
            [
              -0.7856467813513955,
              -0.19942382991584576
            ],
            [
              -0.8494329557403447,
              -0.1832371304682621
            ],
            [
              -0.7657481280241035,
              -0.2899468920979274
            ]
          ]
        ]
      }
    },
    {
      "type": "Feature",
      "properties": {
        "cell_id": "CEG2000_f4_r0009_c0095",
        "method": "Direct Polar",
        "view": "annulus"
      },
      "geometry": {
        "type": "Polygon",
        "coordinates": [
          [
            [
              -0.6947354690388455,
              -0.3095395710376444
            ],
            [
              -0.6256590711650221,
              -0.3385921591490973
            ],
            [
              -0.6911425998038938,
              -0.21308784383546223
            ],
            [
              -0.7856477566162762,
              -0.19942354890241235
            ],
            [
              -0.6947354690388455,
              -0.3095395710376444
            ]
          ]
        ]
      }
    },
    {
      "type": "Feature",
      "properties": {
        "cell_id": "CEG2000_f4_r0009_c0096",
        "method": "Direct Polar",
        "view": "annulus"
      },
      "geometry": {
        "type": "Polygon",
        "coordinates": [
          [
            [
              -0.6256590711650221,
              -0.3385921591490973
            ],
            [
              -0.5519214438438955,
              -0.38031171532913177
            ],
            [
              -0.6192022164488749,
              -0.24307864088122216
            ],
            [
              -0.6911425998038938,
              -0.21308784383546223
            ],
            [
              -0.6256590711650221,
              -0.3385921591490973
            ]
          ]
        ]
      }
    },
    {
      "type": "Feature",
      "properties": {
        "cell_id": "CEG2000_f4_r0009_c0097",
        "method": "Direct Polar",
        "view": "annulus"
      },
      "geometry": {
        "type": "Polygon",
        "coordinates": [
          [
            [
              -0.5519228144268037,
              -0.3803111008174336
            ],
            [
              -0.6096645975962407,
              -0.578069814244166
            ],
            [
              -0.5384886568538992,
              -0.29088259492198426
            ],
            [
              -0.6192033691246007,
              -0.2430780969801824
            ],
            [
              -0.5519228144268037,
              -0.3803111008174336
            ]
          ]
        ]
      }
    },
    {
      "type": "Feature",
      "properties": {
        "cell_id": "CEG2000_f4_r0009_c0098",
        "method": "Direct Polar",
        "view": "annulus"
      },
      "geometry": {
        "type": "Polygon",
        "coordinates": [
          [
            [
              -0.6096624331222049,
              -0.5780710225416443
            ],
            [
              -0.5392392676189413,
              -0.8194167913376557
            ],
            [
              -0.44389138880678386,
              -0.38428367072770203
            ],
            [
              -0.5384874307485282,
              -0.29088357332502085
            ],
            [
              -0.6096624331222049,
              -0.5780710225416443
            ]
          ]
        ]
      }
    },
    {
      "type": "Feature",
      "properties": {
        "cell_id": "CEG2000_f4_r0009_c0099",
        "method": "Direct Polar",
        "view": "annulus"
      },
      "geometry": {
        "type": "Polygon",
        "coordinates": [
          [
            [
              -0.5392368613013138,
              -0.8194205420042291
            ],
            [
              -0.2529804769122368,
              -0.9674713837118167
            ],
            [
              -0.3336727988753753,
              -0.7269822157838518
            ],
            [
              -0.44388966980547545,
              -0.38428565636093953
            ],
            [
              -0.5392368613013138,
              -0.8194205420042291
            ]
          ]
        ]
      }
    },
    {
      "type": "Feature",
      "properties": {
        "cell_id": "CEG2000_f4_r0010_c0093",
        "method": "Direct Polar",
        "view": "annulus"
      },
      "geometry": {
        "type": "Polygon",
        "coordinates": [
          [
            [
              -0.9733981052247782,
              -0.18256419578725086
            ],
            [
              -0.8494338972642792,
              -0.18323692083464288
            ],
            [
              -0.9689519215521155,
              -0.05114964816513004
            ],
            [
              -0.9989484042932959,
              -0.045848506626473426
            ],
            [
              -0.9733981052247782,
              -0.18256419578725086
            ]
          ]
        ]
      }
    },
    {
      "type": "Feature",
      "properties": {
        "cell_id": "CEG2000_f4_r0010_c0094",
        "method": "Direct Polar",
        "view": "annulus"
      },
      "geometry": {
        "type": "Polygon",
        "coordinates": [
          [
            [
              -0.8494329557403447,
              -0.1832371304682621
            ],
            [
              -0.7856467813513955,
              -0.19942382991584576
            ],
            [
              -0.8870294405625341,
              -0.05509913442543793
            ],
            [
              -0.9689506937769531,
              -0.05114969856564659
            ],
            [
              -0.8494329557403447,
              -0.1832371304682621
            ]
          ]
        ]
      }
    },
    {
      "type": "Feature",
      "properties": {
        "cell_id": "CEG2000_f4_r0010_c0095",
        "method": "Direct Polar",
        "view": "annulus"
      },
      "geometry": {
        "type": "Polygon",
        "coordinates": [
          [
            [
              -0.7856477566162762,
              -0.19942354890241235
            ],
            [
              -0.6911425998038938,
              -0.21308784383546223
            ],
            [
              -0.8048906981181316,
              -0.060727436163364
            ],
            [
              -0.8870306706568195,
              -0.055099064795400284
            ],
            [
              -0.7856477566162762,
              -0.19942354890241235
            ]
          ]
        ]
      }
    },
    {
      "type": "Feature",
      "properties": {
        "cell_id": "CEG2000_f4_r0010_c0096",
        "method": "Direct Polar",
        "view": "annulus"
      },
      "geometry": {
        "type": "Polygon",
        "coordinates": [
          [
            [
              -0.6911425998038938,
              -0.21308784383546223
            ],
            [
              -0.6192022164488749,
              -0.24307864088122216
            ],
            [
              -0.7222910972705374,
              -0.06938787448094788
            ],
            [
              -0.8048906981181316,
              -0.060727436163364
            ],
            [
              -0.6911425998038938,
              -0.21308784383546223
            ]
          ]
        ]
      }
    },
    {
      "type": "Feature",
      "properties": {
        "cell_id": "CEG2000_f4_r0010_c0097",
        "method": "Direct Polar",
        "view": "annulus"
      },
      "geometry": {
        "type": "Polygon",
        "coordinates": [
          [
            [
              -0.6192033691246007,
              -0.2430780969801824
            ],
            [
              -0.5384886568538992,
              -0.29088259492198426
            ],
            [
              -0.6515344721153437,
              -0.08612626233434639
            ],
            [
              -0.722292342149235,
              -0.06938770964400852
            ],
            [
              -0.6192033691246007,
              -0.2430780969801824
            ]
          ]
        ]
      }
    },
    {
      "type": "Feature",
      "properties": {
        "cell_id": "CEG2000_f4_r0010_c0098",
        "method": "Direct Polar",
        "view": "annulus"
      },
      "geometry": {
        "type": "Polygon",
        "coordinates": [
          [
            [
              -0.5384874307485282,
              -0.29088357332502085
            ],
            [
              -0.44389138880678386,
              -0.38428367072770203
            ],
            [
              -0.564396731608443,
              -0.1195684847499781
            ],
            [
              -0.6515334181134529,
              -0.08612660880189467
            ],
            [
              -0.5384874307485282,
              -0.29088357332502085
            ]
          ]
        ]
      }
    },
    {
      "type": "Feature",
      "properties": {
        "cell_id": "CEG2000_f4_r0010_c0099",
        "method": "Direct Polar",
        "view": "annulus"
      },
      "geometry": {
        "type": "Polygon",
        "coordinates": [
          [
            [
              -0.44388966980547545,
              -0.38428565636093953
            ],
            [
              -0.3336727988753753,
              -0.7269822157838518
            ],
            [
              -0.45237946962467296,
              -0.2411919977602631
            ],
            [
              -0.5643956553347181,
              -0.11956933760174182
            ],
            [
              -0.44388966980547545,
              -0.38428565636093953
            ]
          ]
        ]
      }
    },
    {
      "type": "Feature",
      "properties": {
        "cell_id": "CEG2000_f4_r0010_c0101",
        "method": "Direct Polar",
        "view": "annulus"
      },
      "geometry": {
        "type": "Polygon",
        "coordinates": [
          [
            [
              0.18153693960179407,
              -0.7655376651917208
            ],
            [
              0.6822923037912353,
              -0.7310794841788741
            ],
            [
              0.722611252863491,
              -0.1894767250453467
            ],
            [
              0.4874255832133677,
              -0.5029987417279851
            ],
            [
              0.18153693960179407,
              -0.7655376651917208
            ]
          ]
        ]
      }
    },
    {
      "type": "Feature",
      "properties": {
        "cell_id": "CEG2000_f4_r0011_c0094",
        "method": "Direct Polar",
        "view": "annulus"
      },
      "geometry": {
        "type": "Polygon",
        "coordinates": [
          [
            [
              -0.9689506937769531,
              -0.05114969856564659
            ],
            [
              -0.8870294405625341,
              -0.05509913442543793
            ],
            [
              -0.9550190123609493,
              0.12377144046444417
            ],
            [
              -0.9939892764694579,
              0.10947747834017507
            ],
            [
              -0.9689506937769531,
              -0.05114969856564659
            ]
          ]
        ]
      }
    },
    {
      "type": "Feature",
      "properties": {
        "cell_id": "CEG2000_f4_r0011_c0095",
        "method": "Direct Polar",
        "view": "annulus"
      },
      "geometry": {
        "type": "Polygon",
        "coordinates": [
          [
            [
              -0.8870306706568195,
              -0.055099064795400284
            ],
            [
              -0.8048906981181316,
              -0.060727436163364
            ],
            [
              -0.8649198936286174,
              0.13615249671919108
            ],
            [
              -0.9550203548285559,
              0.12377128639589766
            ],
            [
              -0.8870306706568195,
              -0.055099064795400284
            ]
          ]
        ]
      }
    },
    {
      "type": "Feature",
      "properties": {
        "cell_id": "CEG2000_f4_r0011_c0096",
        "method": "Direct Polar",
        "view": "annulus"
      },
      "geometry": {
        "type": "Polygon",
        "coordinates": [
          [
            [
              -0.8048906981181316,
              -0.060727436163364
            ],
            [
              -0.7222910972705374,
              -0.06938787448094788
            ],
            [
              -0.7727641767705453,
              0.15488879076379386
            ],
            [
              -0.8649198936286174,
              0.13615249671919108
            ],
            [
              -0.8048906981181316,
              -0.060727436163364
            ]
          ]
        ]
      }
    },
    {
      "type": "Feature",
      "properties": {
        "cell_id": "CEG2000_f4_r0011_c0097",
        "method": "Direct Polar",
        "view": "annulus"
      },
      "geometry": {
        "type": "Polygon",
        "coordinates": [
          [
            [
              -0.722292342149235,
              -0.06938770964400852
            ],
            [
              -0.6515344721153437,
              -0.08612626233434639
            ],
            [
              -0.6754795167963022,
              0.18629966385974103
            ],
            [
              -0.7727655850672033,
              0.15488843813052613
            ],
            [
              -0.722292342149235,
              -0.06938770964400852
            ]
          ]
        ]
      }
    },
    {
      "type": "Feature",
      "properties": {
        "cell_id": "CEG2000_f4_r0011_c0098",
        "method": "Direct Polar",
        "view": "annulus"
      },
      "geometry": {
        "type": "Polygon",
        "coordinates": [
          [
            [
              -0.6515334181134529,
              -0.08612660880189467
            ],
            [
              -0.564396731608443,
              -0.1195684847499781
            ],
            [
              -0.5797893985823301,
              0.2562737897697155
            ],
            [
              -0.6754779831363779,
              0.18630029169503826
            ],
            [
              -0.6515334181134529,
              -0.08612660880189467
            ]
          ]
        ]
      }
    },
    {
      "type": "Feature",
      "properties": {
        "cell_id": "CEG2000_f4_r0011_c0099",
        "method": "Direct Polar",
        "view": "annulus"
      },
      "geometry": {
        "type": "Polygon",
        "coordinates": [
          [
            [
              -0.5643956553347181,
              -0.11956933760174182
            ],
            [
              -0.45237946962467296,
              -0.2411919977602631
            ],
            [
              -0.37060695222860485,
              0.4122638506806783
            ],
            [
              -0.5797872695035975,
              0.2562751653238235
            ],
            [
              -0.5643956553347181,
              -0.11956933760174182
            ]
          ]
        ]
      }
    },
    {
      "type": "Feature",
      "properties": {
        "cell_id": "CEG2000_f4_r0011_c0100",
        "method": "Direct Polar",
        "view": "annulus"
      },
      "geometry": {
        "type": "Polygon",
        "coordinates": [
          [
            [
              -0.4523822891272631,
              -0.2411880140262312
            ],
            [
              0.4874255832133677,
              -0.5029987417279851
            ],
            [
              0.23544285542933624,
              0.5069274170737718
            ],
            [
              -0.3706119860131556,
              0.4122600714215239
            ],
            [
              -0.4523822891272631,
              -0.2411880140262312
            ]
          ]
        ]
      }
    },
    {
      "type": "Feature",
      "properties": {
        "cell_id": "CEG2000_f4_r0011_c0101",
        "method": "Direct Polar",
        "view": "annulus"
      },
      "geometry": {
        "type": "Polygon",
        "coordinates": [
          [
            [
              0.4874255832133677,
              -0.5029987417279851
            ],
            [
              0.722611252863491,
              -0.1894767250453467
            ],
            [
              0.5021261198031128,
              0.2747044206781526
            ],
            [
              0.23544285542933624,
              0.5069274170737718
            ],
            [
              0.4874255832133677,
              -0.5029987417279851
            ]
          ]
        ]
      }
    },
    {
      "type": "Feature",
      "properties": {
        "cell_id": "CEG2000_f4_r0011_c0102",
        "method": "Direct Polar",
        "view": "annulus"
      },
      "geometry": {
        "type": "Polygon",
        "coordinates": [
          [
            [
              0.7226085843542387,
              -0.18947814529701185
            ],
            [
              0.8851777982583342,
              -0.1329431922871851
            ],
            [
              0.6034220300450671,
              0.18908559207404138
            ],
            [
              0.5021241146190965,
              0.27470639721260937
            ],
            [
              0.7226085843542387,
              -0.18947814529701185
            ]
          ]
        ]
      }
    },
    {
      "type": "Feature",
      "properties": {
        "cell_id": "CEG2000_f4_r0011_c0103",
        "method": "Direct Polar",
        "view": "annulus"
      },
      "geometry": {
        "type": "Polygon",
        "coordinates": [
          [
            [
              0.8851801197732477,
              -0.1329426889927874
            ],
            [
              0.8762745818881631,
              -0.09221116643033861
            ],
            [
              0.6729863120390358,
              0.14775807289649948
            ],
            [
              0.6034231899212835,
              0.1890847437849221
            ],
            [
              0.8851801197732477,
              -0.1329426889927874
            ]
          ]
        ]
      }
    },
    {
      "type": "Feature",
      "properties": {
        "cell_id": "CEG2000_f4_r0011_c0104",
        "method": "Direct Polar",
        "view": "annulus"
      },
      "geometry": {
        "type": "Polygon",
        "coordinates": [
          [
            [
              0.8762763074097012,
              -0.0922109339668666
            ],
            [
              0.9906523584705879,
              -0.08023040370797224
            ],
            [
              0.7346839779662184,
              0.12414234771258698
            ],
            [
              0.6729872726606437,
              0.1477576203515185
            ],
            [
              0.8762763074097012,
              -0.0922109339668666
            ]
          ]
        ]
      }
    },
    {
      "type": "Feature",
      "properties": {
        "cell_id": "CEG2000_f4_r0011_c0105",
        "method": "Direct Polar",
        "view": "annulus"
      },
      "geometry": {
        "type": "Polygon",
        "coordinates": [
          [
            [
              0.9906506499652806,
              -0.08023054259317057
            ],
            [
              0.9978406729190559,
              -0.06568098254781099
            ],
            [
              0.793730074766539,
              0.10900664186838177
            ],
            [
              0.7346830780207826,
              0.12414262464503804
            ],
            [
              0.9906506499652806,
              -0.08023054259317057
            ]
          ]
        ]
      }
    },
    {
      "type": "Feature",
      "properties": {
        "cell_id": "CEG2000_f4_r0011_c0106",
        "method": "Direct Polar",
        "view": "annulus"
      },
      "geometry": {
        "type": "Polygon",
        "coordinates": [
          [
            [
              0.9978406729190559,
              -0.06568098254781099
            ],
            [
              0.9984666340093405,
              -0.055356849350894716
            ],
            [
              0.9484784994756397,
              0.1097152466891411
            ],
            [
              0.793730074766539,
              0.10900664186838177
            ],
            [
              0.9978406729190559,
              -0.06568098254781099
            ]
          ]
        ]
      }
    },
    {
      "type": "Feature",
      "properties": {
        "cell_id": "CEG2000_f4_r0012_c0094",
        "method": "Direct Polar",
        "view": "annulus"
      },
      "geometry": {
        "type": "Polygon",
        "coordinates": [
          [
            [
              -0.9939891883531835,
              0.10947827837968321
            ],
            [
              -0.9550188089644456,
              0.1237723295730881
            ],
            [
              -0.9213738546537377,
              0.2960544753187424
            ],
            [
              -0.9646803976856344,
              0.2634231013428517
            ],
            [
              -0.9939891883531835,
              0.10947827837968321
            ]
          ]
        ]
      }
    },
    {
      "type": "Feature",
      "properties": {
        "cell_id": "CEG2000_f4_r0012_c0095",
        "method": "Direct Polar",
        "view": "annulus"
      },
      "geometry": {
        "type": "Polygon",
        "coordinates": [
          [
            [
              -0.9550201514324944,
              0.12377217550352915
            ],
            [
              -0.8649196525641893,
              0.13615346581653137
            ],
            [
              -0.8423065851212204,
              0.3287359783406089
            ],
            [
              -0.9213749912587961,
              0.2960540558446722
            ],
            [
              -0.9550201514324944,
              0.12377217550352915
            ]
          ]
        ]
      }
    },
    {
      "type": "Feature",
      "properties": {
        "cell_id": "CEG2000_f4_r0012_c0096",
        "method": "Direct Polar",
        "view": "annulus"
      },
      "geometry": {
        "type": "Polygon",
        "coordinates": [
          [
            [
              -0.8649196525641893,
              0.13615346581653137
            ],
            [
              -0.772763870284661,
              0.15488987496006912
            ],
            [
              -0.7455728686271161,
              0.37050188513836513
            ],
            [
              -0.8423065851212204,
              0.3287359783406089
            ],
            [
              -0.8649196525641893,
              0.13615346581653137
            ]
          ]
        ]
      }
    },
    {
      "type": "Feature",
      "properties": {
        "cell_id": "CEG2000_f4_r0012_c0097",
        "method": "Direct Polar",
        "view": "annulus"
      },
      "geometry": {
        "type": "Polygon",
        "coordinates": [
          [
            [
              -0.7727652785826437,
              0.15488952232471057
            ],
            [
              -0.6754790793272574,
              0.18630092115941585
            ],
            [
              -0.6269544292182168,
              0.42870957216732575
            ],
            [
              -0.7455734738716415,
              0.3705006671828286
            ],
            [
              -0.7727652785826437,
              0.15488952232471057
            ]
          ]
        ]
      }
    },
    {
      "type": "Feature",
      "properties": {
        "cell_id": "CEG2000_f4_r0012_c0098",
        "method": "Direct Polar",
        "view": "annulus"
      },
      "geometry": {
        "type": "Polygon",
        "coordinates": [
          [
            [
              -0.6754775456644662,
              0.1863015489978855
            ],
            [
              -0.5797886976787826,
              0.25627537547593915
            ],
            [
              -0.44842391770486567,
              0.4914168097825155
            ],
            [
              -0.6269520010882921,
              0.42871032995391717
            ],
            [
              -0.6754775456644662,
              0.1863015489978855
            ]
          ]
        ]
      }
    },
    {
      "type": "Feature",
      "properties": {
        "cell_id": "CEG2000_f4_r0012_c0099",
        "method": "Direct Polar",
        "view": "annulus"
      },
      "geometry": {
        "type": "Polygon",
        "coordinates": [
          [
            [
              -0.5797865685920232,
              0.25627675103387265
            ],
            [
              -0.3706056832974355,
              0.4122654883977208
            ],
            [
              -0.2105056857840939,
              0.5805676629904416
            ],
            [
              -0.44842133193185096,
              0.49141841833676386
            ],
            [
              -0.5797865685920232,
              0.25627675103387265
            ]
          ]
        ]
      }
    },
    {
      "type": "Feature",
      "properties": {
        "cell_id": "CEG2000_f4_r0012_c0100",
        "method": "Direct Polar",
        "view": "annulus"
      },
      "geometry": {
        "type": "Polygon",
        "coordinates": [
          [
            [
              -0.3706107170953331,
              0.4122617091575726
            ],
            [
              0.23544170811701218,
              0.5069286962628681
            ],
            [
              0.11384543982742143,
              0.6077195701960877
            ],
            [
              -0.21051009367044185,
              0.5805666119970286
            ],
            [
              -0.3706107170953331,
              0.4122617091575726
            ]
          ]
        ]
      }
    },
    {
      "type": "Feature",
      "properties": {
        "cell_id": "CEG2000_f4_r0012_c0101",
        "method": "Direct Polar",
        "view": "annulus"
      },
      "geometry": {
        "type": "Polygon",
        "coordinates": [
          [
            [
              0.23544170811701218,
              0.5069286962628681
            ],
            [
              0.502125393520856,
              0.27470605517631924
            ],
            [
              0.391160415556895,
              0.5305606691543289
            ],
            [
              0.11384543982742143,
              0.6077195701960877
            ],
            [
              0.23544170811701218,
              0.5069286962628681
            ]
          ]
        ]
      }
    },
    {
      "type": "Feature",
      "properties": {
        "cell_id": "CEG2000_f4_r0012_c0102",
        "method": "Direct Polar",
        "view": "annulus"
      },
      "geometry": {
        "type": "Polygon",
        "coordinates": [
          [
            [
              0.502123388325189,
              0.27470803171457575
            ],
            [
              0.6034217666683237,
              0.189086908104959
            ],
            [
              0.5259790395078732,
              0.4086326200305295
            ],
            [
              0.3911572402511074,
              0.5305622984087364
            ],
            [
              0.502123388325189,
              0.27470803171457575
            ]
          ]
        ]
      }
    },
    {
      "type": "Feature",
      "properties": {
        "cell_id": "CEG2000_f4_r0012_c0103",
        "method": "Direct Polar",
        "view": "annulus"
      },
      "geometry": {
        "type": "Polygon",
        "coordinates": [
          [
            [
              0.6034229265485079,
              0.18908605981133758
            ],
            [
              0.672986239654926,
              0.14775914988918187
            ],
            [
              0.62349624728987,
              0.3393955543955887
            ],
            [
              0.5259809454800426,
              0.40863148207858685
            ],
            [
              0.6034229265485079,
              0.18908605981133758
            ]
          ]
        ]
      }
    },
    {
      "type": "Feature",
      "properties": {
        "cell_id": "CEG2000_f4_r0012_c0104",
        "method": "Direct Polar",
        "view": "annulus"
      },
      "geometry": {
        "type": "Polygon",
        "coordinates": [
          [
            [
              0.6729872002782011,
              0.14775869734129107
            ],
            [
              0.7346839851383616,
              0.12414326713713057
            ],
            [
              0.7097358391599402,
              0.29733322397100836
            ],
            [
              0.6234975990722501,
              0.3393947662921669
            ],
            [
              0.6729872002782011,
              0.14775869734129107
            ]
          ]
        ]
      }
    },
    {
      "type": "Feature",
      "properties": {
        "cell_id": "CEG2000_f4_r0012_c0105",
        "method": "Direct Polar",
        "view": "annulus"
      },
      "geometry": {
        "type": "Polygon",
        "coordinates": [
          [
            [
              0.734683085192082,
              0.12414354407149157
            ],
            [
              0.7937301248574862,
              0.10900745500979875
            ],
            [
              0.7870509852474415,
              0.267984891341913
            ],
            [
              0.7097345502451888,
              0.29733371149551263
            ],
            [
              0.734683085192082,
              0.12414354407149157
            ]
          ]
        ]
      }
    },
    {
      "type": "Feature",
      "properties": {
        "cell_id": "CEG2000_f4_r0012_c0106",
        "method": "Direct Polar",
        "view": "annulus"
      },
      "geometry": {
        "type": "Polygon",
        "coordinates": [
          [
            [
              0.7937301248574862,
              0.10900745500979875
            ],
            [
              0.9484779907053553,
              0.10971599934000846
            ],
            [
              0.8538796557697581,
              0.24488572968644637
            ],
            [
              0.7870509852474415,
              0.267984891341913
            ],
            [
              0.7937301248574862,
              0.10900745500979875
            ]
          ]
        ]
      }
    },
    {
      "type": "Feature",
      "properties": {
        "cell_id": "CEG2000_f4_r0012_c0107",
        "method": "Direct Polar",
        "view": "annulus"
      },
      "geometry": {
        "type": "Polygon",
        "coordinates": [
          [
            [
              0.9484767121877579,
              0.10971611099968419
            ],
            [
              0.995045281193991,
              0.09942277592971985
            ],
            [
              0.9174463323168124,
              0.2272729845468248
            ],
            [
              0.8538786821558522,
              0.2448860297840665
            ],
            [
              0.9484767121877579,
              0.10971611099968419
            ]
          ]
        ]
      }
    },
    {
      "type": "Feature",
      "properties": {
        "cell_id": "CEG2000_f4_r0013_c0095",
        "method": "Direct Polar",
        "view": "annulus"
      },
      "geometry": {
        "type": "Polygon",
        "coordinates": [
          [
            [
              -0.9213749912587961,
              0.2960540558446722
            ],
            [
              -0.8423065851212204,
              0.3287359783406089
            ],
            [
              -0.8207462864806072,
              0.5114439705327393
            ],
            [
              -0.889740092446017,
              0.4564674883210775
            ],
            [
              -0.9213749912587961,
              0.2960540558446722
            ]
          ]
        ]
      }
    },
    {
      "type": "Feature",
      "properties": {
        "cell_id": "CEG2000_f4_r0013_c0096",
        "method": "Direct Polar",
        "view": "annulus"
      },
      "geometry": {
        "type": "Polygon",
        "coordinates": [
          [
            [
              -0.8423065851212204,
              0.3287359783406089
            ],
            [
              -0.7455728686271161,
              0.37050188513836513
            ],
            [
              -0.683920444933067,
              0.5426477514504929
            ],
            [
              -0.8207462864806072,
              0.5114439705327393
            ],
            [
              -0.8423065851212204,
              0.3287359783406089
            ]
          ]
        ]
      }
    },
    {
      "type": "Feature",
      "properties": {
        "cell_id": "CEG2000_f4_r0013_c0097",
        "method": "Direct Polar",
        "view": "annulus"
      },
      "geometry": {
        "type": "Polygon",
        "coordinates": [
          [
            [
              -0.7455734738716415,
              0.3705006671828286
            ],
            [
              -0.6269544292182168,
              0.42870957216732575
            ],
            [
              -0.5242456036155477,
              0.572366355671331
            ],
            [
              -0.6839221670927733,
              0.5426468935059662
            ],
            [
              -0.7455734738716415,
              0.3705006671828286
            ]
          ]
        ]
      }
    },
    {
      "type": "Feature",
      "properties": {
        "cell_id": "CEG2000_f4_r0013_c0098",
        "method": "Direct Polar",
        "view": "annulus"
      },
      "geometry": {
        "type": "Polygon",
        "coordinates": [
          [
            [
              -0.6269520010882921,
              0.42871032995391717
            ],
            [
              -0.44842391770486567,
              0.4914168097825155
            ],
            [
              -0.35680502293837707,
              0.6243157538139477
            ],
            [
              -0.5242436209164044,
              0.5723674194096989
            ],
            [
              -0.6269520010882921,
              0.42871032995391717
            ]
          ]
        ]
      }
    },
    {
      "type": "Feature",
      "properties": {
        "cell_id": "CEG2000_f4_r0013_c0099",
        "method": "Direct Polar",
        "view": "annulus"
      },
      "geometry": {
        "type": "Polygon",
        "coordinates": [
          [
            [
              -0.44842133193185096,
              0.49141841833676386
            ],
            [
              -0.2105056857840939,
              0.5805676629904416
            ],
            [
              -0.1519452470461072,
              0.66909568040515
            ],
            [
              -0.35680268188147346,
              0.6243173011709401
            ],
            [
              -0.44842133193185096,
              0.49141841833676386
            ]
          ]
        ]
      }
    },
    {
      "type": "Feature",
      "properties": {
        "cell_id": "CEG2000_f4_r0013_c0100",
        "method": "Direct Polar",
        "view": "annulus"
      },
      "geometry": {
        "type": "Polygon",
        "coordinates": [
          [
            [
              -0.21051009367044185,
              0.5805666119970286
            ],
            [
              0.11384543982742143,
              0.6077195701960877
            ],
            [
              0.08210115367350139,
              0.6997597161431327
            ],
            [
              -0.15194864818547849,
              0.6690954356159892
            ],
            [
              -0.21051009367044185,
              0.5805666119970286
            ]
          ]
        ]
      }
    },
    {
      "type": "Feature",
      "properties": {
        "cell_id": "CEG2000_f4_r0013_c0101",
        "method": "Direct Polar",
        "view": "annulus"
      },
      "geometry": {
        "type": "Polygon",
        "coordinates": [
          [
            [
              0.11384543982742143,
              0.6077195701960877
            ],
            [
              0.391160415556895,
              0.5305606691543289
            ],
            [
              0.3323391958274361,
              0.7197369727653474
            ],
            [
              0.08210115367350139,
              0.6997597161431327
            ],
            [
              0.11384543982742143,
              0.6077195701960877
            ]
          ]
        ]
      }
    },
    {
      "type": "Feature",
      "properties": {
        "cell_id": "CEG2000_f4_r0013_c0102",
        "method": "Direct Polar",
        "view": "annulus"
      },
      "geometry": {
        "type": "Polygon",
        "coordinates": [
          [
            [
              0.3911572402511074,
              0.5305622984087364
            ],
            [
              0.5259790395078732,
              0.4086326200305295
            ],
            [
              0.48559294277651643,
              0.6023501956951279
            ],
            [
              0.3323363631251562,
              0.7197388908216195
            ],
            [
              0.3911572402511074,
              0.5305622984087364
            ]
          ]
        ]
      }
    },
    {
      "type": "Feature",
      "properties": {
        "cell_id": "CEG2000_f4_r0013_c0103",
        "method": "Direct Polar",
        "view": "annulus"
      },
      "geometry": {
        "type": "Polygon",
        "coordinates": [
          [
            [
              0.5259809454800426,
              0.40863148207858685
            ],
            [
              0.62349624728987,
              0.3393955543955887
            ],
            [
              0.5704062034213282,
              0.4957567548292265
            ],
            [
              0.4855951884423593,
              0.6023491211824742
            ],
            [
              0.5259809454800426,
              0.40863148207858685
            ]
          ]
        ]
      }
    },
    {
      "type": "Feature",
      "properties": {
        "cell_id": "CEG2000_f4_r0013_c0104",
        "method": "Direct Polar",
        "view": "annulus"
      },
      "geometry": {
        "type": "Polygon",
        "coordinates": [
          [
            [
              0.6234975990722501,
              0.3393947662921669
            ],
            [
              0.7097358391599402,
              0.29733322397100836
            ],
            [
              0.6594548515783718,
              0.4411069152516577
            ],
            [
              0.5704079146581864,
              0.4957560160925061
            ],
            [
              0.6234975990722501,
              0.3393947662921669
            ]
          ]
        ]
      }
    },
    {
      "type": "Feature",
      "properties": {
        "cell_id": "CEG2000_f4_r0013_c0105",
        "method": "Direct Polar",
        "view": "annulus"
      },
      "geometry": {
        "type": "Polygon",
        "coordinates": [
          [
            [
              0.7097345502451888,
              0.29733371149551263
            ],
            [
              0.7870509852474415,
              0.267984891341913
            ],
            [
              0.7445060282623964,
              0.40475083763498154
            ],
            [
              0.6594534734648321,
              0.44110751777180696
            ],
            [
              0.7097345502451888,
              0.29733371149551263
            ]
          ]
        ]
      }
    },
    {
      "type": "Feature",
      "properties": {
        "cell_id": "CEG2000_f4_r0013_c0106",
        "method": "Direct Polar",
        "view": "annulus"
      },
      "geometry": {
        "type": "Polygon",
        "coordinates": [
          [
            [
              0.7870509852474415,
              0.267984891341913
            ],
            [
              0.8538796557697581,
              0.24488572968644637
            ],
            [
              0.8209199587274476,
              0.3759064011291349
            ],
            [
              0.7445060282623964,
              0.40475083763498154
            ],
            [
              0.7870509852474415,
              0.267984891341913
            ]
          ]
        ]
      }
    },
    {
      "type": "Feature",
      "properties": {
        "cell_id": "CEG2000_f4_r0013_c0107",
        "method": "Direct Polar",
        "view": "annulus"
      },
      "geometry": {
        "type": "Polygon",
        "coordinates": [
          [
            [
              0.8538786821558522,
              0.2448860297840665
            ],
            [
              0.9174463323168124,
              0.2272729845468248
            ],
            [
              0.9016219784431513,
              0.35661838662514356
            ],
            [
              0.8209187125024654,
              0.37590671974713474
            ],
            [
              0.8538786821558522,
              0.2448860297840665
            ]
          ]
        ]
      }
    },
    {
      "type": "Feature",
      "properties": {
        "cell_id": "CEG2000_f4_r0013_c0108",
        "method": "Direct Polar",
        "view": "annulus"
      },
      "geometry": {
        "type": "Polygon",
        "coordinates": [
          [
            [
              0.9174472688349086,
              0.22727275213190218
            ],
            [
              0.9770480401640275,
              0.2130190771072696
            ],
            [
              0.9444139974446001,
              0.3287585762086077
            ],
            [
              0.9016231579832683,
              0.35661812444980767
            ],
            [
              0.9174472688349086,
              0.22727275213190218
            ]
          ]
        ]
      }
    },
    {
      "type": "Feature",
      "properties": {
        "cell_id": "CEG2000_f4_r0014_c0095",
        "method": "Direct Polar",
        "view": "annulus"
      },
      "geometry": {
        "type": "Polygon",
        "coordinates": [
          [
            [
              -0.8897400924460179,
              0.45646748832107586
            ],
            [
              -0.8207462864806081,
              0.5114439705327378
            ],
            [
              -0.759638343627736,
              0.6502575574517033
            ],
            [
              -0.8174030802554129,
              0.5760661458452173
            ],
            [
              -0.8897400924460179,
              0.45646748832107586
            ]
          ]
        ]
      }
    },
    {
      "type": "Feature",
      "properties": {
        "cell_id": "CEG2000_f4_r0014_c0096",
        "method": "Direct Polar",
        "view": "annulus"
      },
      "geometry": {
        "type": "Polygon",
        "coordinates": [
          [
            [
              -0.8207462864806081,
              0.5114439705327378
            ],
            [
              -0.6839204449330676,
              0.542647751450492
            ],
            [
              -0.5997072147046054,
              0.6536437130946254
            ],
            [
              -0.759638343627736,
              0.6502575574517033
            ],
            [
              -0.8207462864806081,
              0.5114439705327378
            ]
          ]
        ]
      }
    },
    {
      "type": "Feature",
      "properties": {
        "cell_id": "CEG2000_f4_r0014_c0097",
        "method": "Direct Polar",
        "view": "annulus"
      },
      "geometry": {
        "type": "Polygon",
        "coordinates": [
          [
            [
              -0.6839221670927725,
              0.5426468935059635
            ],
            [
              -0.5242456036155478,
              0.5723663556713291
            ],
            [
              -0.45245842076222986,
              0.6785898655766158
            ],
            [
              -0.5997089244602645,
              0.6536428972678033
            ],
            [
              -0.6839221670927725,
              0.5426468935059635
            ]
          ]
        ]
      }
    },
    {
      "type": "Feature",
      "properties": {
        "cell_id": "CEG2000_f4_r0014_c0098",
        "method": "Direct Polar",
        "view": "annulus"
      },
      "geometry": {
        "type": "Polygon",
        "coordinates": [
          [
            [
              -0.5242436209164053,
              0.5723674194096978
            ],
            [
              -0.35680502293837757,
              0.6243157538139466
            ],
            [
              -0.32403319850448925,
              0.778847151192589
            ],
            [
              -0.45245590124714125,
              0.6785899144252883
            ],
            [
              -0.5242436209164053,
              0.5723674194096978
            ]
          ]
        ]
      }
    },
    {
      "type": "Feature",
      "properties": {
        "cell_id": "CEG2000_f4_r0014_c0099",
        "method": "Direct Polar",
        "view": "annulus"
      },
      "geometry": {
        "type": "Polygon",
        "coordinates": [
          [
            [
              -0.35680268188147385,
              0.6243173011709382
            ],
            [
              -0.15194524704610773,
              0.6690956804051496
            ],
            [
              -0.12614194623638558,
              0.7630447833294307
            ],
            [
              -0.3240305736064904,
              0.7788478824751345
            ],
            [
              -0.35680268188147385,
              0.6243173011709382
            ]
          ]
        ]
      }
    },
    {
      "type": "Feature",
      "properties": {
        "cell_id": "CEG2000_f4_r0014_c0100",
        "method": "Direct Polar",
        "view": "annulus"
      },
      "geometry": {
        "type": "Polygon",
        "coordinates": [
          [
            [
              -0.15194864818547885,
              0.6690954356159886
            ],
            [
              0.08210115367350145,
              0.6997597161431319
            ],
            [
              0.06729994798935325,
              0.7879593254768519
            ],
            [
              -0.12614463237514115,
              0.7630436729207327
            ],
            [
              -0.15194864818547885,
              0.6690954356159886
            ]
          ]
        ]
      }
    },
    {
      "type": "Feature",
      "properties": {
        "cell_id": "CEG2000_f4_r0014_c0101",
        "method": "Direct Polar",
        "view": "annulus"
      },
      "geometry": {
        "type": "Polygon",
        "coordinates": [
          [
            [
              0.08210115367350145,
              0.6997597161431319
            ],
            [
              0.33233919582743626,
              0.7197369727653457
            ],
            [
              0.25205833819137663,
              0.7498643562400433
            ],
            [
              0.06729994798935325,
              0.7879593254768519
            ],
            [
              0.08210115367350145,
              0.6997597161431319
            ]
          ]
        ]
      }
    },
    {
      "type": "Feature",
      "properties": {
        "cell_id": "CEG2000_f4_r0014_c0102",
        "method": "Direct Polar",
        "view": "annulus"
      },
      "geometry": {
        "type": "Polygon",
        "coordinates": [
          [
            [
              0.33233636312515663,
              0.7197388908216183
            ],
            [
              0.4855929427765173,
              0.6023501956951269
            ],
            [
              0.45107691746572093,
              0.7686288597183102
            ],
            [
              0.25205556622325215,
              0.7498644995487241
            ],
            [
              0.33233636312515663,
              0.7197388908216183
            ]
          ]
        ]
      }
    },
    {
      "type": "Feature",
      "properties": {
        "cell_id": "CEG2000_f4_r0014_c0103",
        "method": "Direct Polar",
        "view": "annulus"
      },
      "geometry": {
        "type": "Polygon",
        "coordinates": [
          [
            [
              0.48559518844235994,
              0.602349121182473
            ],
            [
              0.5704062034213281,
              0.4957567548292248
            ],
            [
              0.5703497546068661,
              0.6809497314429112
            ],
            [
              0.4510787873062695,
              0.7686271201820526
            ],
            [
              0.48559518844235994,
              0.602349121182473
            ]
          ]
        ]
      }
    },
    {
      "type": "Feature",
      "properties": {
        "cell_id": "CEG2000_f4_r0014_c0104",
        "method": "Direct Polar",
        "view": "annulus"
      },
      "geometry": {
        "type": "Polygon",
        "coordinates": [
          [
            [
              0.5704079146581864,
              0.4957560160925044
            ],
            [
              0.6594548515783726,
              0.44110691525165663
            ],
            [
              0.6373365940592592,
              0.5856215468082555
            ],
            [
              0.5703516275416549,
              0.6809489100016339
            ],
            [
              0.5704079146581864,
              0.4957560160925044
            ]
          ]
        ]
      }
    },
    {
      "type": "Feature",
      "properties": {
        "cell_id": "CEG2000_f4_r0014_c0105",
        "method": "Direct Polar",
        "view": "annulus"
      },
      "geometry": {
        "type": "Polygon",
        "coordinates": [
          [
            [
              0.6594534734648325,
              0.4411075177718058
            ],
            [
              0.744506028262397,
              0.4047508376349805
            ],
            [
              0.7204744314534399,
              0.5380560316169762
            ],
            [
              0.6373352847981535,
              0.5856223675189524
            ],
            [
              0.6594534734648325,
              0.4411075177718058
            ]
          ]
        ]
      }
    },
    {
      "type": "Feature",
      "properties": {
        "cell_id": "CEG2000_f4_r0014_c0106",
        "method": "Direct Polar",
        "view": "annulus"
      },
      "geometry": {
        "type": "Polygon",
        "coordinates": [
          [
            [
              0.744506028262397,
              0.4047508376349805
            ],
            [
              0.8209199587274478,
              0.3759064011291338
            ],
            [
              0.7879834115488624,
              0.49566171482603105
            ],
            [
              0.7204744314534399,
              0.5380560316169762
            ],
            [
              0.744506028262397,
              0.4047508376349805
            ]
          ]
        ]
      }
    },
    {
      "type": "Feature",
      "properties": {
        "cell_id": "CEG2000_f4_r0014_c0107",
        "method": "Direct Polar",
        "view": "annulus"
      },
      "geometry": {
        "type": "Polygon",
        "coordinates": [
          [
            [
              0.8209187125024658,
              0.37590671974713374
            ],
            [
              0.9016219784431515,
              0.3566183866251425
            ],
            [
              0.8654478573175917,
              0.47022914325423276
            ],
            [
              0.7879821970227069,
              0.4956621234363488
            ],
            [
              0.8209187125024658,
              0.37590671974713374
            ]
          ]
        ]
      }
    },
    {
      "type": "Feature",
      "properties": {
        "cell_id": "CEG2000_f4_r0014_c0108",
        "method": "Direct Polar",
        "view": "annulus"
      },
      "geometry": {
        "type": "Polygon",
        "coordinates": [
          [
            [
              0.9016231579832686,
              0.3566181244498067
            ],
            [
              0.9444139974446004,
              0.32875857620860677
            ],
            [
              0.9021577220059193,
              0.4314063567277266
            ],
            [
              0.8654489725556344,
              0.47022878833111326
            ],
            [
              0.9016231579832686,
              0.3566181244498067
            ]
          ]
        ]
      }
    },
    {
      "type": "Feature",
      "properties": {
        "cell_id": "CEG2000_f4_r0015_c0096",
        "method": "Direct Polar",
        "view": "annulus"
      },
      "geometry": {
        "type": "Polygon",
        "coordinates": [
          [
            [
              -0.759638343627736,
              0.6502575574517033
            ],
            [
              -0.5997072147046054,
              0.6536437130946254
            ],
            [
              -0.5451547248667924,
              0.7558246635805227
            ],
            [
              -0.6750432951319134,
              0.7350377132375563
            ],
            [
              -0.759638343627736,
              0.6502575574517033
            ]
          ]
        ]
      }
    },
    {
      "type": "Feature",
      "properties": {
        "cell_id": "CEG2000_f4_r0015_c0097",
        "method": "Direct Polar",
        "view": "annulus"
      },
      "geometry": {
        "type": "Polygon",
        "coordinates": [
          [
            [
              -0.5997089244602645,
              0.6536428972678033
            ],
            [
              -0.45245842076222986,
              0.6785898655766158
            ],
            [
              -0.41814782770734005,
              0.7977338177106676
            ],
            [
              -0.5451569886686072,
              0.755824703998243
            ],
            [
              -0.5997089244602645,
              0.6536428972678033
            ]
          ]
        ]
      }
    },
    {
      "type": "Feature",
      "properties": {
        "cell_id": "CEG2000_f4_r0015_c0098",
        "method": "Direct Polar",
        "view": "annulus"
      },
      "geometry": {
        "type": "Polygon",
        "coordinates": [
          [
            [
              -0.45245590124714125,
              0.6785899144252883
            ],
            [
              -0.32403319850448925,
              0.778847151192589
            ],
            [
              -0.26659272919005134,
              0.8150992487352543
            ],
            [
              -0.41814606190816944,
              0.7977349485681522
            ],
            [
              -0.45245590124714125,
              0.6785899144252883
            ]
          ]
        ]
      }
    },
    {
      "type": "Feature",
      "properties": {
        "cell_id": "CEG2000_f4_r0015_c0099",
        "method": "Direct Polar",
        "view": "annulus"
      },
      "geometry": {
        "type": "Polygon",
        "coordinates": [
          [
            [
              -0.3240305736064904,
              0.7788478824751345
            ],
            [
              -0.12614194623638558,
              0.7630447833294307
            ],
            [
              -0.110972564707196,
              0.8538971961987463
            ],
            [
              -0.2665903922373115,
              0.8150994717685566
            ],
            [
              -0.3240305736064904,
              0.7788478824751345
            ]
          ]
        ]
      }
    },
    {
      "type": "Feature",
      "properties": {
        "cell_id": "CEG2000_f4_r0015_c0100",
        "method": "Direct Polar",
        "view": "annulus"
      },
      "geometry": {
        "type": "Polygon",
        "coordinates": [
          [
            [
              -0.12614463237514115,
              0.7630436729207327
            ],
            [
              0.06729994798935325,
              0.7879593254768519
            ],
            [
              0.05876007873597392,
              0.8751266396794662
            ],
            [
              -0.11097496265394959,
              0.8538962216045838
            ],
            [
              -0.12614463237514115,
              0.7630436729207327
            ]
          ]
        ]
      }
    },
    {
      "type": "Feature",
      "properties": {
        "cell_id": "CEG2000_f4_r0015_c0101",
        "method": "Direct Polar",
        "view": "annulus"
      },
      "geometry": {
        "type": "Polygon",
        "coordinates": [
          [
            [
              0.06729994798935325,
              0.7879593254768519
            ],
            [
              0.25205833819137663,
              0.7498643562400433
            ],
            [
              0.219362056848429,
              0.8301233225279067
            ],
            [
              0.05876007873597392,
              0.8751266396794662
            ],
            [
              0.06729994798935325,
              0.7879593254768519
            ]
          ]
        ]
      }
    },
    {
      "type": "Feature",
      "properties": {
        "cell_id": "CEG2000_f4_r0015_c0102",
        "method": "Direct Polar",
        "view": "annulus"
      },
      "geometry": {
        "type": "Polygon",
        "coordinates": [
          [
            [
              0.25205556622325215,
              0.7498644995487241
            ],
            [
              0.45107691746572093,
              0.7686288597183102
            ],
            [
              0.4189202203415553,
              0.9080230443050346
            ],
            [
              0.21935983353970215,
              0.8301241967402807
            ],
            [
              0.25205556622325215,
              0.7498644995487241
            ]
          ]
        ]
      }
    },
    {
      "type": "Feature",
      "properties": {
        "cell_id": "CEG2000_f4_r0015_c0103",
        "method": "Direct Polar",
        "view": "annulus"
      },
      "geometry": {
        "type": "Polygon",
        "coordinates": [
          [
            [
              0.4510787873062695,
              0.7686271201820526
            ],
            [
              0.5703497546068661,
              0.6809497314429112
            ],
            [
              0.5442601480991323,
              0.8265702947609908
            ],
            [
              0.41892243383502176,
              0.9080220230973155
            ],
            [
              0.4510787873062695,
              0.7686271201820526
            ]
          ]
        ]
      }
    },
    {
      "type": "Feature",
      "properties": {
        "cell_id": "CEG2000_f4_r0015_c0104",
        "method": "Direct Polar",
        "view": "annulus"
      },
      "geometry": {
        "type": "Polygon",
        "coordinates": [
          [
            [
              0.5703516275416549,
              0.6809489100016339
            ],
            [
              0.6373365940592592,
              0.5856215468082555
            ],
            [
              0.6500993785653307,
              0.7598491942411801
            ],
            [
              0.5442615482114471,
              0.8265687096936483
            ],
            [
              0.5703516275416549,
              0.6809489100016339
            ]
          ]
        ]
      }
    },
    {
      "type": "Feature",
      "properties": {
        "cell_id": "CEG2000_f4_r0015_c0105",
        "method": "Direct Polar",
        "view": "annulus"
      },
      "geometry": {
        "type": "Polygon",
        "coordinates": [
          [
            [
              0.6373352847981535,
              0.5856223675189524
            ],
            [
              0.7204744314534399,
              0.5380560316169762
            ],
            [
              0.6999889211156501,
              0.6649661861633824
            ],
            [
              0.6500980814710693,
              0.7598503039860122
            ],
            [
              0.6373352847981535,
              0.5856223675189524
            ]
          ]
        ]
      }
    },
    {
      "type": "Feature",
      "properties": {
        "cell_id": "CEG2000_f4_r0015_c0106",
        "method": "Direct Polar",
        "view": "annulus"
      },
      "geometry": {
        "type": "Polygon",
        "coordinates": [
          [
            [
              0.7204744314534399,
              0.5380560316169762
            ],
            [
              0.7879834115488624,
              0.49566171482603105
            ],
            [
              0.7721429631551188,
              0.6178250062154153
            ],
            [
              0.6999889211156501,
              0.6649661861633824
            ],
            [
              0.7204744314534399,
              0.5380560316169762
            ]
          ]
        ]
      }
    },
    {
      "type": "Feature",
      "properties": {
        "cell_id": "CEG2000_f4_r0015_c0107",
        "method": "Direct Polar",
        "view": "annulus"
      },
      "geometry": {
        "type": "Polygon",
        "coordinates": [
          [
            [
              0.7879821970227069,
              0.4956621234363488
            ],
            [
              0.8654478573175917,
              0.47022914325423276
            ],
            [
              0.8226402246852931,
              0.5685622751552644
            ],
            [
              0.7721416200569252,
              0.6178253931220321
            ],
            [
              0.7879821970227069,
              0.4956621234363488
            ]
          ]
        ]
      }
    },
    {
      "type": "Feature",
      "properties": {
        "cell_id": "CEG2000_f4_r0016_c0096",
        "method": "Direct Polar",
        "view": "annulus"
      },
      "geometry": {
        "type": "Polygon",
        "coordinates": [
          [
            [
              -0.6750434366837613,
              0.7350370814020176
            ],
            [
              -0.5451550327197231,
              0.7558242822049946
            ],
            [
              -0.5033754511196171,
              0.8471508105073375
            ],
            [
              -0.6033527972493046,
              0.7974743895896843
            ],
            [
              -0.6750434366837613,
              0.7350370814020176
            ]
          ]
        ]
      }
    },
    {
      "type": "Feature",
      "properties": {
        "cell_id": "CEG2000_f4_r0016_c0097",
        "method": "Direct Polar",
        "view": "annulus"
      },
      "geometry": {
        "type": "Polygon",
        "coordinates": [
          [
            [
              -0.5451572965218503,
              0.7558243226213559
            ],
            [
              -0.4181479536193413,
              0.7977332049148591
            ],
            [
              -0.39643870710660395,
              0.918061191592175
            ],
            [
              -0.5033768832085633,
              0.8471497480669047
            ],
            [
              -0.5451572965218503,
              0.7558243226213559
            ]
          ]
        ]
      }
    },
    {
      "type": "Feature",
      "properties": {
        "cell_id": "CEG2000_f4_r0016_c0098",
        "method": "Direct Polar",
        "view": "annulus"
      },
      "geometry": {
        "type": "Polygon",
        "coordinates": [
          [
            [
              -0.4181461878205373,
              0.7977343357731885
            ],
            [
              -0.2665928801144398,
              0.8150988386050003
            ],
            [
              -0.24095763448564878,
              0.894273379738287
            ],
            [
              -0.3964368224318585,
              0.9180620054332557
            ],
            [
              -0.4181461878205373,
              0.7977343357731885
            ]
          ]
        ]
      }
    },
    {
      "type": "Feature",
      "properties": {
        "cell_id": "CEG2000_f4_r0016_c0099",
        "method": "Direct Polar",
        "view": "annulus"
      },
      "geometry": {
        "type": "Polygon",
        "coordinates": [
          [
            [
              -0.2665905431607629,
              0.8150990616393708
            ],
            [
              -0.11097262490096278,
              0.8538967463066349
            ],
            [
              -0.1009999976106858,
              0.943362802617642
            ],
            [
              -0.2409554698981758,
              0.8942734301382482
            ],
            [
              -0.2665905431607629,
              0.8150990616393708
            ]
          ]
        ]
      }
    },
    {
      "type": "Feature",
      "properties": {
        "cell_id": "CEG2000_f4_r0016_c0100",
        "method": "Direct Polar",
        "view": "annulus"
      },
      "geometry": {
        "type": "Polygon",
        "coordinates": [
          [
            [
              -0.11097502284888573,
              0.8538957717119755
            ],
            [
              0.05876011238821698,
              0.8751262051059508
            ],
            [
              0.05320734802291634,
              0.9618947811921793
            ],
            [
              -0.10100219931589173,
              0.9433619057102791
            ],
            [
              -0.11097502284888573,
              0.8538957717119755
            ]
          ]
        ]
      }
    },
    {
      "type": "Feature",
      "properties": {
        "cell_id": "CEG2000_f4_r0016_c0101",
        "method": "Direct Polar",
        "view": "annulus"
      },
      "geometry": {
        "type": "Polygon",
        "coordinates": [
          [
            [
              0.05876011238821698,
              0.8751262051059508
            ],
            [
              0.21936216589913105,
              0.8301228475621949
            ],
            [
              0.20099083075666083,
              0.9232615963812227
            ],
            [
              0.05320734802291634,
              0.9618947811921793
            ],
            [
              0.05876011238821698,
              0.8751262051059508
            ]
          ]
        ]
      }
    },
    {
      "type": "Feature",
      "properties": {
        "cell_id": "CEG2000_f4_r0016_c0105",
        "method": "Direct Polar",
        "view": "annulus"
      },
      "geometry": {
        "type": "Polygon",
        "coordinates": [
          [
            [
              0.6500984828274533,
              0.7598499606010672
            ],
            [
              0.6999890126283528,
              0.6649655620563844
            ],
            [
              0.6551648388267058,
              0.7554859588140448
            ],
            [
              0.576108100849045,
              0.8173735107869026
            ],
            [
              0.6500984828274533,
              0.7598499606010672
            ]
          ]
        ]
      }
    },
    {
      "type": "Feature",
      "properties": {
        "cell_id": "CEG2000_f4_r0016_c0106",
        "method": "Direct Polar",
        "view": "annulus"
      },
      "geometry": {
        "type": "Polygon",
        "coordinates": [
          [
            [
              0.6999890126283528,
              0.6649655620563844
            ],
            [
              0.7721431453514965,
              0.6178244913650777
            ],
            [
              0.7173400700907944,
              0.6967232046100763
            ],
            [
              0.6551648388267058,
              0.7554859588140448
            ],
            [
              0.6999890126283528,
              0.6649655620563844
            ]
          ]
        ]
      }
    },
    {
      "type": "Feature",
      "properties": {
        "cell_id": "CEG2000_f4_r0017_c0098",
        "method": "Direct Polar",
        "view": "annulus"
      },
      "geometry": {
        "type": "Polygon",
        "coordinates": [
          [
            [
              -0.3964365280945327,
              0.9180621325337152
            ],
            [
              -0.24095752580217997,
              0.8942737641449241
            ],
            [
              -0.22212714577075773,
              0.969628092246432
            ],
            [
              -0.3446437258619538,
              0.9387335629580901
            ],
            [
              -0.3964365280945327,
              0.9180621325337152
            ]
          ]
        ]
      }
    },
    {
      "type": "Feature",
      "properties": {
        "cell_id": "CEG2000_f4_r0017_c0099",
        "method": "Direct Polar",
        "view": "annulus"
      },
      "geometry": {
        "type": "Polygon",
        "coordinates": [
          [
            [
              -0.24095536121549085,
              0.8942738145441922
            ],
            [
              -0.1009999563161152,
              0.9433632479269015
            ],
            [
              -0.09065188457789483,
              0.9958826415911044
            ],
            [
              -0.22212512306107923,
              0.9696280278028586
            ],
            [
              -0.24095536121549085,
              0.8942738145441922
            ]
          ]
        ]
      }
    },
    {
      "type": "Feature",
      "properties": {
        "cell_id": "CEG2000_f4_r0017_c0100",
        "method": "Direct Polar",
        "view": "annulus"
      },
      "geometry": {
        "type": "Polygon",
        "coordinates": [
          [
            [
              -0.10100215802049883,
              0.943362351019841
            ],
            [
              0.05320732511881439,
              0.9618952144612248
            ],
            [
              0.04697754896364563,
              0.9988959454784909
            ],
            [
              -0.0906539299454829,
              0.9958824554059779
            ],
            [
              -0.10100215802049883,
              0.943362351019841
            ]
          ]
        ]
      }
    },
    {
      "type": "Feature",
      "properties": {
        "cell_id": "CEG2000_f4_r0017_c0101",
        "method": "Direct Polar",
        "view": "annulus"
      },
      "geometry": {
        "type": "Polygon",
        "coordinates": [
          [
            [
              0.05320732511881439,
              0.9618952144612248
            ],
            [
              0.2009907534674955,
              0.9232620546522279
            ],
            [
              0.1819965700923068,
              0.9832991652974369
            ],
            [
              0.04697754896364563,
              0.9988959454784909
            ],
            [
              0.05320732511881439,
              0.9618952144612248
            ]
          ]
        ]
      }
    },
    {
      "type": "Feature",
      "properties": {
        "cell_id": "CEG2000_f4_r0017_c0102",
        "method": "Direct Polar",
        "view": "annulus"
      },
      "geometry": {
        "type": "Polygon",
        "coordinates": [
          [
            [
              0.2009886654051045,
              0.9232627928918411
            ],
            [
              0.355277123873104,
              0.9347610203963659
            ],
            [
              0.3074863508571839,
              0.9515524914772346
            ],
            [
              0.18199460128026684,
              0.9832995296982688
            ],
            [
              0.2009886654051045,
              0.9232627928918411
            ]
          ]
        ]
      }
    }
  ]
}