{
  "type": "FeatureCollection",
  "features": [
    {
      "type": "Feature",
      "properties": {
        "name": "湖北",
        "name_en": "Hubei"
      },
      "geometry": {
        "type": "Polygon",
        "coordinates": [
          [
            [
              110.2148,
              31.1572
            ],
            [
              110.127,
              31.377
            ],
            [
              109.6875,
              31.5527
            ],
            [
              109.7754,
              31.6846
            ],
            [
              109.5996,
              31.7285
            ],
            [
              109.5117,
              32.4316
            ],
            [
              109.6875,
              32.6074
            ],
            [
              110.127,
              32.6074
            ],
            [
              110.127,
              32.7393
            ],
            [
              109.7754,
              32.915
            ],
            [
              109.7754,
              33.0469
            ],
            [
              109.4238,
              33.1348
            ],
            [
              109.5996,
              33.2666
            ],
            [
              110.3027,
              33.1787
            ],
            [
              110.5664,
              33.2666
            ],
            [
              110.7422,
              33.1348
            ],
            [
              111.0059,
              33.2666
            ],
            [
              111.5332,
              32.6074
            ],
            [
              112.3242,
              32.3438
            ],
            [
              113.2031,
              32.4316
            ],
            [
              113.4668,
              32.2998
            ],
            [
              113.7305,
              32.4316
            ],
            [
              113.8184,
              31.8604
            ],
            [
              113.9941,
              31.7725
            ],
            [
              114.1699,
              31.8604
            ],
            [
              114.5215,
              31.7725
            ],
            [
              114.6094,
              31.5527
            ],
            [
              114.7852,
              31.4648
            ],
            [
              115.1367,
              31.5967
            ],
            [
              115.2246,
              31.4209
            ],
            [
              115.4004,
              31.4209
            ],
            [
              115.5762,
              31.2012
            ],
            [
              116.0156,
              31.0254
            ],
            [
              115.752,
              30.6738
            ],
            [
              116.1035,
              30.1904
            ],
            [
              116.1035,
              29.8389
            ],
            [
              115.9277,
              29.707
            ],
            [
              115.4883,
              29.7949
            ],
            [
              114.873,
              29.3994
            ],
            [
              114.2578,
              29.3555
            ],
            [
              113.9063,
              29.0479
            ],
            [
              113.7305,
              29.0918
            ],
            [
              113.6426,
              29.3115
            ],
            [
              113.7305,
              29.5752
            ],
            [
              113.5547,
              29.707
            ],
            [
              113.5547,
              29.8389
            ],
            [
              113.0273,
              29.4434
            ],
            [
              112.9395,
              29.4873
            ],
            [
              113.0273,
              29.751
            ],
            [
              112.9395,
              29.7949
            ],
            [
              112.6758,
              29.5752
            ],
            [
              112.5,
              29.6191
            ],
            [
              112.2363,
              29.5313
            ],
            [
              111.7969,
              29.9268
            ],
            [
              110.8301,
              30.1465
            ],
            [
              110.4785,
              30.0146
            ],
            [
              110.6543,
              29.751
            ],
            [
              110.4785,
              29.6631
            ],
            [
              109.7754,
              29.751
            ],
            [
              109.6875,
              29.6191
            ],
            [
              109.5117,
              29.6191
            ],
            [
              109.248,
              29.1357
            ],
            [
              109.0723,
              29.3555
            ],
            [
              108.9844,
              29.3115
            ],
            [
              108.6328,
              29.8389
            ],
            [
              108.457,
              29.7949
            ],
            [
              108.5449,
              30.2344
            ],
            [
              108.457,
              30.4102
            ],
            [
              108.6328,
              30.5859
            ],
            [
              108.8086,
              30.498
            ],
            [
              109.0723,
              30.6299
            ],
            [
              109.1602,
              30.542
            ],
            [
              109.248,
              30.6299
            ],
            [
              109.4238,
              30.542
            ],
            [
              109.8633,
              30.8936
            ],
            [
              110.0391,
              30.8057
            ],
            [
              110.2148,
              31.1572
            ]
          ]
        ]
      }
    },
    {
      "type": "Feature",
      "properties": {
        "name": "湖南",
        "name_en": "Hunan"
      },
      "geometry": {
        "type": "Polygon",
        "coordinates": [
          [
            [
              109.248,
              28.4766
            ],
            [
              109.248,
              29.1357
            ],
            [
              109.5117,
              29.6191
            ],
            [
              109.6875,
              29.6191
            ],
            [
              109.7754,
              29.751
            ],
            [
              110.4785,
              29.6631
            ],
            [
              110.6543,
              29.751
            ],
            [
              110.4785,
              30.0146
            ],
            [
              110.8301,
              30.1465
            ],
            [
              111.7969,
              29.9268
            ],
            [
              112.2363,
              29.5313
            ],
            [
              112.5,
              29.6191
            ],
            [
              112.6758,
              29.5752
            ],
            [
              112.9395,
              29.7949
            ],
            [
              113.0273,
              29.751
            ],
            [
              112.9395,
              29.4873
            ],
            [
              113.0273,
              29.4434
            ],
            [
              113.5547,
              29.8389
            ],
            [
              113.5547,
              29.707
            ],
            [
              113.7305,
              29.5752
            ],
            [
              113.6426,
              29.3115
            ],
            [
              113.7305,
              29.0918
            ],
            [
              113.9063,
              29.0479
            ],
            [
              114.1699,
              28.8281
            ],
            [
              114.082,
              28.5645
            ],
            [
              114.2578,
              28.3447
            ],
            [
              113.7305,
              27.9492
            ],
            [
              113.6426,
              27.5977
            ],
            [
              113.6426,
              27.3779
            ],
            [
              113.8184,
              27.29
            ],
            [
              113.7305,
              27.1143
            ],
            [
              113.9063,
              26.9385
            ],
            [
              113.9063,
              26.6309
            ],
            [
              114.082,
              26.5869
            ],
            [
              113.9941,
              26.1914
            ],
            [
              114.2578,
              26.1475
            ],
            [
              113.9941,
              26.0596
            ],
            [
              113.9063,
              25.4443
            ],
            [
              113.6426,
              25.3125
            ],
            [
              113.2031,
              25.5322
            ],
            [
              112.8516,
              25.3564
            ],
            [
              113.0273,
              25.2246
            ],
            [
              113.0273,
              24.9609
            ],
            [
              112.8516,
              24.917
            ],
            [
              112.5879,
              25.1367
            ],
            [
              112.2363,
              25.1807
            ],
            [
              112.1484,
              24.873
            ],
            [
              112.0605,
              24.7412
            ],
            [
              111.709,
              24.7852
            ],
            [
              111.5332,
              24.6533
            ],
            [
              111.3574,
              25.1367
            ],
            [
              111.0938,
              24.9609
            ],
            [
              111.0059,
              25.0049
            ],
            [
              111.4453,
              25.8398
            ],
            [
              111.2695,
              25.8838
            ],
            [
              111.2695,
              26.2354
            ],
            [
              111.1816,
              26.3232
            ],
            [
              110.5664,
              26.3232
            ],
            [
              110.2148,
              25.9717
            ],
            [
              109.9512,
              26.1914
            ],
            [
              109.7754,
              25.8838
            ],
            [
              109.5117,
              26.0156
            ],
            [
              109.4238,
              26.2793
            ],
            [
              109.248,
              26.3232
            ],
            [
              109.4238,
              26.5869
            ],
            [
              109.3359,
              26.7188
            ],
            [
              109.5117,
              26.8066
            ],
            [
              109.5117,
              27.0264
            ],
            [
              109.3359,
              27.1582
            ],
            [
              108.8965,
              27.0264
            ],
            [
              108.8086,
              27.1143
            ],
            [
              109.4238,
              27.5977
            ],
            [
              109.3359,
              27.9053
            ],
            [
              109.3359,
              28.2568
            ],
            [
              109.248,
              28.4766
            ]
          ]
        ]
      }
    },
    {
      "type": "Feature",
      "properties": {
        "name": "江西",
        "name_en": "Jiangxi"
      },
      "geometry": {
        "type": "Polygon",
        "coordinates": [
          [
            [
              114.2578,
              28.3447
            ],
            [
              114.082,
              28.5645
            ],
            [
              114.1699,
              28.8281
            ],
            [
              113.9063,
              29.0479
            ],
            [
              114.2578,
              29.3555
            ],
            [
              114.873,
              29.3994
            ],
            [
              115.4883,
              29.7949
            ],
            [
              115.9277,
              29.707
            ],
            [
              116.1035,
              29.8389
            ],
            [
              116.2793,
              29.7949
            ],
            [
              116.7188,
              30.0586
            ],
            [
              116.8945,
              29.9268
            ],
            [
              116.7188,
              29.751
            ],
            [
              116.7188,
              29.6191
            ],
            [
              117.1582,
              29.707
            ],
            [
              117.0703,
              29.8389
            ],
            [
              117.1582,
              29.9268
            ],
            [
              117.5098,
              29.6191
            ],
            [
              118.0371,
              29.5752
            ],
            [
              118.2129,
              29.3994
            ],
            [
              118.0371,
              29.1797
            ],
            [
              118.0371,
              29.0479
            ],
            [
              118.3887,
              28.7842
            ],
            [
              118.4766,
              28.3447
            ],
            [
              118.4766,
              28.3008
            ],
            [
              118.3008,
              28.0811
            ],
            [
              117.7734,
              27.8174
            ],
            [
              117.5098,
              27.9932
            ],
            [
              116.9824,
              27.6416
            ],
            [
              117.1582,
              27.29
            ],
            [
              117.0703,
              27.1143
            ],
            [
              116.543,
              26.8066
            ],
            [
              116.6309,
              26.4551
            ],
            [
              116.3672,
              26.2354
            ],
            [
              116.4551,
              26.1035
            ],
            [
              116.1914,
              25.8838
            ],
            [
              116.0156,
              25.2686
            ],
            [
              115.8398,
              25.2246
            ],
            [
              115.9277,
              24.917
            ],
            [
              115.752,
              24.7852
            ],
            [
              115.8398,
              24.5654
            ],
            [
              115.4004,
              24.7852
            ],
            [
              114.4336,
              24.5215
            ],
            [
              114.1699,
              24.6973
            ],
            [
              114.4336,
              24.9609
            ],
            [
              114.6973,
              25.1367
            ],
            [
              114.7852,
              25.2686
            ],
            [
              114.6094,
              25.4004
            ],
            [
              113.9941,
              25.2686
            ],
            [
              113.9063,
              25.4443
            ],
            [
              113.9941,
              26.0596
            ],
            [
              114.2578,
              26.1475
            ],
            [
              113.9941,
              26.1914
            ],
            [
              114.082,
              26.5869
            ],
            [
              113.9063,
              26.6309
            ],
            [
              113.9063,
              26.9385
            ],
            [
              113.7305,
              27.1143
            ],
            [
              113.8184,
              27.29
            ],
            [
              113.6426,
              27.3779
            ],
            [
              113.6426,
              27.5977
            ],
            [
              113.7305,
              27.9492
            ],
            [
              114.2578,
              28.3447
            ]
          ]
        ]
      }
    },
    {
      "type": "Feature",
      "properties": {
        "name": "广东",
        "name_en": "Guangdong"
      },
      "geometry": {
        "type": "Polygon",
        "coordinates": [
          [
            [
              109.7754,
              21.4014
            ],
            [
              109.7754,
              21.6211
            ],
            [
              109.8633,
              21.665
            ],
            [
              109.9512,
              21.8408
            ],
            [
              110.3027,
              21.8848
            ],
            [
              110.3027,
              22.1484
            ],
            [
              110.6543,
              22.1484
            ],
            [
              110.7422,
              22.2803
            ],
            [
              110.7422,
              22.5439
            ],
            [
              111.2695,
              22.8076
            ],
            [
              111.4453,
              23.0273
            ],
            [
              111.3574,
              23.4668
            ],
            [
              111.6211,
              23.6865
            ],
            [
              111.6211,
              23.8184
            ],
            [
              111.7969,
              23.8184
            ],
            [
              111.8848,
              23.9941
            ],
            [
              111.8848,
              24.2139
            ],
            [
              112.0605,
              24.3457
            ],
            [
              111.8848,
              24.6533
            ],
            [
              112.0605,
              24.7412
            ],
            [
              112.1484,
              24.873
            ],
            [
              112.2363,
              25.1807
            ],
            [
              112.5879,
              25.1367
            ],
            [
              112.8516,
              24.917
            ],
            [
              113.0273,
              24.9609
            ],
            [
              113.0273,
              25.2246
            ],
            [
              112.8516,
              25.3564
            ],
            [
              113.2031,
              25.5322
            ],
            [
              113.6426,
              25.3125
            ],
            [
              113.9063,
              25.4443
            ],
            [
              113.9941,
              25.2686
            ],
            [
              114.6094,
              25.4004
            ],
            [
              114.7852,
              25.2686
            ],
            [
              114.6973,
              25.1367
            ],
            [
              114.4336,
              24.9609
            ],
            [
              114.1699,
              24.6973
            ],
            [
              114.4336,
              24.5215
            ],
            [
              115.4004,
              24.7852
            ],
            [
              115.8398,
              24.5654
            ],
            [
              115.752,
              24.7852
            ],
            [
              115.9277,
              24.917
            ],
            [
              116.2793,
              24.7852
            ],
            [
              116.3672,
              24.873
            ],
            [
              116.543,
              24.6094
            ],
            [
              116.7188,
              24.6533
            ],
            [
              116.9824,
              24.1699
            ],
            [
              116.9824,
              23.9063
            ],
            [
              117.1582,
              23.5547
            ],
            [
              117.334,
              23.2471
            ],
            [
              116.8945,
              23.3789
            ],
            [
              116.6309,
              23.1152
            ],
            [
              116.543,
              22.8516
            ],
            [
              115.9277,
              22.7197
            ],
            [
              115.6641,
              22.7637
            ],
            [
              115.5762,
              22.6318
            ],
            [
              115.0488,
              22.6758
            ],
            [
              114.6094,
              22.3682
            ],
            [
              114.3457,
              22.5439
            ],
            [
              113.9941,
              22.5
            ],
            [
              113.8184,
              22.1924
            ],
            [
              114.3457,
              22.1484
            ],
            [
              114.4336,
              22.0166
            ],
            [
              114.082,
              21.9287
            ],
            [
              113.9941,
              21.7969
            ],
            [
              113.5547,
              22.0166
            ],
            [
              113.1152,
              21.8408
            ],
            [
              112.9395,
              21.5771
            ],
            [
              112.4121,
              21.4453
            ],
            [
              112.2363,
              21.5332
            ],
            [
              111.5332,
              21.4893
            ],
            [
              111.2695,
              21.3574
            ],
            [
              110.7422,
              21.3574
            ],
            [
              110.6543,
              21.2256
            ],
            [
              110.7422,
              20.918
            ],
            [
              110.4785,
              20.874
            ],
            [
              110.6543,
              20.2588
            ],
            [
              110.5664,
              20.2588
            ],
            [
              110.3906,
              20.127
            ],
            [
              110.0391,
              20.127
            ],
            [
              109.8633,
              20.127
            ],
            [
              109.8633,
              20.3027
            ],
            [
              109.5996,
              20.918
            ],
            [
              109.7754,
              21.4014
            ],
            [
              109.7754,
              21.4014
            ]
          ]
        ]
      }
    },
    {
      "type": "Feature",
      "properties": {
        "name": "福建",
        "name_en": "Fujian"
      },
      "geometry": {
        "type": "Polygon",
        "coordinates": [
          [
            [
              118.4766,
              28.3008
            ],
            [
              118.8281,
              28.2568
            ],
            [
              118.7402,
              28.0371
            ],
            [
              118.916,
              27.4658
            ],
            [
              119.2676,
              27.4219
            ],
            [
              119.6191,
              27.6855
            ],
            [
              119.7949,
              27.29
            ],
            [
              120.2344,
              27.4219
            ],
            [
              120.4102,
              27.1582
            ],
            [
              120.7617,
              27.0264
            ],
            [
              120.6738,
              26.8945
            ],
            [
              120.2344,
              26.8506
            ],
            [
              120.2344,
              26.7188
            ],
            [
              120.4102,
              26.6748
            ],
            [
              120.498,
              26.3672
            ],
            [
              120.2344,
              26.2793
            ],
            [
              120.4102,
              26.1475
            ],
            [
              120.0586,
              26.1914
            ],
            [
              119.9707,
              25.9277
            ],
            [
              119.7949,
              25.9277
            ],
            [
              119.9707,
              25.4004
            ],
            [
              119.7949,
              25.2686
            ],
            [
              119.5313,
              25.1367
            ],
            [
              119.4434,
              25.0049
            ],
            [
              119.2676,
              25.0928
            ],
            [
              118.916,
              24.8291
            ],
            [
              118.6523,
              24.5215
            ],
            [
              118.4766,
              24.5215
            ],
            [
              118.4766,
              24.4336
            ],
            [
              118.2129,
              24.3457
            ],
            [
              118.2129,
              24.1699
            ],
            [
              117.8613,
              23.9941
            ],
            [
              117.7734,
              23.7744
            ],
            [
              117.5098,
              23.5986
            ],
            [
              117.1582,
              23.5547
            ],
            [
              116.9824,
              23.9063
            ],
            [
              116.9824,
              24.1699
            ],
            [
              116.7188,
              24.6533
            ],
            [
              116.543,
              24.6094
            ],
            [
              116.3672,
              24.873
            ],
            [
              116.2793,
              24.7852
            ],
            [
              115.9277,
              24.917
            ],
            [
              115.8398,
              25.2246
            ],
            [
              116.0156,
              25.2686
            ],
            [
              116.1914,
              25.8838
            ],
            [
              116.4551,
              26.1035
            ],
            [
              116.3672,
              26.2354
            ],
            [
              116.6309,
              26.4551
            ],
            [
              116.543,
              26.8066
            ],
            [
              117.0703,
              27.1143
            ],
            [
              117.1582,
              27.29
            ],
            [
              116.9824,
              27.6416
            ],
            [
              117.5098,
              27.9932
            ],
            [
              117.7734,
              27.8174
            ],
            [
              118.3008,
              28.0811
            ],
            [
              118.4766,
              28.3008
            ]
          ]
        ]
      }
    },
    {
      "type": "Feature",
      "properties": {
        "name": "广西",
        "name_en": "Guangxi"
      },
      "geometry": {
        "type": "Polygon",
        "coordinates": [
          [
            [
              104.502,
              24.7412
            ],
            [
              104.6777,
              24.6094
            ],
            [
              105.2051,
              24.9609
            ],
            [
              105.9961,
              24.6533
            ],
            [
              106.1719,
              24.7852
            ],
            [
              106.1719,
              24.9609
            ],
            [
              106.875,
              25.1807
            ],
            [
              107.0508,
              25.2686
            ],
            [
              106.9629,
              25.4883
            ],
            [
              107.2266,
              25.6201
            ],
            [
              107.4902,
              25.2246
            ],
            [
              107.7539,
              25.2246
            ],
            [
              107.8418,
              25.1367
            ],
            [
              108.1055,
              25.2246
            ],
            [
              108.1934,
              25.4443
            ],
            [
              108.3691,
              25.5322
            ],
            [
              108.6328,
              25.3125
            ],
            [
              108.6328,
              25.5762
            ],
            [
              109.0723,
              25.5322
            ],
            [
              108.9844,
              25.752
            ],
            [
              109.3359,
              25.708
            ],
            [
              109.5117,
              26.0156
            ],
            [
              109.7754,
              25.8838
            ],
            [
              109.9512,
              26.1914
            ],
            [
              110.2148,
              25.9717
            ],
            [
              110.5664,
              26.3232
            ],
            [
              111.1816,
              26.3232
            ],
            [
              111.2695,
              26.2354
            ],
            [
              111.2695,
              25.8838
            ],
            [
              111.4453,
              25.8398
            ],
            [
              111.0059,
              25.0049
            ],
            [
              111.0938,
              24.9609
            ],
            [
              111.3574,
              25.1367
            ],
            [
              111.5332,
              24.6533
            ],
            [
              111.709,
              24.7852
            ],
            [
              112.0605,
              24.7412
            ],
            [
              111.8848,
              24.6533
            ],
            [
              112.0605,
              24.3457
            ],
            [
              111.8848,
              24.2139
            ],
            [
              111.8848,
              23.9941
            ],
            [
              111.7969,
              23.8184
            ],
            [
              111.6211,
              23.8184
            ],
            [
              111.6211,
              23.6865
            ],
            [
              111.3574,
              23.4668
            ],
            [
              111.4453,
              23.0273
            ],
            [
              111.2695,
              22.8076
            ],
            [
              110.7422,
              22.5439
            ],
            [
              110.7422,
              22.2803
            ],
            [
              110.6543,
              22.1484
            ],
            [
              110.3027,
              22.1484
            ],
            [
              110.3027,
              21.8848
            ],
            [
              109.9512,
              21.8408
            ],
            [
              109.8633,
              21.665
            ],
            [
              109.7754,
              21.6211
            ],
            [
              109.7754,
              21.4014
            ],
            [
              109.5996,
              21.4453
            ],
            [
              109.1602,
              21.3574
            ],
            [
              109.248,
              20.874
            ],
            [
              109.0723,
              20.9619
            ],
            [
              109.0723,
              21.5332
            ],
            [
              108.7207,
              21.5332
            ],
            [
              108.6328,
              21.665
            ],
            [
              108.2813,
              21.4893
            ],
            [
              107.8418,
              21.6211
            ],
            [
              107.4023,
              21.6211
            ],
            [
              107.0508,
              21.7969
            ],
            [
              107.0508,
              21.9287
            ],
            [
              106.6992,
              22.0166
            ],
            [
              106.6113,
              22.4121
            ],
            [
              106.7871,
              22.7637
            ],
            [
              106.6992,
              22.8955
            ],
            [
              105.9082,
              22.9395
            ],
            [
              105.5566,
              23.0713
            ],
            [
              105.5566,
              23.2031
            ],
            [
              105.6445,
              23.4229
            ],
            [
              106.1719,
              23.5547
            ],
            [
              106.1719,
              23.8184
            ],
            [
              105.9961,
              24.126
            ],
            [
              105.5566,
              24.126
            ],
            [
              105.4688,
              24.0381
            ],
            [
              105.2051,
              24.082
            ],
            [
              105.0293,
              24.4336
            ],
            [
              104.7656,
              24.4775
            ],
            [
              104.6777,
              24.3457
            ],
            [
              104.502,
              24.7412
            ]
          ]
        ]
      }
    },
    {
      "type": "Feature",
      "properties": {
        "name": "安徽",
        "name_en": "Anhui"
      },
      "geometry": {
        "type": "Polygon",
        "coordinates": [
          [
            [
              116.6309,
              33.9258
            ],
            [
              116.543,
              34.2773
            ],
            [
              116.1914,
              34.4092
            ],
            [
              116.1914,
              34.585
            ],
            [
              116.3672,
              34.6289
            ],
            [
              116.8945,
              34.4092
            ],
            [
              117.1582,
              34.0576
            ],
            [
              117.5977,
              34.0137
            ],
            [
              117.7734,
              33.7061
            ],
            [
              118.125,
              33.75
            ],
            [
              117.9492,
              33.2227
            ],
            [
              118.0371,
              33.1348
            ],
            [
              118.2129,
              33.2227
            ],
            [
              118.3008,
              32.7832
            ],
            [
              118.7402,
              32.7393
            ],
            [
              118.916,
              32.959
            ],
            [
              119.1797,
              32.8271
            ],
            [
              119.1797,
              32.4756
            ],
            [
              118.5645,
              32.5635
            ],
            [
              118.6523,
              32.2119
            ],
            [
              118.4766,
              32.168
            ],
            [
              118.3887,
              31.9482
            ],
            [
              118.916,
              31.5527
            ],
            [
              118.7402,
              31.377
            ],
            [
              118.8281,
              31.2451
            ],
            [
              119.3555,
              31.2891
            ],
            [
              119.4434,
              31.1572
            ],
            [
              119.6191,
              31.1133
            ],
            [
              119.6191,
              31.0693
            ],
            [
              119.4434,
              30.6738
            ],
            [
              119.2676,
              30.6299
            ],
            [
              119.3555,
              30.4102
            ],
            [
              118.916,
              30.3223
            ],
            [
              118.916,
              29.9707
            ],
            [
              118.7402,
              29.707
            ],
            [
              118.2129,
              29.3994
            ],
            [
              118.0371,
              29.5752
            ],
            [
              117.5098,
              29.6191
            ],
            [
              117.1582,
              29.9268
            ],
            [
              117.0703,
              29.8389
            ],
            [
              117.1582,
              29.707
            ],
            [
              116.7188,
              29.6191
            ],
            [
              116.7188,
              29.751
            ],
            [
              116.8945,
              29.9268
            ],
            [
              116.7188,
              30.0586
            ],
            [
              116.2793,
              29.7949
            ],
            [
              116.1035,
              29.8389
            ],
            [
              116.1035,
              30.1904
            ],
            [
              115.752,
              30.6738
            ],
            [
              116.0156,
              31.0254
            ],
            [
              115.5762,
              31.2012
            ],
            [
              115.4004,
              31.4209
            ],
            [
              115.4883,
              31.6846
            ],
            [
              115.9277,
              31.7725
            ],
            [
              115.8398,
              32.5195
            ],
            [
              115.5762,
              32.4316
            ],
            [
              115.2246,
              32.6074
            ],
            [
              115.1367,
              32.8711
            ],
            [
              114.873,
              33.0029
            ],
            [
              114.873,
              33.1348
            ],
            [
              115.3125,
              33.1787
            ],
            [
              115.4004,
              33.5303
            ],
            [
              115.5762,
              33.6621
            ],
            [
              115.5762,
              33.9258
            ],
            [
              115.6641,
              34.0576
            ],
            [
              116.0156,
              33.9697
            ],
            [
              116.1914,
              33.7061
            ],
            [
              116.6309,
              33.9258
            ]
          ]
        ]
      }
    },
    {
      "type": "Feature",
      "properties": {
        "name": "浙江",
        "name_en": "Zhejiang"
      },
      "geometry": {
        "type": "Polygon",
        "coordinates": [
          [
            [
              118.2129,
              29.3994
            ],
            [
              118.7402,
              29.707
            ],
            [
              118.916,
              29.9707
            ],
            [
              118.916,
              30.3223
            ],
            [
              119.3555,
              30.4102
            ],
            [
              119.2676,
              30.6299
            ],
            [
              119.4434,
              30.6738
            ],
            [
              119.6191,
              31.0693
            ],
            [
              119.6191,
              31.1133
            ],
            [
              119.9707,
              31.1572
            ],
            [
              120.498,
              30.8057
            ],
            [
              120.9375,
              31.0254
            ],
            [
              121.2891,
              30.6738
            ],
            [
              121.9922,
              30.8057
            ],
            [
              122.6953,
              30.8936
            ],
            [
              122.8711,
              30.7178
            ],
            [
              122.959,
              30.1465
            ],
            [
              122.6074,
              30.1025
            ],
            [
              122.6074,
              29.9268
            ],
            [
              122.168,
              29.5313
            ],
            [
              122.3438,
              28.8721
            ],
            [
              121.9922,
              28.8721
            ],
            [
              121.9922,
              28.4326
            ],
            [
              121.7285,
              28.3447
            ],
            [
              121.7285,
              28.2129
            ],
            [
              121.4648,
              28.2129
            ],
            [
              121.5527,
              28.0371
            ],
            [
              121.2891,
              27.9492
            ],
            [
              121.1133,
              27.4219
            ],
            [
              120.6738,
              27.334
            ],
            [
              120.6738,
              27.1582
            ],
            [
              120.9375,
              27.0264
            ],
            [
              120.7617,
              27.0264
            ],
            [
              120.4102,
              27.1582
            ],
            [
              120.2344,
              27.4219
            ],
            [
              119.7949,
              27.29
            ],
            [
              119.6191,
              27.6855
            ],
            [
              119.2676,
              27.4219
            ],
            [
              118.916,
              27.4658
            ],
            [
              118.7402,
              28.0371
            ],
            [
              118.8281,
              28.2568
            ],
            [
              118.4766,
              28.3008
            ],
            [
              118.4766,
              28.3447
            ],
            [
              118.3887,
              28.7842
            ],
            [
              118.0371,
              29.0479
            ],
            [
              118.0371,
              29.1797
            ],
            [
              118.2129,
              29.3994
            ]
          ]
        ]
      }
    }
  ]
}