{
  "type": "FeatureCollection",
  "features": [
    {
      "type": "Feature",
      "properties": {
        "cell_id": "CEG2000_f4_r0015_c0102",
        "region_id": "江西"
      },
      "geometry": {
        "type": "Polygon",
        "coordinates": [
          [
            [
              114.4,
              24.3
            ],
            [
              114.8,
              24.3
            ],
            [
              114.8,
              24.700002
            ],
            [
              114.4,
              24.700002
            ],
            [
              114.4,
              24.3
            ]
          ]
        ]
      }
    },
    {
      "type": "Feature",
      "properties": {
        "cell_id": "CEG2000_f4_r0016_c0102",
        "region_id": "江西"
      },
      "geometry": {
        "type": "Polygon",
        "coordinates": [
          [
            [
              114.4,
              24.7
            ],
            [
              114.8,
              24.7
            ],
            [
              114.8,
              25.1
            ],
            [
              114.4,
              25.1
            ],
            [
              114.4,
              24.7
            ]
          ]
        ]
      }
    },
    {
      "type": "Feature",
      "properties": {
        "cell_id": "CEG2000_f4_r0016_c0103",
        "region_id": "江西"
      },
      "geometry": {
        "type": "Polygon",
        "coordinates": [
          [
            [
              114.800006,
              24.7
            ],
            [
              115.199994,
              24.7
            ],
            [
              115.199994,
              25.1
            ],
            [
              114.800006,
              25.1
            ],
            [
              114.800006,
              24.7
            ]
          ]
        ]
      }
    },
    {
      "type": "Feature",
      "properties": {
        "cell_id": "CEG2000_f4_r0016_c0104",
        "region_id": "江西"
      },
      "geometry": {
        "type": "Polygon",
        "coordinates": [
          [
            [
              115.2,
              24.7
            ],
            [
              115.6,
              24.7
            ],
            [
              115.6,
              25.1
            ],
            [
              115.2,
              25.1
            ],
            [
              115.2,
              24.7
            ]
          ]
        ]
      }
    },
    {
      "type": "Feature",
      "properties": {
        "cell_id": "CEG2000_f4_r0016_c0105",
        "region_id": "江西"
      },
      "geometry": {
        "type": "Polygon",
        "coordinates": [
          [
            [
              115.59999400000001,
              24.7
            ],
            [
              116.0,
              24.7
            ],
            [
              116.0,
              25.1
            ],
            [
              115.59999400000001,
              25.1
            ],
            [
              115.59999400000001,
              24.7
            ]
          ]
        ]
      }
    },
    {
      "type": "Feature",
      "properties": {
        "cell_id": "CEG2000_f4_r0017_c0101",
        "region_id": "江西"
      },
      "geometry": {
        "type": "Polygon",
        "coordinates": [
          [
            [
              114.0,
              25.100002
            ],
            [
              114.40000599999999,
              25.100002
            ],
            [
              114.40000599999999,
              25.5
            ],
            [
              114.0,
              25.5
            ],
            [
              114.0,
              25.100002
            ]
          ]
        ]
      }
    },
    {
      "type": "Feature",
      "properties": {
        "cell_id": "CEG2000_f4_r0017_c0102",
        "region_id": "江西"
      },
      "geometry": {
        "type": "Polygon",
        "coordinates": [
          [
            [
              114.4,
              25.100002
            ],
            [
              114.8,
              25.100002
            ],
            [
              114.8,
              25.5
            ],
            [
              114.4,
              25.5
            ],
            [
              114.4,
              25.100002
            ]
          ]
        ]
      }
    },
    {
      "type": "Feature",
      "properties": {
        "cell_id": "CEG2000_f4_r0017_c0103",
        "region_id": "江西"
      },
      "geometry": {
        "type": "Polygon",
        "coordinates": [
          [
            [
              114.800006,
              25.100002
            ],
            [
              115.199994,
              25.100002
            ],
            [
              115.199994,
              25.5
            ],
            [
              114.800006,
              25.5
            ],
            [
              114.800006,
              25.100002
            ]
          ]
        ]
      }
    },
    {
      "type": "Feature",
      "properties": {
        "cell_id": "CEG2000_f4_r0017_c0104",
        "region_id": "江西"
      },
      "geometry": {
        "type": "Polygon",
        "coordinates": [
          [
            [
              115.2,
              25.100002
            ],
            [
              115.6,
              25.100002
            ],
            [
              115.6,
              25.5
            ],
            [
              115.2,
              25.5
            ],
            [
              115.2,
              25.100002
            ]
          ]
        ]
      }
    },
    {
      "type": "Feature",
      "properties": {
        "cell_id": "CEG2000_f4_r0017_c0105",
        "region_id": "江西"
      },
      "geometry": {
        "type": "Polygon",
        "coordinates": [
          [
            [
              115.59999400000001,
              25.100002
            ],
            [
              116.0,
              25.100002
            ],
            [
              116.0,
              25.5
            ],
            [
              115.59999400000001,
              25.5
            ],
            [
              115.59999400000001,
              25.100002
            ]
          ]
        ]
      }
    },
    {
      "type": "Feature",
      "properties": {
        "cell_id": "CEG2000_f4_r0018_c0101",
        "region_id": "江西"
      },
      "geometry": {
        "type": "Polygon",
        "coordinates": [
          [
            [
              114.0,
              25.5
            ],
            [
              114.40000599999999,
              25.5
            ],
            [
              114.40000599999999,
              25.900000000000002
            ],
            [
              114.0,
              25.900000000000002
            ],
            [
              114.0,
              25.5
            ]
          ]
        ]
      }
    },
    {
      "type": "Feature",
      "properties": {
        "cell_id": "CEG2000_f4_r0018_c0102",
        "region_id": "江西"
      },
      "geometry": {
        "type": "Polygon",
        "coordinates": [
          [
            [
              114.4,
              25.5
            ],
            [
              114.8,
              25.5
            ],
            [
              114.8,
              25.900000000000002
            ],
            [
              114.4,
              25.900000000000002
            ],
            [
              114.4,
              25.5
            ]
          ]
        ]
      }
    },
    {
      "type": "Feature",
      "properties": {
        "cell_id": "CEG2000_f4_r0018_c0103",
        "region_id": "江西"
      },
      "geometry": {
        "type": "Polygon",
        "coordinates": [
          [
            [
              114.800006,
              25.5
            ],
            [
              115.199994,
              25.5
            ],
            [
              115.199994,
              25.900000000000002
            ],
            [
              114.800006,
              25.900000000000002
            ],
            [
              114.800006,
              25.5
            ]
          ]
        ]
      }
    },
    {
      "type": "Feature",
      "properties": {
        "cell_id": "CEG2000_f4_r0018_c0104",
        "region_id": "江西"
      },
      "geometry": {
        "type": "Polygon",
        "coordinates": [
          [
            [
              115.2,
              25.5
            ],
            [
              115.6,
              25.5
            ],
            [
              115.6,
              25.900000000000002
            ],
            [
              115.2,
              25.900000000000002
            ],
            [
              115.2,
              25.5
            ]
          ]
        ]
      }
    },
    {
      "type": "Feature",
      "properties": {
        "cell_id": "CEG2000_f4_r0018_c0105",
        "region_id": "江西"
      },
      "geometry": {
        "type": "Polygon",
        "coordinates": [
          [
            [
              115.59999400000001,
              25.5
            ],
            [
              116.0,
              25.5
            ],
            [
              116.0,
              25.900000000000002
            ],
            [
              115.59999400000001,
              25.900000000000002
            ],
            [
              115.59999400000001,
              25.5
            ]
          ]
        ]
      }
    },
    {
      "type": "Feature",
      "properties": {
        "cell_id": "CEG2000_f4_r0018_c0106",
        "region_id": "江西"
      },
      "geometry": {
        "type": "Polygon",
        "coordinates": [
          [
            [
              116.0,
              25.5
            ],
            [
              116.40000599999999,
              25.5
            ],
            [
              116.40000599999999,
              25.900000000000002
            ],
            [
              116.0,
              25.900000000000002
            ],
            [
              116.0,
              25.5
            ]
          ]
        ]
      }
    },
    {
      "type": "Feature",
      "properties": {
        "cell_id": "CEG2000_f4_r0019_c0101",
        "region_id": "江西"
      },
      "geometry": {
        "type": "Polygon",
        "coordinates": [
          [
            [
              114.0,
              25.9
            ],
            [
              114.40000599999999,
              25.9
            ],
            [
              114.40000599999999,
              26.3
            ],
            [
              114.0,
              26.3
            ],
            [
              114.0,
              25.9
            ]
          ]
        ]
      }
    },
    {
      "type": "Feature",
      "properties": {
        "cell_id": "CEG2000_f4_r0019_c0102",
        "region_id": "江西"
      },
      "geometry": {
        "type": "Polygon",
        "coordinates": [
          [
            [
              114.4,
              25.9
            ],
            [
              114.8,
              25.9
            ],
            [
              114.8,
              26.3
            ],
            [
              114.4,
              26.3
            ],
            [
              114.4,
              25.9
            ]
          ]
        ]
      }
    },
    {
      "type": "Feature",
      "properties": {
        "cell_id": "CEG2000_f4_r0019_c0103",
        "region_id": "江西"
      },
      "geometry": {
        "type": "Polygon",
        "coordinates": [
          [
            [
              114.800006,
              25.9
            ],
            [
              115.199994,
              25.9
            ],
            [
              115.199994,
              26.3
            ],
            [
              114.800006,
              26.3
            ],
            [
              114.800006,
              25.9
            ]
          ]
        ]
      }
    },
    {
      "type": "Feature",
      "properties": {
        "cell_id": "CEG2000_f4_r0019_c0104",
        "region_id": "江西"
      },
      "geometry": {
        "type": "Polygon",
        "coordinates": [
          [
            [
              115.2,
              25.9
            ],
            [
              115.6,
              25.9
            ],
            [
              115.6,
              26.3
            ],
            [
              115.2,
              26.3
            ],
            [
              115.2,
              25.9
            ]
          ]
        ]
      }
    },
    {
      "type": "Feature",
      "properties": {
        "cell_id": "CEG2000_f4_r0019_c0105",
        "region_id": "江西"
      },
      "geometry": {
        "type": "Polygon",
        "coordinates": [
          [
            [
              115.59999400000001,
              25.9
            ],
            [
              116.0,
              25.9
            ],
            [
              116.0,
              26.3
            ],
            [
              115.59999400000001,
              26.3
            ],
            [
              115.59999400000001,
              25.9
            ]
          ]
        ]
      }
    },
    {
      "type": "Feature",
      "properties": {
        "cell_id": "CEG2000_f4_r0019_c0106",
        "region_id": "江西"
      },
      "geometry": {
        "type": "Polygon",
        "coordinates": [
          [
            [
              116.0,
              25.9
            ],
            [
              116.40000599999999,
              25.9
            ],
            [
              116.40000599999999,
              26.3
            ],
            [
              116.0,
              26.3
            ],
            [
              116.0,
              25.9
            ]
          ]
        ]
      }
    },
    {
      "type": "Feature",
      "properties": {
        "cell_id": "CEG2000_f4_r0020_c0101",
        "region_id": "江西"
      },
      "geometry": {
        "type": "Polygon",
        "coordinates": [
          [
            [
              114.0,
              26.3
            ],
            [
              114.40000599999999,
              26.3
            ],
            [
              114.40000599999999,
              26.700002
            ],
            [
              114.0,
              26.700002
            ],
            [
              114.0,
              26.3
            ]
          ]
        ]
      }
    },
    {
      "type": "Feature",
      "properties": {
        "cell_id": "CEG2000_f4_r0020_c0102",
        "region_id": "江西"
      },
      "geometry": {
        "type": "Polygon",
        "coordinates": [
          [
            [
              114.4,
              26.3
            ],
            [
              114.8,
              26.3
            ],
            [
              114.8,
              26.700002
            ],
            [
              114.4,
              26.700002
            ],
            [
              114.4,
              26.3
            ]
          ]
        ]
      }
    },
    {
      "type": "Feature",
      "properties": {
        "cell_id": "CEG2000_f4_r0020_c0103",
        "region_id": "江西"
      },
      "geometry": {
        "type": "Polygon",
        "coordinates": [
          [
            [
              114.800006,
              26.3
            ],
            [
              115.199994,
              26.3
            ],
            [
              115.199994,
              26.700002
            ],
            [
              114.800006,
              26.700002
            ],
            [
              114.800006,
              26.3
            ]
          ]
        ]
      }
    },
    {
      "type": "Feature",
      "properties": {
        "cell_id": "CEG2000_f4_r0020_c0104",
        "region_id": "江西"
      },
      "geometry": {
        "type": "Polygon",
        "coordinates": [
          [
            [
              115.2,
              26.3
            ],
            [
              115.6,
              26.3
            ],
            [
              115.6,
              26.700002
            ],
            [
              115.2,
              26.700002
            ],
            [
              115.2,
              26.3
            ]
          ]
        ]
      }
    },
    {
      "type": "Feature",
      "properties": {
        "cell_id": "CEG2000_f4_r0020_c0105",
        "region_id": "江西"
      },
      "geometry": {
        "type": "Polygon",
        "coordinates": [
          [
            [
              115.59999400000001,
              26.3
            ],
            [
              116.0,
              26.3
            ],
            [
              116.0,
              26.700002
            ],
            [
              115.59999400000001,
              26.700002
            ],
            [
              115.59999400000001,
              26.3
            ]
          ]
        ]
      }
    },
    {
      "type": "Feature",
      "properties": {
        "cell_id": "CEG2000_f4_r0020_c0106",
        "region_id": "江西"
      },
      "geometry": {
        "type": "Polygon",
        "coordinates": [
          [
            [
              116.0,
              26.3
            ],
            [
              116.40000599999999,
              26.3
            ],
            [
              116.40000599999999,
              26.700002
            ],
            [
              116.0,
              26.700002
            ],
            [
              116.0,
              26.3
            ]
          ]
        ]
      }
    },
    {
      "type": "Feature",
      "properties": {
        "cell_id": "CEG2000_f4_r0020_c0107",
        "region_id": "江西"
      },
      "geometry": {
        "type": "Polygon",
        "coordinates": [
          [
            [
              116.4,
              26.3
            ],
            [
              116.8,
              26.3
            ],
            [
              116.8,
              26.700002
            ],
            [
              116.4,
              26.700002
            ],
            [
              116.4,
              26.3
            ]
          ]
        ]
      }
    },
    {
      "type": "Feature",
      "properties": {
        "cell_id": "CEG2000_f4_r0021_c0100",
        "region_id": "江西"
      },
      "geometry": {
        "type": "Polygon",
        "coordinates": [
          [
            [
              113.59999400000001,
              26.7
            ],
            [
              114.0,
              26.7
            ],
            [
              114.0,
              27.1
            ],
            [
              113.59999400000001,
              27.1
            ],
            [
              113.59999400000001,
              26.7
            ]
          ]
        ]
      }
    },
    {
      "type": "Feature",
      "properties": {
        "cell_id": "CEG2000_f4_r0021_c0101",
        "region_id": "江西"
      },
      "geometry": {
        "type": "Polygon",
        "coordinates": [
          [
            [
              114.0,
              26.7
            ],
            [
              114.40000599999999,
              26.7
            ],
            [
              114.40000599999999,
              27.1
            ],
            [
              114.0,
              27.1
            ],
            [
              114.0,
              26.7
            ]
          ]
        ]
      }
    },
    {
      "type": "Feature",
      "properties": {
        "cell_id": "CEG2000_f4_r0021_c0102",
        "region_id": "江西"
      },
      "geometry": {
        "type": "Polygon",
        "coordinates": [
          [
            [
              114.4,
              26.7
            ],
            [
              114.8,
              26.7
            ],
            [
              114.8,
              27.1
            ],
            [
              114.4,
              27.1
            ],
            [
              114.4,
              26.7
            ]
          ]
        ]
      }
    },
    {
      "type": "Feature",
      "properties": {
        "cell_id": "CEG2000_f4_r0021_c0103",
        "region_id": "江西"
      },
      "geometry": {
        "type": "Polygon",
        "coordinates": [
          [
            [
              114.800006,
              26.7
            ],
            [
              115.199994,
              26.7
            ],
            [
              115.199994,
              27.1
            ],
            [
              114.800006,
              27.1
            ],
            [
              114.800006,
              26.7
            ]
          ]
        ]
      }
    },
    {
      "type": "Feature",
      "properties": {
        "cell_id": "CEG2000_f4_r0021_c0104",
        "region_id": "江西"
      },
      "geometry": {
        "type": "Polygon",
        "coordinates": [
          [
            [
              115.2,
              26.7
            ],
            [
              115.6,
              26.7
            ],
            [
              115.6,
              27.1
            ],
            [
              115.2,
              27.1
            ],
            [
              115.2,
              26.7
            ]
          ]
        ]
      }
    },
    {
      "type": "Feature",
      "properties": {
        "cell_id": "CEG2000_f4_r0021_c0105",
        "region_id": "江西"
      },
      "geometry": {
        "type": "Polygon",
        "coordinates": [
          [
            [
              115.59999400000001,
              26.7
            ],
            [
              116.0,
              26.7
            ],
            [
              116.0,
              27.1
            ],
            [
              115.59999400000001,
              27.1
            ],
            [
              115.59999400000001,
              26.7
            ]
          ]
        ]
      }
    },
    {
      "type": "Feature",
      "properties": {
        "cell_id": "CEG2000_f4_r0021_c0106",
        "region_id": "江西"
      },
      "geometry": {
        "type": "Polygon",
        "coordinates": [
          [
            [
              116.0,
              26.7
            ],
            [
              116.40000599999999,
              26.7
            ],
            [
              116.40000599999999,
              27.1
            ],
            [
              116.0,
              27.1
            ],
            [
              116.0,
              26.7
            ]
          ]
        ]
      }
    },
    {
      "type": "Feature",
      "properties": {
        "cell_id": "CEG2000_f4_r0021_c0107",
        "region_id": "江西"
      },
      "geometry": {
        "type": "Polygon",
        "coordinates": [
          [
            [
              116.4,
              26.7
            ],
            [
              116.8,
              26.7
            ],
            [
              116.8,
              27.1
            ],
            [
              116.4,
              27.1
            ],
            [
              116.4,
              26.7
            ]
          ]
        ]
      }
    },
    {
      "type": "Feature",
      "properties": {
        "cell_id": "CEG2000_f4_r0022_c0100",
        "region_id": "江西"
      },
      "geometry": {
        "type": "Polygon",
        "coordinates": [
          [
            [
              113.59999400000001,
              27.100002
            ],
            [
              114.0,
              27.100002
            ],
            [
              114.0,
              27.5
            ],
            [
              113.59999400000001,
              27.5
            ],
            [
              113.59999400000001,
              27.100002
            ]
          ]
        ]
      }
    },
    {
      "type": "Feature",
      "properties": {
        "cell_id": "CEG2000_f4_r0022_c0101",
        "region_id": "江西"
      },
      "geometry": {
        "type": "Polygon",
        "coordinates": [
          [
            [
              114.0,
              27.100002
            ],
            [
              114.40000599999999,
              27.100002
            ],
            [
              114.40000599999999,
              27.5
            ],
            [
              114.0,
              27.5
            ],
            [
              114.0,
              27.100002
            ]
          ]
        ]
      }
    },
    {
      "type": "Feature",
      "properties": {
        "cell_id": "CEG2000_f4_r0022_c0102",
        "region_id": "江西"
      },
      "geometry": {
        "type": "Polygon",
        "coordinates": [
          [
            [
              114.4,
              27.100002
            ],
            [
              114.8,
              27.100002
            ],
            [
              114.8,
              27.5
            ],
            [
              114.4,
              27.5
            ],
            [
              114.4,
              27.100002
            ]
          ]
        ]
      }
    },
    {
      "type": "Feature",
      "properties": {
        "cell_id": "CEG2000_f4_r0022_c0103",
        "region_id": "江西"
      },
      "geometry": {
        "type": "Polygon",
        "coordinates": [
          [
            [
              114.800006,
              27.100002
            ],
            [
              115.199994,
              27.100002
            ],
            [
              115.199994,
              27.5
            ],
            [
              114.800006,
              27.5
            ],
            [
              114.800006,
              27.100002
            ]
          ]
        ]
      }
    },
    {
      "type": "Feature",
      "properties": {
        "cell_id": "CEG2000_f4_r0022_c0104",
        "region_id": "江西"
      },
      "geometry": {
        "type": "Polygon",
        "coordinates": [
          [
            [
              115.2,
              27.100002
            ],
            [
              115.6,
              27.100002
            ],
            [
              115.6,
              27.5
            ],
            [
              115.2,
              27.5
            ],
            [
              115.2,
              27.100002
            ]
          ]
        ]
      }
    },
    {
      "type": "Feature",
      "properties": {
        "cell_id": "CEG2000_f4_r0022_c0105",
        "region_id": "江西"
      },
      "geometry": {
        "type": "Polygon",
        "coordinates": [
          [
            [
              115.59999400000001,
              27.100002
            ],
            [
              116.0,
              27.100002
            ],
            [
              116.0,
              27.5
            ],
            [
              115.59999400000001,
              27.5
            ],
            [
              115.59999400000001,
              27.100002
            ]
          ]
        ]
      }
    },
    {
      "type": "Feature",
      "properties": {
        "cell_id": "CEG2000_f4_r0022_c0106",
        "region_id": "江西"
      },
      "geometry": {
        "type": "Polygon",
        "coordinates": [
          [
            [
              116.0,
              27.100002
            ],
            [
              116.40000599999999,
              27.100002
            ],
            [
              116.40000599999999,
              27.5
            ],
            [
              116.0,
              27.5
            ],
            [
              116.0,
              27.100002
            ]
          ]
        ]
      }
    },
    {
      "type": "Feature",
      "properties": {
        "cell_id": "CEG2000_f4_r0022_c0107",
        "region_id": "江西"
      },
      "geometry": {
        "type": "Polygon",
        "coordinates": [
          [
            [
              116.4,
              27.100002
            ],
            [
              116.8,
              27.100002
            ],
            [
              116.8,
              27.5
            ],
            [
              116.4,
              27.5
            ],
            [
              116.4,
              27.100002
            ]
          ]
        ]
      }
    },
    {
      "type": "Feature",
      "properties": {
        "cell_id": "CEG2000_f4_r0022_c0108",
        "region_id": "江西"
      },
      "geometry": {
        "type": "Polygon",
        "coordinates": [
          [
            [
              116.800006,
              27.100002
            ],
            [
              117.199994,
              27.100002
            ],
            [
              117.199994,
              27.5
            ],
            [
              116.800006,
              27.5
            ],
            [
              116.800006,
              27.100002
            ]
          ]
        ]
      }
    },
    {
      "type": "Feature",
      "properties": {
        "cell_id": "CEG2000_f4_r0023_c0100",
        "region_id": "江西"
      },
      "geometry": {
        "type": "Polygon",
        "coordinates": [
          [
            [
              113.59999400000001,
              27.5
            ],
            [
              114.0,
              27.5
            ],
            [
              114.0,
              27.900000000000002
            ],
            [
              113.59999400000001,
              27.900000000000002
            ],
            [
              113.59999400000001,
              27.5
            ]
          ]
        ]
      }
    },
    {
      "type": "Feature",
      "properties": {
        "cell_id": "CEG2000_f4_r0023_c0101",
        "region_id": "江西"
      },
      "geometry": {
        "type": "Polygon",
        "coordinates": [
          [
            [
              114.0,
              27.5
            ],
            [
              114.40000599999999,
              27.5
            ],
            [
              114.40000599999999,
              27.900000000000002
            ],
            [
              114.0,
              27.900000000000002
            ],
            [
              114.0,
              27.5
            ]
          ]
        ]
      }
    },
    {
      "type": "Feature",
      "properties": {
        "cell_id": "CEG2000_f4_r0023_c0102",
        "region_id": "江西"
      },
      "geometry": {
        "type": "Polygon",
        "coordinates": [
          [
            [
              114.4,
              27.5
            ],
            [
              114.8,
              27.5
            ],
            [
              114.8,
              27.900000000000002
            ],
            [
              114.4,
              27.900000000000002
            ],
            [
              114.4,
              27.5
            ]
          ]
        ]
      }
    },
    {
      "type": "Feature",
      "properties": {
        "cell_id": "CEG2000_f4_r0023_c0103",
        "region_id": "江西"
      },
      "geometry": {
        "type": "Polygon",
        "coordinates": [
          [
            [
              114.800006,
              27.5
            ],
            [
              115.199994,
              27.5
            ],
            [
              115.199994,
              27.900000000000002
            ],
            [
              114.800006,
              27.900000000000002
            ],
            [
              114.800006,
              27.5
            ]
          ]
        ]
      }
    },
    {
      "type": "Feature",
      "properties": {
        "cell_id": "CEG2000_f4_r0023_c0104",
        "region_id": "江西"
      },
      "geometry": {
        "type": "Polygon",
        "coordinates": [
          [
            [
              115.2,
              27.5
            ],
            [
              115.6,
              27.5
            ],
            [
              115.6,
              27.900000000000002
            ],
            [
              115.2,
              27.900000000000002
            ],
            [
              115.2,
              27.5
            ]
          ]
        ]
      }
    },
    {
      "type": "Feature",
      "properties": {
        "cell_id": "CEG2000_f4_r0023_c0105",
        "region_id": "江西"
      },
      "geometry": {
        "type": "Polygon",
        "coordinates": [
          [
            [
              115.59999400000001,
              27.5
            ],
            [
              116.0,
              27.5
            ],
            [
              116.0,
              27.900000000000002
            ],
            [
              115.59999400000001,
              27.900000000000002
            ],
            [
              115.59999400000001,
              27.5
            ]
          ]
        ]
      }
    },
    {
      "type": "Feature",
      "properties": {
        "cell_id": "CEG2000_f4_r0023_c0106",
        "region_id": "江西"
      },
      "geometry": {
        "type": "Polygon",
        "coordinates": [
          [
            [
              116.0,
              27.5
            ],
            [
              116.40000599999999,
              27.5
            ],
            [
              116.40000599999999,
              27.900000000000002
            ],
            [
              116.0,
              27.900000000000002
            ],
            [
              116.0,
              27.5
            ]
          ]
        ]
      }
    },
    {
      "type": "Feature",
      "properties": {
        "cell_id": "CEG2000_f4_r0023_c0107",
        "region_id": "江西"
      },
      "geometry": {
        "type": "Polygon",
        "coordinates": [
          [
            [
              116.4,
              27.5
            ],
            [
              116.8,
              27.5
            ],
            [
              116.8,
              27.900000000000002
            ],
            [
              116.4,
              27.900000000000002
            ],
            [
              116.4,
              27.5
            ]
          ]
        ]
      }
    },
    {
      "type": "Feature",
      "properties": {
        "cell_id": "CEG2000_f4_r0023_c0108",
        "region_id": "江西"
      },
      "geometry": {
        "type": "Polygon",
        "coordinates": [
          [
            [
              116.800006,
              27.5
            ],
            [
              117.199994,
              27.5
            ],
            [
              117.199994,
              27.900000000000002
            ],
            [
              116.800006,
              27.900000000000002
            ],
            [
              116.800006,
              27.5
            ]
          ]
        ]
      }
    },
    {
      "type": "Feature",
      "properties": {
        "cell_id": "CEG2000_f4_r0024_c0100",
        "region_id": "江西"
      },
      "geometry": {
        "type": "Polygon",
        "coordinates": [
          [
            [
              113.59999400000001,
              27.9
            ],
            [
              114.0,
              27.9
            ],
            [
              114.0,
              28.3
            ],
            [
              113.59999400000001,
              28.3
            ],
            [
              113.59999400000001,
              27.9
            ]
          ]
        ]
      }
    },
    {
      "type": "Feature",
      "properties": {
        "cell_id": "CEG2000_f4_r0024_c0101",
        "region_id": "江西"
      },
      "geometry": {
        "type": "Polygon",
        "coordinates": [
          [
            [
              114.0,
              27.9
            ],
            [
              114.40000599999999,
              27.9
            ],
            [
              114.40000599999999,
              28.3
            ],
            [
              114.0,
              28.3
            ],
            [
              114.0,
              27.9
            ]
          ]
        ]
      }
    },
    {
      "type": "Feature",
      "properties": {
        "cell_id": "CEG2000_f4_r0024_c0102",
        "region_id": "江西"
      },
      "geometry": {
        "type": "Polygon",
        "coordinates": [
          [
            [
              114.4,
              27.9
            ],
            [
              114.8,
              27.9
            ],
            [
              114.8,
              28.3
            ],
            [
              114.4,
              28.3
            ],
            [
              114.4,
              27.9
            ]
          ]
        ]
      }
    },
    {
      "type": "Feature",
      "properties": {
        "cell_id": "CEG2000_f4_r0024_c0103",
        "region_id": "江西"
      },
      "geometry": {
        "type": "Polygon",
        "coordinates": [
          [
            [
              114.800006,
              27.9
            ],
            [
              115.199994,
              27.9
            ],
            [
              115.199994,
              28.3
            ],
            [
              114.800006,
              28.3
            ],
            [
              114.800006,
              27.9
            ]
          ]
        ]
      }
    },
    {
      "type": "Feature",
      "properties": {
        "cell_id": "CEG2000_f4_r0024_c0104",
        "region_id": "江西"
      },
      "geometry": {
        "type": "Polygon",
        "coordinates": [
          [
            [
              115.2,
              27.9
            ],
            [
              115.6,
              27.9
            ],
            [
              115.6,
              28.3
            ],
            [
              115.2,
              28.3
            ],
            [
              115.2,
              27.9
            ]
          ]
        ]
      }
    },
    {
      "type": "Feature",
      "properties": {
        "cell_id": "CEG2000_f4_r0024_c0105",
        "region_id": "江西"
      },
      "geometry": {
        "type": "Polygon",
        "coordinates": [
          [
            [
              115.59999400000001,
              27.9
            ],
            [
              116.0,
              27.9
            ],
            [
              116.0,
              28.3
            ],
            [
              115.59999400000001,
              28.3
            ],
            [
              115.59999400000001,
              27.9
            ]
          ]
        ]
      }
    },
    {
      "type": "Feature",
      "properties": {
        "cell_id": "CEG2000_f4_r0024_c0106",
        "region_id": "江西"
      },
      "geometry": {
        "type": "Polygon",
        "coordinates": [
          [
            [
              116.0,
              27.9
            ],
            [
              116.40000599999999,
              27.9
            ],
            [
              116.40000599999999,
              28.3
            ],
            [
              116.0,
              28.3
            ],
            [
              116.0,
              27.9
            ]
          ]
        ]
      }
    },
    {
      "type": "Feature",
      "properties": {
        "cell_id": "CEG2000_f4_r0024_c0107",
        "region_id": "江西"
      },
      "geometry": {
        "type": "Polygon",
        "coordinates": [
          [
            [
              116.4,
              27.9
            ],
            [
              116.8,
              27.9
            ],
            [
              116.8,
              28.3
            ],
            [
              116.4,
              28.3
            ],
            [
              116.4,
              27.9
            ]
          ]
        ]
      }
    },
    {
      "type": "Feature",
      "properties": {
        "cell_id": "CEG2000_f4_r0024_c0108",
        "region_id": "江西"
      },
      "geometry": {
        "type": "Polygon",
        "coordinates": [
          [
            [
              116.800006,
              27.9
            ],
            [
              117.199994,
              27.9
            ],
            [
              117.199994,
              28.3
            ],
            [
              116.800006,
              28.3
            ],
            [
              116.800006,
              27.9
            ]
          ]
        ]
      }
    },
    {
      "type": "Feature",
      "properties": {
        "cell_id": "CEG2000_f4_r0024_c0109",
        "region_id": "江西"
      },
      "geometry": {
        "type": "Polygon",
        "coordinates": [
          [
            [
              117.2,
              27.9
            ],
            [
              117.6,
              27.9
            ],
            [
              117.6,
              28.3
            ],
            [
              117.2,
              28.3
            ],
            [
              117.2,
              27.9
            ]
          ]
        ]
      }
    },
    {
      "type": "Feature",
      "properties": {
        "cell_id": "CEG2000_f4_r0024_c0110",
        "region_id": "江西"
      },
      "geometry": {
        "type": "Polygon",
        "coordinates": [
          [
            [
              117.59999400000001,
              27.9
            ],
            [
              118.0,
              27.9
            ],
            [
              118.0,
              28.3
            ],
            [
              117.59999400000001,
              28.3
            ],
            [
              117.59999400000001,
              27.9
            ]
          ]
        ]
      }
    },
    {
      "type": "Feature",
      "properties": {
        "cell_id": "CEG2000_f4_r0024_c0111",
        "region_id": "江西"
      },
      "geometry": {
        "type": "Polygon",
        "coordinates": [
          [
            [
              118.0,
              27.9
            ],
            [
              118.40000599999999,
              27.9
            ],
            [
              118.40000599999999,
              28.3
            ],
            [
              118.0,
              28.3
            ],
            [
              118.0,
              27.9
            ]
          ]
        ]
      }
    },
    {
      "type": "Feature",
      "properties": {
        "cell_id": "CEG2000_f4_r0025_c0101",
        "region_id": "江西"
      },
      "geometry": {
        "type": "Polygon",
        "coordinates": [
          [
            [
              114.0,
              28.3
            ],
            [
              114.40000599999999,
              28.3
            ],
            [
              114.40000599999999,
              28.700002
            ],
            [
              114.0,
              28.700002
            ],
            [
              114.0,
              28.3
            ]
          ]
        ]
      }
    },
    {
      "type": "Feature",
      "properties": {
        "cell_id": "CEG2000_f4_r0025_c0102",
        "region_id": "江西"
      },
      "geometry": {
        "type": "Polygon",
        "coordinates": [
          [
            [
              114.4,
              28.3
            ],
            [
              114.8,
              28.3
            ],
            [
              114.8,
              28.700002
            ],
            [
              114.4,
              28.700002
            ],
            [
              114.4,
              28.3
            ]
          ]
        ]
      }
    },
    {
      "type": "Feature",
      "properties": {
        "cell_id": "CEG2000_f4_r0025_c0103",
        "region_id": "江西"
      },
      "geometry": {
        "type": "Polygon",
        "coordinates": [
          [
            [
              114.800006,
              28.3
            ],
            [
              115.199994,
              28.3
            ],
            [
              115.199994,
              28.700002
            ],
            [
              114.800006,
              28.700002
            ],
            [
              114.800006,
              28.3
            ]
          ]
        ]
      }
    },
    {
      "type": "Feature",
      "properties": {
        "cell_id": "CEG2000_f4_r0025_c0104",
        "region_id": "江西"
      },
      "geometry": {
        "type": "Polygon",
        "coordinates": [
          [
            [
              115.2,
              28.3
            ],
            [
              115.6,
              28.3
            ],
            [
              115.6,
              28.700002
            ],
            [
              115.2,
              28.700002
            ],
            [
              115.2,
              28.3
            ]
          ]
        ]
      }
    },
    {
      "type": "Feature",
      "properties": {
        "cell_id": "CEG2000_f4_r0025_c0105",
        "region_id": "江西"
      },
      "geometry": {
        "type": "Polygon",
        "coordinates": [
          [
            [
              115.59999400000001,
              28.3
            ],
            [
              116.0,
              28.3
            ],
            [
              116.0,
              28.700002
            ],
            [
              115.59999400000001,
              28.700002
            ],
            [
              115.59999400000001,
              28.3
            ]
          ]
        ]
      }
    },
    {
      "type": "Feature",
      "properties": {
        "cell_id": "CEG2000_f4_r0025_c0106",
        "region_id": "江西"
      },
      "geometry": {
        "type": "Polygon",
        "coordinates": [
          [
            [
              116.0,
              28.3
            ],
            [
              116.40000599999999,
              28.3
            ],
            [
              116.40000599999999,
              28.700002
            ],
            [
              116.0,
              28.700002
            ],
            [
              116.0,
              28.3
            ]
          ]
        ]
      }
    },
    {
      "type": "Feature",
      "properties": {
        "cell_id": "CEG2000_f4_r0025_c0107",
        "region_id": "江西"
      },
      "geometry": {
        "type": "Polygon",
        "coordinates": [
          [
            [
              116.4,
              28.3
            ],
            [
              116.8,
              28.3
            ],
            [
              116.8,
              28.700002
            ],
            [
              116.4,
              28.700002
            ],
            [
              116.4,
              28.3
            ]
          ]
        ]
      }
    },
    {
      "type": "Feature",
      "properties": {
        "cell_id": "CEG2000_f4_r0025_c0108",
        "region_id": "江西"
      },
      "geometry": {
        "type": "Polygon",
        "coordinates": [
          [
            [
              116.800006,
              28.3
            ],
            [
              117.199994,
              28.3
            ],
            [
              117.199994,
              28.700002
            ],
            [
              116.800006,
              28.700002
            ],
            [
              116.800006,
              28.3
            ]
          ]
        ]
      }
    },
    {
      "type": "Feature",
      "properties": {
        "cell_id": "CEG2000_f4_r0025_c0109",
        "region_id": "江西"
      },
      "geometry": {
        "type": "Polygon",
        "coordinates": [
          [
            [
              117.2,
              28.3
            ],
            [
              117.6,
              28.3
            ],
            [
              117.6,
              28.700002
            ],
            [
              117.2,
              28.700002
            ],
            [
              117.2,
              28.3
            ]
          ]
        ]
      }
    },
    {
      "type": "Feature",
      "properties": {
        "cell_id": "CEG2000_f4_r0025_c0110",
        "region_id": "江西"
      },
      "geometry": {
        "type": "Polygon",
        "coordinates": [
          [
            [
              117.59999400000001,
              28.3
            ],
            [
              118.0,
              28.3
            ],
            [
              118.0,
              28.700002
            ],
            [
              117.59999400000001,
              28.700002
            ],
            [
              117.59999400000001,
              28.3
            ]
          ]
        ]
      }
    },
    {
      "type": "Feature",
      "properties": {
        "cell_id": "CEG2000_f4_r0025_c0111",
        "region_id": "江西"
      },
      "geometry": {
        "type": "Polygon",
        "coordinates": [
          [
            [
              118.0,
              28.3
            ],
            [
              118.40000599999999,
              28.3
            ],
            [
              118.40000599999999,
              28.700002
            ],
            [
              118.0,
              28.700002
            ],
            [
              118.0,
              28.3
            ]
          ]
        ]
      }
    },
    {
      "type": "Feature",
      "properties": {
        "cell_id": "CEG2000_f4_r0026_c0101",
        "region_id": "江西"
      },
      "geometry": {
        "type": "Polygon",
        "coordinates": [
          [
            [
              114.0,
              28.7
            ],
            [
              114.40000599999999,
              28.7
            ],
            [
              114.40000599999999,
              29.1
            ],
            [
              114.0,
              29.1
            ],
            [
              114.0,
              28.7
            ]
          ]
        ]
      }
    },
    {
      "type": "Feature",
      "properties": {
        "cell_id": "CEG2000_f4_r0026_c0102",
        "region_id": "江西"
      },
      "geometry": {
        "type": "Polygon",
        "coordinates": [
          [
            [
              114.4,
              28.7
            ],
            [
              114.8,
              28.7
            ],
            [
              114.8,
              29.1
            ],
            [
              114.4,
              29.1
            ],
            [
              114.4,
              28.7
            ]
          ]
        ]
      }
    },
    {
      "type": "Feature",
      "properties": {
        "cell_id": "CEG2000_f4_r0026_c0103",
        "region_id": "江西"
      },
      "geometry": {
        "type": "Polygon",
        "coordinates": [
          [
            [
              114.800006,
              28.7
            ],
            [
              115.199994,
              28.7
            ],
            [
              115.199994,
              29.1
            ],
            [
              114.800006,
              29.1
            ],
            [
              114.800006,
              28.7
            ]
          ]
        ]
      }
    },
    {
      "type": "Feature",
      "properties": {
        "cell_id": "CEG2000_f4_r0026_c0104",
        "region_id": "江西"
      },
      "geometry": {
        "type": "Polygon",
        "coordinates": [
          [
            [
              115.2,
              28.7
            ],
            [
              115.6,
              28.7
            ],
            [
              115.6,
              29.1
            ],
            [
              115.2,
              29.1
            ],
            [
              115.2,
              28.7
            ]
          ]
        ]
      }
    },
    {
      "type": "Feature",
      "properties": {
        "cell_id": "CEG2000_f4_r0026_c0105",
        "region_id": "江西"
      },
      "geometry": {
        "type": "Polygon",
        "coordinates": [
          [
            [
              115.59999400000001,
              28.7
            ],
            [
              116.0,
              28.7
            ],
            [
              116.0,
              29.1
            ],
            [
              115.59999400000001,
              29.1
            ],
            [
              115.59999400000001,
              28.7
            ]
          ]
        ]
      }
    },
    {
      "type": "Feature",
      "properties": {
        "cell_id": "CEG2000_f4_r0026_c0106",
        "region_id": "江西"
      },
      "geometry": {
        "type": "Polygon",
        "coordinates": [
          [
            [
              116.0,
              28.7
            ],
            [
              116.40000599999999,
              28.7
            ],
            [
              116.40000599999999,
              29.1
            ],
            [
              116.0,
              29.1
            ],
            [
              116.0,
              28.7
            ]
          ]
        ]
      }
    },
    {
      "type": "Feature",
      "properties": {
        "cell_id": "CEG2000_f4_r0026_c0107",
        "region_id": "江西"
      },
      "geometry": {
        "type": "Polygon",
        "coordinates": [
          [
            [
              116.4,
              28.7
            ],
            [
              116.8,
              28.7
            ],
            [
              116.8,
              29.1
            ],
            [
              116.4,
              29.1
            ],
            [
              116.4,
              28.7
            ]
          ]
        ]
      }
    },
    {
      "type": "Feature",
      "properties": {
        "cell_id": "CEG2000_f4_r0026_c0108",
        "region_id": "江西"
      },
      "geometry": {
        "type": "Polygon",
        "coordinates": [
          [
            [
              116.800006,
              28.7
            ],
            [
              117.199994,
              28.7
            ],
            [
              117.199994,
              29.1
            ],
            [
              116.800006,
              29.1
            ],
            [
              116.800006,
              28.7
            ]
          ]
        ]
      }
    },
    {
      "type": "Feature",
      "properties": {
        "cell_id": "CEG2000_f4_r0026_c0109",
        "region_id": "江西"
      },
      "geometry": {
        "type": "Polygon",
        "coordinates": [
          [
            [
              117.2,
              28.7
            ],
            [
              117.6,
              28.7
            ],
            [
              117.6,
              29.1
            ],
            [
              117.2,
              29.1
            ],
            [
              117.2,
              28.7
            ]
          ]
        ]
      }
    },
    {
      "type": "Feature",
      "properties": {
        "cell_id": "CEG2000_f4_r0026_c0110",
        "region_id": "江西"
      },
      "geometry": {
        "type": "Polygon",
        "coordinates": [
          [
            [
              117.59999400000001,
              28.7
            ],
            [
              118.0,
              28.7
            ],
            [
              118.0,
              29.1
            ],
            [
              117.59999400000001,
              29.1
            ],
            [
              117.59999400000001,
              28.7
            ]
          ]
        ]
      }
    },
    {
      "type": "Feature",
      "properties": {
        "cell_id": "CEG2000_f4_r0026_c0111",
        "region_id": "江西"
      },
      "geometry": {
        "type": "Polygon",
        "coordinates": [
          [
            [
              118.0,
              28.7
            ],
            [
              118.40000599999999,
              28.7
            ],
            [
              118.40000599999999,
              29.1
            ],
            [
              118.0,
              29.1
            ],
            [
              118.0,
              28.7
            ]
          ]
        ]
      }
    },
    {
      "type": "Feature",
      "properties": {
        "cell_id": "CEG2000_f4_r0027_c0101",
        "region_id": "江西"
      },
      "geometry": {
        "type": "Polygon",
        "coordinates": [
          [
            [
              114.0,
              29.100002
            ],
            [
              114.40000599999999,
              29.100002
            ],
            [
              114.40000599999999,
              29.5
            ],
            [
              114.0,
              29.5
            ],
            [
              114.0,
              29.100002
            ]
          ]
        ]
      }
    },
    {
      "type": "Feature",
      "properties": {
        "cell_id": "CEG2000_f4_r0027_c0102",
        "region_id": "江西"
      },
      "geometry": {
        "type": "Polygon",
        "coordinates": [
          [
            [
              114.4,
              29.100002
            ],
            [
              114.8,
              29.100002
            ],
            [
              114.8,
              29.5
            ],
            [
              114.4,
              29.5
            ],
            [
              114.4,
              29.100002
            ]
          ]
        ]
      }
    },
    {
      "type": "Feature",
      "properties": {
        "cell_id": "CEG2000_f4_r0027_c0103",
        "region_id": "江西"
      },
      "geometry": {
        "type": "Polygon",
        "coordinates": [
          [
            [
              114.800006,
              29.100002
            ],
            [
              115.199994,
              29.100002
            ],
            [
              115.199994,
              29.5
            ],
            [
              114.800006,
              29.5
            ],
            [
              114.800006,
              29.100002
            ]
          ]
        ]
      }
    },
    {
      "type": "Feature",
      "properties": {
        "cell_id": "CEG2000_f4_r0027_c0104",
        "region_id": "江西"
      },
      "geometry": {
        "type": "Polygon",
        "coordinates": [
          [
            [
              115.2,
              29.100002
            ],
            [
              115.6,
              29.100002
            ],
            [
              115.6,
              29.5
            ],
            [
              115.2,
              29.5
            ],
            [
              115.2,
              29.100002
            ]
          ]
        ]
      }
    },
    {
      "type": "Feature",
      "properties": {
        "cell_id": "CEG2000_f4_r0027_c0105",
        "region_id": "江西"
      },
      "geometry": {
        "type": "Polygon",
        "coordinates": [
          [
            [
              115.59999400000001,
              29.100002
            ],
            [
              116.0,
              29.100002
            ],
            [
              116.0,
              29.5
            ],
            [
              115.59999400000001,
              29.5
            ],
            [
              115.59999400000001,
              29.100002
            ]
          ]
        ]
      }
    },
    {
      "type": "Feature",
      "properties": {
        "cell_id": "CEG2000_f4_r0027_c0106",
        "region_id": "江西"
      },
      "geometry": {
        "type": "Polygon",
        "coordinates": [
          [
            [
              116.0,
              29.100002
            ],
            [
              116.40000599999999,
              29.100002
            ],
            [
              116.40000599999999,
              29.5
            ],
            [
              116.0,
              29.5
            ],
            [
              116.0,
              29.100002
            ]
          ]
        ]
      }
    },
    {
      "type": "Feature",
      "properties": {
        "cell_id": "CEG2000_f4_r0027_c0107",
        "region_id": "江西"
      },
      "geometry": {
        "type": "Polygon",
        "coordinates": [
          [
            [
              116.4,
              29.100002
            ],
            [
              116.8,
              29.100002
            ],
            [
              116.8,
              29.5
            ],
            [
              116.4,
              29.5
            ],
            [
              116.4,
              29.100002
            ]
          ]
        ]
      }
    },
    {
      "type": "Feature",
      "properties": {
        "cell_id": "CEG2000_f4_r0027_c0108",
        "region_id": "江西"
      },
      "geometry": {
        "type": "Polygon",
        "coordinates": [
          [
            [
              116.800006,
              29.100002
            ],
            [
              117.199994,
              29.100002
            ],
            [
              117.199994,
              29.5
            ],
            [
              116.800006,
              29.5
            ],
            [
              116.800006,
              29.100002
            ]
          ]
        ]
      }
    },
    {
      "type": "Feature",
      "properties": {
        "cell_id": "CEG2000_f4_r0027_c0109",
        "region_id": "江西"
      },
      "geometry": {
        "type": "Polygon",
        "coordinates": [
          [
            [
              117.2,
              29.100002
            ],
            [
              117.6,
              29.100002
            ],
            [
              117.6,
              29.5
            ],
            [
              117.2,
              29.5
            ],
            [
              117.2,
              29.100002
            ]
          ]
        ]
      }
    },
    {
      "type": "Feature",
      "properties": {
        "cell_id": "CEG2000_f4_r0027_c0110",
        "region_id": "江西"
      },
      "geometry": {
        "type": "Polygon",
        "coordinates": [
          [
            [
              117.59999400000001,
              29.100002
            ],
            [
              118.0,
              29.100002
            ],
            [
              118.0,
              29.5
            ],
            [
              117.59999400000001,
              29.5
            ],
            [
              117.59999400000001,
              29.100002
            ]
          ]
        ]
      }
    },
    {
      "type": "Feature",
      "properties": {
        "cell_id": "CEG2000_f4_r0027_c0111",
        "region_id": "江西"
      },
      "geometry": {
        "type": "Polygon",
        "coordinates": [
          [
            [
              118.0,
              29.100002
            ],
            [
              118.40000599999999,
              29.100002
            ],
            [
              118.40000599999999,
              29.5
            ],
            [
              118.0,
              29.5
            ],
            [
              118.0,
              29.100002
            ]
          ]
        ]
      }
    },
    {
      "type": "Feature",
      "properties": {
        "cell_id": "CEG2000_f4_r0028_c0104",
        "region_id": "江西"
      },
      "geometry": {
        "type": "Polygon",
        "coordinates": [
          [
            [
              115.2,
              29.5
            ],
            [
              115.6,
              29.5
            ],
            [
              115.6,
              29.900000000000002
            ],
            [
              115.2,
              29.900000000000002
            ],
            [
              115.2,
              29.5
            ]
          ]
        ]
      }
    },
    {
      "type": "Feature",
      "properties": {
        "cell_id": "CEG2000_f4_r0028_c0105",
        "region_id": "江西"
      },
      "geometry": {
        "type": "Polygon",
        "coordinates": [
          [
            [
              115.59999400000001,
              29.5
            ],
            [
              116.0,
              29.5
            ],
            [
              116.0,
              29.900000000000002
            ],
            [
              115.59999400000001,
              29.900000000000002
            ],
            [
              115.59999400000001,
              29.5
            ]
          ]
        ]
      }
    },
    {
      "type": "Feature",
      "properties": {
        "cell_id": "CEG2000_f4_r0028_c0106",
        "region_id": "江西"
      },
      "geometry": {
        "type": "Polygon",
        "coordinates": [
          [
            [
              116.0,
              29.5
            ],
            [
              116.40000599999999,
              29.5
            ],
            [
              116.40000599999999,
              29.900000000000002
            ],
            [
              116.0,
              29.900000000000002
            ],
            [
              116.0,
              29.5
            ]
          ]
        ]
      }
    },
    {
      "type": "Feature",
      "properties": {
        "cell_id": "CEG2000_f4_r0028_c0107",
        "region_id": "江西"
      },
      "geometry": {
        "type": "Polygon",
        "coordinates": [
          [
            [
              116.4,
              29.5
            ],
            [
              116.8,
              29.5
            ],
            [
              116.8,
              29.900000000000002
            ],
            [
              116.4,
              29.900000000000002
            ],
            [
              116.4,
              29.5
            ]
          ]
        ]
      }
    },
    {
      "type": "Feature",
      "properties": {
        "cell_id": "CEG2000_f4_r0028_c0108",
        "region_id": "江西"
      },
      "geometry": {
        "type": "Polygon",
        "coordinates": [
          [
            [
              116.800006,
              29.5
            ],
            [
              117.199994,
              29.5
            ],
            [
              117.199994,
              29.900000000000002
            ],
            [
              116.800006,
              29.900000000000002
            ],
            [
              116.800006,
              29.5
            ]
          ]
        ]
      }
    },
    {
      "type": "Feature",
      "properties": {
        "cell_id": "CEG2000_f4_r0028_c0109",
        "region_id": "江西"
      },
      "geometry": {
        "type": "Polygon",
        "coordinates": [
          [
            [
              117.2,
              29.5
            ],
            [
              117.6,
              29.5
            ],
            [
              117.6,
              29.900000000000002
            ],
            [
              117.2,
              29.900000000000002
            ],
            [
              117.2,
              29.5
            ]
          ]
        ]
      }
    },
    {
      "type": "Feature",
      "properties": {
        "cell_id": "CEG2000_f4_r0028_c0110",
        "region_id": "江西"
      },
      "geometry": {
        "type": "Polygon",
        "coordinates": [
          [
            [
              117.59999400000001,
              29.5
            ],
            [
              118.0,
              29.5
            ],
            [
              118.0,
              29.900000000000002
            ],
            [
              117.59999400000001,
              29.900000000000002
            ],
            [
              117.59999400000001,
              29.5
            ]
          ]
        ]
      }
    }
  ]
}