{
  "type": "FeatureCollection",
  "features": [
    {
      "type": "Feature",
      "properties": {
        "cell_id": "SYN_l_shape_r000_c000",
        "region_id": "Synthetic-l_shape"
      },
      "geometry": {
        "type": "Polygon",
        "coordinates": [
          [
            [
              -0.5,
              15.5
            ],
            [
              0.5,
              15.5
            ],
            [
              0.5,
              16.5
            ],
            [
              -0.5,
              16.5
            ],
            [
              -0.5,
              15.5
            ]
          ]
        ]
      }
    },
    {
      "type": "Feature",
      "properties": {
        "cell_id": "SYN_l_shape_r000_c001",
        "region_id": "Synthetic-l_shape"
      },
      "geometry": {
        "type": "Polygon",
        "coordinates": [
          [
            [
              0.5,
              15.5
            ],
            [
              1.5,
              15.5
            ],
            [
              1.5,
              16.5
            ],
            [
              0.5,
              16.5
            ],
            [
              0.5,
              15.5
            ]
          ]
        ]
      }
    },
    {
      "type": "Feature",
      "properties": {
        "cell_id": "SYN_l_shape_r000_c002",
        "region_id": "Synthetic-l_shape"
      },
      "geometry": {
        "type": "Polygon",
        "coordinates": [
          [
            [
              1.5,
              15.5
            ],
            [
              2.5,
              15.5
            ],
            [
              2.5,
              16.5
            ],
            [
              1.5,
              16.5
            ],
            [
              1.5,
              15.5
            ]
          ]
        ]
      }
    },
    {
      "type": "Feature",
      "properties": {
        "cell_id": "SYN_l_shape_r000_c003",
        "region_id": "Synthetic-l_shape"
      },
      "geometry": {
        "type": "Polygon",
        "coordinates": [
          [
            [
              2.5,
              15.5
            ],
            [
              3.5,
              15.5
            ],
            [
              3.5,
              16.5
            ],
            [
              2.5,
              16.5
            ],
            [
              2.5,
              15.5
            ]
          ]
        ]
      }
    },
    {
      "type": "Feature",
      "properties": {
        "cell_id": "SYN_l_shape_r000_c004",
        "region_id": "Synthetic-l_shape"
      },
      "geometry": {
        "type": "Polygon",
        "coordinates": [
          [
            [
              3.5,
              15.5
            ],
            [
              4.5,
              15.5
            ],
            [
              4.5,
              16.5
            ],
            [
              3.5,
              16.5
            ],
            [
              3.5,
              15.5
            ]
          ]
        ]
      }
    },
    {
      "type": "Feature",
      "properties": {
        "cell_id": "SYN_l_shape_r000_c005",
        "region_id": "Synthetic-l_shape"
      },
      "geometry": {
        "type": "Polygon",
        "coordinates": [
          [
            [
              4.5,
              15.5
            ],
            [
              5.5,
              15.5
            ],
            [
              5.5,
              16.5
            ],
            [
              4.5,
              16.5
            ],
            [
              4.5,
              15.5
            ]
          ]
        ]
      }
    },
    {
      "type": "Feature",
      "properties": {
        "cell_id": "SYN_l_shape_r000_c006",
        "region_id": "Synthetic-l_shape"
      },
      "geometry": {
        "type": "Polygon",
        "coordinates": [
          [
            [
              5.5,
              15.5
            ],
            [
              6.5,
              15.5
            ],
            [
              6.5,
              16.5
            ],
            [
              5.5,
              16.5
            ],
            [
              5.5,
              15.5
            ]
          ]
        ]
      }
    },
    {
      "type": "Feature",
      "properties": {
        "cell_id": "SYN_l_shape_r000_c007",
        "region_id": "Synthetic-l_shape"
      },
      "geometry": {
        "type": "Polygon",
        "coordinates": [
          [
            [
              6.5,
              15.5
            ],
            [
              7.5,
              15.5
            ],
            [
              7.5,
              16.5
            ],
            [
              6.5,
              16.5
            ],
            [
              6.5,
              15.5
            ]
          ]
        ]
      }
    },
    {
      "type": "Feature",
      "properties": {
        "cell_id": "SYN_l_shape_r000_c008",
        "region_id": "Synthetic-l_shape"
      },
      "geometry": {
        "type": "Polygon",
        "coordinates": [
          [
            [
              7.5,
              15.5
            ],
            [
              8.5,
              15.5
            ],
            [
              8.5,
              16.5
            ],
            [
              7.5,
              16.5
            ],
            [
              7.5,
              15.5
            ]
          ]
        ]
      }
    },
    {
      "type": "Feature",
      "properties": {
        "cell_id": "SYN_l_shape_r000_c009",
        "region_id": "Synthetic-l_shape"
      },
      "geometry": {
        "type": "Polygon",
        "coordinates": [
          [
            [
              8.5,
              15.5
            ],
            [
              9.5,
              15.5
            ],
            [
              9.5,
              16.5
            ],
            [
              8.5,
              16.5
            ],
            [
              8.5,
              15.5
            ]
          ]
        ]
      }
    },
    {
      "type": "Feature",
      "properties": {
        "cell_id": "SYN_l_shape_r000_c010",
        "region_id": "Synthetic-l_shape"
      },
      "geometry": {
        "type": "Polygon",
        "coordinates": [
          [
            [
              9.5,
              15.5
            ],
            [
              10.5,
              15.5
            ],
            [
              10.5,
              16.5
            ],
            [
              9.5,
              16.5
            ],
            [
              9.5,
              15.5
            ]
          ]
        ]
      }
    },
    {
      "type": "Feature",
      "properties": {
        "cell_id": "SYN_l_shape_r000_c011",
        "region_id": "Synthetic-l_shape"
      },
      "geometry": {
        "type": "Polygon",
        "coordinates": [
          [
            [
              10.5,
              15.5
            ],
            [
              11.5,
              15.5
            ],
            [
              11.5,
              16.5
            ],
            [
              10.5,
              16.5
            ],
            [
              10.5,
              15.5
            ]
          ]
        ]
      }
    },
    {
      "type": "Feature",
      "properties": {
        "cell_id": "SYN_l_shape_r000_c012",
        "region_id": "Synthetic-l_shape"
      },
      "geometry": {
        "type": "Polygon",
        "coordinates": [
          [
            [
              11.5,
              15.5
            ],
            [
              12.5,
              15.5
            ],
            [
              12.5,
              16.5
            ],
            [
              11.5,
              16.5
            ],
            [
              11.5,
              15.5
            ]
          ]
        ]
      }
    },
    {
      "type": "Feature",
      "properties": {
        "cell_id": "SYN_l_shape_r000_c013",
        "region_id": "Synthetic-l_shape"
      },
      "geometry": {
        "type": "Polygon",
        "coordinates": [
          [
            [
              12.5,
              15.5
            ],
            [
              13.5,
              15.5
            ],
            [
              13.5,
              16.5
            ],
            [
              12.5,
              16.5
            ],
            [
              12.5,
              15.5
            ]
          ]
        ]
      }
    },
    {
      "type": "Feature",
      "properties": {
        "cell_id": "SYN_l_shape_r000_c014",
        "region_id": "Synthetic-l_shape"
      },
      "geometry": {
        "type": "Polygon",
        "coordinates": [
          [
            [
              13.5,
              15.5
            ],
            [
              14.5,
              15.5
            ],
            [
              14.5,
              16.5
            ],
            [
              13.5,
              16.5
            ],
            [
              13.5,
              15.5
            ]
          ]
        ]
      }
    },
    {
      "type": "Feature",
      "properties": {
        "cell_id": "SYN_l_shape_r000_c015",
        "region_id": "Synthetic-l_shape"
      },
      "geometry": {
        "type": "Polygon",
        "coordinates": [
          [
            [
              14.5,
              15.5
            ],
            [
              15.5,
              15.5
            ],
            [
              15.5,
              16.5
            ],
            [
              14.5,
              16.5
            ],
            [
              14.5,
              15.5
            ]
          ]
        ]
      }
    },
    {
      "type": "Feature",
      "properties": {
        "cell_id": "SYN_l_shape_r000_c016",
        "region_id": "Synthetic-l_shape"
      },
      "geometry": {
        "type": "Polygon",
        "coordinates": [
          [
            [
              15.5,
              15.5
            ],
            [
              16.5,
              15.5
            ],
            [
              16.5,
              16.5
            ],
            [
              15.5,
              16.5
            ],
            [
              15.5,
              15.5
            ]
          ]
        ]
      }
    },
    {
      "type": "Feature",
      "properties": {
        "cell_id": "SYN_l_shape_r001_c000",
        "region_id": "Synthetic-l_shape"
      },
      "geometry": {
        "type": "Polygon",
        "coordinates": [
          [
            [
              -0.5,
              14.5
            ],
            [
              0.5,
              14.5
            ],
            [
              0.5,
              15.5
            ],
            [
              -0.5,
              15.5
            ],
            [
              -0.5,
              14.5
            ]
          ]
        ]
      }
    },
    {
      "type": "Feature",
      "properties": {
        "cell_id": "SYN_l_shape_r001_c001",
        "region_id": "Synthetic-l_shape"
      },
      "geometry": {
        "type": "Polygon",
        "coordinates": [
          [
            [
              0.5,
              14.5
            ],
            [
              1.5,
              14.5
            ],
            [
              1.5,
              15.5
            ],
            [
              0.5,
              15.5
            ],
            [
              0.5,
              14.5
            ]
          ]
        ]
      }
    },
    {
      "type": "Feature",
      "properties": {
        "cell_id": "SYN_l_shape_r001_c002",
        "region_id": "Synthetic-l_shape"
      },
      "geometry": {
        "type": "Polygon",
        "coordinates": [
          [
            [
              1.5,
              14.5
            ],
            [
              2.5,
              14.5
            ],
            [
              2.5,
              15.5
            ],
            [
              1.5,
              15.5
            ],
            [
              1.5,
              14.5
            ]
          ]
        ]
      }
    },
    {
      "type": "Feature",
      "properties": {
        "cell_id": "SYN_l_shape_r001_c003",
        "region_id": "Synthetic-l_shape"
      },
      "geometry": {
        "type": "Polygon",
        "coordinates": [
          [
            [
              2.5,
              14.5
            ],
            [
              3.5,
              14.5
            ],
            [
              3.5,
              15.5
            ],
            [
              2.5,
              15.5
            ],
            [
              2.5,
              14.5
            ]
          ]
        ]
      }
    },
    {
      "type": "Feature",
      "properties": {
        "cell_id": "SYN_l_shape_r001_c004",
        "region_id": "Synthetic-l_shape"
      },
      "geometry": {
        "type": "Polygon",
        "coordinates": [
          [
            [
              3.5,
              14.5
            ],
            [
              4.5,
              14.5
            ],
            [
              4.5,
              15.5
            ],
            [
              3.5,
              15.5
            ],
            [
              3.5,
              14.5
            ]
          ]
        ]
      }
    },
    {
      "type": "Feature",
      "properties": {
        "cell_id": "SYN_l_shape_r001_c005",
        "region_id": "Synthetic-l_shape"
      },
      "geometry": {
        "type": "Polygon",
        "coordinates": [
          [
            [
              4.5,
              14.5
            ],
            [
              5.5,
              14.5
            ],
            [
              5.5,
              15.5
            ],
            [
              4.5,
              15.5
            ],
            [
              4.5,
              14.5
            ]
          ]
        ]
      }
    },
    {
      "type": "Feature",
      "properties": {
        "cell_id": "SYN_l_shape_r001_c006",
        "region_id": "Synthetic-l_shape"
      },
      "geometry": {
        "type": "Polygon",
        "coordinates": [
          [
            [
              5.5,
              14.5
            ],
            [
              6.5,
              14.5
            ],
            [
              6.5,
              15.5
            ],
            [
              5.5,
              15.5
            ],
            [
              5.5,
              14.5
            ]
          ]
        ]
      }
    },
    {
      "type": "Feature",
      "properties": {
        "cell_id": "SYN_l_shape_r001_c007",
        "region_id": "Synthetic-l_shape"
      },
      "geometry": {
        "type": "Polygon",
        "coordinates": [
          [
            [
              6.5,
              14.5
            ],
            [
              7.5,
              14.5
            ],
            [
              7.5,
              15.5
            ],
            [
              6.5,
              15.5
            ],
            [
              6.5,
              14.5
            ]
          ]
        ]
      }
    },
    {
      "type": "Feature",
      "properties": {
        "cell_id": "SYN_l_shape_r001_c008",
        "region_id": "Synthetic-l_shape"
      },
      "geometry": {
        "type": "Polygon",
        "coordinates": [
          [
            [
              7.5,
              14.5
            ],
            [
              8.5,
              14.5
            ],
            [
              8.5,
              15.5
            ],
            [
              7.5,
              15.5
            ],
            [
              7.5,
              14.5
            ]
          ]
        ]
      }
    },
    {
      "type": "Feature",
      "properties": {
        "cell_id": "SYN_l_shape_r001_c009",
        "region_id": "Synthetic-l_shape"
      },
      "geometry": {
        "type": "Polygon",
        "coordinates": [
          [
            [
              8.5,
              14.5
            ],
            [
              9.5,
              14.5
            ],
            [
              9.5,
              15.5
            ],
            [
              8.5,
              15.5
            ],
            [
              8.5,
              14.5
            ]
          ]
        ]
      }
    },
    {
      "type": "Feature",
      "properties": {
        "cell_id": "SYN_l_shape_r001_c010",
        "region_id": "Synthetic-l_shape"
      },
      "geometry": {
        "type": "Polygon",
        "coordinates": [
          [
            [
              9.5,
              14.5
            ],
            [
              10.5,
              14.5
            ],
            [
              10.5,
              15.5
            ],
            [
              9.5,
              15.5
            ],
            [
              9.5,
              14.5
            ]
          ]
        ]
      }
    },
    {
      "type": "Feature",
      "properties": {
        "cell_id": "SYN_l_shape_r001_c011",
        "region_id": "Synthetic-l_shape"
      },
      "geometry": {
        "type": "Polygon",
        "coordinates": [
          [
            [
              10.5,
              14.5
            ],
            [
              11.5,
              14.5
            ],
            [
              11.5,
              15.5
            ],
            [
              10.5,
              15.5
            ],
            [
              10.5,
              14.5
            ]
          ]
        ]
      }
    },
    {
      "type": "Feature",
      "properties": {
        "cell_id": "SYN_l_shape_r001_c012",
        "region_id": "Synthetic-l_shape"
      },
      "geometry": {
        "type": "Polygon",
        "coordinates": [
          [
            [
              11.5,
              14.5
            ],
            [
              12.5,
              14.5
            ],
            [
              12.5,
              15.5
            ],
            [
              11.5,
              15.5
            ],
            [
              11.5,
              14.5
            ]
          ]
        ]
      }
    },
    {
      "type": "Feature",
      "properties": {
        "cell_id": "SYN_l_shape_r001_c013",
        "region_id": "Synthetic-l_shape"
      },
      "geometry": {
        "type": "Polygon",
        "coordinates": [
          [
            [
              12.5,
              14.5
            ],
            [
              13.5,
              14.5
            ],
            [
              13.5,
              15.5
            ],
            [
              12.5,
              15.5
            ],
            [
              12.5,
              14.5
            ]
          ]
        ]
      }
    },
    {
      "type": "Feature",
      "properties": {
        "cell_id": "SYN_l_shape_r001_c014",
        "region_id": "Synthetic-l_shape"
      },
      "geometry": {
        "type": "Polygon",
        "coordinates": [
          [
            [
              13.5,
              14.5
            ],
            [
              14.5,
              14.5
            ],
            [
              14.5,
              15.5
            ],
            [
              13.5,
              15.5
            ],
            [
              13.5,
              14.5
            ]
          ]
        ]
      }
    },
    {
      "type": "Feature",
      "properties": {
        "cell_id": "SYN_l_shape_r001_c015",
        "region_id": "Synthetic-l_shape"
      },
      "geometry": {
        "type": "Polygon",
        "coordinates": [
          [
            [
              14.5,
              14.5
            ],
            [
              15.5,
              14.5
            ],
            [
              15.5,
              15.5
            ],
            [
              14.5,
              15.5
            ],
            [
              14.5,
              14.5
            ]
          ]
        ]
      }
    },
    {
      "type": "Feature",
      "properties": {
        "cell_id": "SYN_l_shape_r001_c016",
        "region_id": "Synthetic-l_shape"
      },
      "geometry": {
        "type": "Polygon",
        "coordinates": [
          [
            [
              15.5,
              14.5
            ],
            [
              16.5,
              14.5
            ],
            [
              16.5,
              15.5
            ],
            [
              15.5,
              15.5
            ],
            [
              15.5,
              14.5
            ]
          ]
        ]
      }
    },
    {
      "type": "Feature",
      "properties": {
        "cell_id": "SYN_l_shape_r002_c000",
        "region_id": "Synthetic-l_shape"
      },
      "geometry": {
        "type": "Polygon",
        "coordinates": [
          [
            [
              -0.5,
              13.5
            ],
            [
              0.5,
              13.5
            ],
            [
              0.5,
              14.5
            ],
            [
              -0.5,
              14.5
            ],
            [
              -0.5,
              13.5
            ]
          ]
        ]
      }
    },
    {
      "type": "Feature",
      "properties": {
        "cell_id": "SYN_l_shape_r002_c001",
        "region_id": "Synthetic-l_shape"
      },
      "geometry": {
        "type": "Polygon",
        "coordinates": [
          [
            [
              0.5,
              13.5
            ],
            [
              1.5,
              13.5
            ],
            [
              1.5,
              14.5
            ],
            [
              0.5,
              14.5
            ],
            [
              0.5,
              13.5
            ]
          ]
        ]
      }
    },
    {
      "type": "Feature",
      "properties": {
        "cell_id": "SYN_l_shape_r002_c002",
        "region_id": "Synthetic-l_shape"
      },
      "geometry": {
        "type": "Polygon",
        "coordinates": [
          [
            [
              1.5,
              13.5
            ],
            [
              2.5,
              13.5
            ],
            [
              2.5,
              14.5
            ],
            [
              1.5,
              14.5
            ],
            [
              1.5,
              13.5
            ]
          ]
        ]
      }
    },
    {
      "type": "Feature",
      "properties": {
        "cell_id": "SYN_l_shape_r002_c003",
        "region_id": "Synthetic-l_shape"
      },
      "geometry": {
        "type": "Polygon",
        "coordinates": [
          [
            [
              2.5,
              13.5
            ],
            [
              3.5,
              13.5
            ],
            [
              3.5,
              14.5
            ],
            [
              2.5,
              14.5
            ],
            [
              2.5,
              13.5
            ]
          ]
        ]
      }
    },
    {
      "type": "Feature",
      "properties": {
        "cell_id": "SYN_l_shape_r002_c004",
        "region_id": "Synthetic-l_shape"
      },
      "geometry": {
        "type": "Polygon",
        "coordinates": [
          [
            [
              3.5,
              13.5
            ],
            [
              4.5,
              13.5
            ],
            [
              4.5,
              14.5
            ],
            [
              3.5,
              14.5
            ],
            [
              3.5,
              13.5
            ]
          ]
        ]
      }
    },
    {
      "type": "Feature",
      "properties": {
        "cell_id": "SYN_l_shape_r002_c005",
        "region_id": "Synthetic-l_shape"
      },
      "geometry": {
        "type": "Polygon",
        "coordinates": [
          [
            [
              4.5,
              13.5
            ],
            [
              5.5,
              13.5
            ],
            [
              5.5,
              14.5
            ],
            [
              4.5,
              14.5
            ],
            [
              4.5,
              13.5
            ]
          ]
        ]
      }
    },
    {
      "type": "Feature",
      "properties": {
        "cell_id": "SYN_l_shape_r002_c006",
        "region_id": "Synthetic-l_shape"
      },
      "geometry": {
        "type": "Polygon",
        "coordinates": [
          [
            [
              5.5,
              13.5
            ],
            [
              6.5,
              13.5
            ],
            [
              6.5,
              14.5
            ],
            [
              5.5,
              14.5
            ],
            [
              5.5,
              13.5
            ]
          ]
        ]
      }
    },
    {
      "type": "Feature",
      "properties": {
        "cell_id": "SYN_l_shape_r002_c007",
        "region_id": "Synthetic-l_shape"
      },
      "geometry": {
        "type": "Polygon",
        "coordinates": [
          [
            [
              6.5,
              13.5
            ],
            [
              7.5,
              13.5
            ],
            [
              7.5,
              14.5
            ],
            [
              6.5,
              14.5
            ],
            [
              6.5,
              13.5
            ]
          ]
        ]
      }
    },
    {
      "type": "Feature",
      "properties": {
        "cell_id": "SYN_l_shape_r002_c008",
        "region_id": "Synthetic-l_shape"
      },
      "geometry": {
        "type": "Polygon",
        "coordinates": [
          [
            [
              7.5,
              13.5
            ],
            [
              8.5,
              13.5
            ],
            [
              8.5,
              14.5
            ],
            [
              7.5,
              14.5
            ],
            [
              7.5,
              13.5
            ]
          ]
        ]
      }
    },
    {
      "type": "Feature",
      "properties": {
        "cell_id": "SYN_l_shape_r002_c009",
        "region_id": "Synthetic-l_shape"
      },
      "geometry": {
        "type": "Polygon",
        "coordinates": [
          [
            [
              8.5,
              13.5
            ],
            [
              9.5,
              13.5
            ],
            [
              9.5,
              14.5
            ],
            [
              8.5,
              14.5
            ],
            [
              8.5,
              13.5
            ]
          ]
        ]
      }
    },
    {
      "type": "Feature",
      "properties": {
        "cell_id": "SYN_l_shape_r002_c010",
        "region_id": "Synthetic-l_shape"
      },
      "geometry": {
        "type": "Polygon",
        "coordinates": [
          [
            [
              9.5,
              13.5
            ],
            [
              10.5,
              13.5
            ],
            [
              10.5,
              14.5
            ],
            [
              9.5,
              14.5
            ],
            [
              9.5,
              13.5
            ]
          ]
        ]
      }
    },
    {
      "type": "Feature",
      "properties": {
        "cell_id": "SYN_l_shape_r002_c011",
        "region_id": "Synthetic-l_shape"
      },
      "geometry": {
        "type": "Polygon",
        "coordinates": [
          [
            [
              10.5,
              13.5
            ],
            [
              11.5,
              13.5
            ],
            [
              11.5,
              14.5
            ],
            [
              10.5,
              14.5
            ],
            [
              10.5,
              13.5
            ]
          ]
        ]
      }
    },
    {
      "type": "Feature",
      "properties": {
        "cell_id": "SYN_l_shape_r002_c012",
        "region_id": "Synthetic-l_shape"
      },
      "geometry": {
        "type": "Polygon",
        "coordinates": [
          [
            [
              11.5,
              13.5
            ],
            [
              12.5,
              13.5
            ],
            [
              12.5,
              14.5
            ],
            [
              11.5,
              14.5
            ],
            [
              11.5,
              13.5
            ]
          ]
        ]
      }
    },
    {
      "type": "Feature",
      "properties": {
        "cell_id": "SYN_l_shape_r002_c013",
        "region_id": "Synthetic-l_shape"
      },
      "geometry": {
        "type": "Polygon",
        "coordinates": [
          [
            [
              12.5,
              13.5
            ],
            [
              13.5,
              13.5
            ],
            [
              13.5,
              14.5
            ],
            [
              12.5,
              14.5
            ],
            [
              12.5,
              13.5
            ]
          ]
        ]
      }
    },
    {
      "type": "Feature",
      "properties": {
        "cell_id": "SYN_l_shape_r002_c014",
        "region_id": "Synthetic-l_shape"
      },
      "geometry": {
        "type": "Polygon",
        "coordinates": [
          [
            [
              13.5,
              13.5
            ],
            [
              14.5,
              13.5
            ],
            [
              14.5,
              14.5
            ],
            [
              13.5,
              14.5
            ],
            [
              13.5,
              13.5
            ]
          ]
        ]
      }
    },
    {
      "type": "Feature",
      "properties": {
        "cell_id": "SYN_l_shape_r002_c015",
        "region_id": "Synthetic-l_shape"
      },
      "geometry": {
        "type": "Polygon",
        "coordinates": [
          [
            [
              14.5,
              13.5
            ],
            [
              15.5,
              13.5
            ],
            [
              15.5,
              14.5
            ],
            [
              14.5,
              14.5
            ],
            [
              14.5,
              13.5
            ]
          ]
        ]
      }
    },
    {
      "type": "Feature",
      "properties": {
        "cell_id": "SYN_l_shape_r002_c016",
        "region_id": "Synthetic-l_shape"
      },
      "geometry": {
        "type": "Polygon",
        "coordinates": [
          [
            [
              15.5,
              13.5
            ],
            [
              16.5,
              13.5
            ],
            [
              16.5,
              14.5
            ],
            [
              15.5,
              14.5
            ],
            [
              15.5,
              13.5
            ]
          ]
        ]
      }
    },
    {
      "type": "Feature",
      "properties": {
        "cell_id": "SYN_l_shape_r003_c000",
        "region_id": "Synthetic-l_shape"
      },
      "geometry": {
        "type": "Polygon",
        "coordinates": [
          [
            [
              -0.5,
              12.5
            ],
            [
              0.5,
              12.5
            ],
            [
              0.5,
              13.5
            ],
            [
              -0.5,
              13.5
            ],
            [
              -0.5,
              12.5
            ]
          ]
        ]
      }
    },
    {
      "type": "Feature",
      "properties": {
        "cell_id": "SYN_l_shape_r003_c001",
        "region_id": "Synthetic-l_shape"
      },
      "geometry": {
        "type": "Polygon",
        "coordinates": [
          [
            [
              0.5,
              12.5
            ],
            [
              1.5,
              12.5
            ],
            [
              1.5,
              13.5
            ],
            [
              0.5,
              13.5
            ],
            [
              0.5,
              12.5
            ]
          ]
        ]
      }
    },
    {
      "type": "Feature",
      "properties": {
        "cell_id": "SYN_l_shape_r003_c002",
        "region_id": "Synthetic-l_shape"
      },
      "geometry": {
        "type": "Polygon",
        "coordinates": [
          [
            [
              1.5,
              12.5
            ],
            [
              2.5,
              12.5
            ],
            [
              2.5,
              13.5
            ],
            [
              1.5,
              13.5
            ],
            [
              1.5,
              12.5
            ]
          ]
        ]
      }
    },
    {
      "type": "Feature",
      "properties": {
        "cell_id": "SYN_l_shape_r003_c003",
        "region_id": "Synthetic-l_shape"
      },
      "geometry": {
        "type": "Polygon",
        "coordinates": [
          [
            [
              2.5,
              12.5
            ],
            [
              3.5,
              12.5
            ],
            [
              3.5,
              13.5
            ],
            [
              2.5,
              13.5
            ],
            [
              2.5,
              12.5
            ]
          ]
        ]
      }
    },
    {
      "type": "Feature",
      "properties": {
        "cell_id": "SYN_l_shape_r003_c004",
        "region_id": "Synthetic-l_shape"
      },
      "geometry": {
        "type": "Polygon",
        "coordinates": [
          [
            [
              3.5,
              12.5
            ],
            [
              4.5,
              12.5
            ],
            [
              4.5,
              13.5
            ],
            [
              3.5,
              13.5
            ],
            [
              3.5,
              12.5
            ]
          ]
        ]
      }
    },
    {
      "type": "Feature",
      "properties": {
        "cell_id": "SYN_l_shape_r003_c005",
        "region_id": "Synthetic-l_shape"
      },
      "geometry": {
        "type": "Polygon",
        "coordinates": [
          [
            [
              4.5,
              12.5
            ],
            [
              5.5,
              12.5
            ],
            [
              5.5,
              13.5
            ],
            [
              4.5,
              13.5
            ],
            [
              4.5,
              12.5
            ]
          ]
        ]
      }
    },
    {
      "type": "Feature",
      "properties": {
        "cell_id": "SYN_l_shape_r003_c006",
        "region_id": "Synthetic-l_shape"
      },
      "geometry": {
        "type": "Polygon",
        "coordinates": [
          [
            [
              5.5,
              12.5
            ],
            [
              6.5,
              12.5
            ],
            [
              6.5,
              13.5
            ],
            [
              5.5,
              13.5
            ],
            [
              5.5,
              12.5
            ]
          ]
        ]
      }
    },
    {
      "type": "Feature",
      "properties": {
        "cell_id": "SYN_l_shape_r003_c007",
        "region_id": "Synthetic-l_shape"
      },
      "geometry": {
        "type": "Polygon",
        "coordinates": [
          [
            [
              6.5,
              12.5
            ],
            [
              7.5,
              12.5
            ],
            [
              7.5,
              13.5
            ],
            [
              6.5,
              13.5
            ],
            [
              6.5,
              12.5
            ]
          ]
        ]
      }
    },
    {
      "type": "Feature",
      "properties": {
        "cell_id": "SYN_l_shape_r003_c008",
        "region_id": "Synthetic-l_shape"
      },
      "geometry": {
        "type": "Polygon",
        "coordinates": [
          [
            [
              7.5,
              12.5
            ],
            [
              8.5,
              12.5
            ],
            [
              8.5,
              13.5
            ],
            [
              7.5,
              13.5
            ],
            [
              7.5,
              12.5
            ]
          ]
        ]
      }
    },
    {
      "type": "Feature",
      "properties": {
        "cell_id": "SYN_l_shape_r003_c009",
        "region_id": "Synthetic-l_shape"
      },
      "geometry": {
        "type": "Polygon",
        "coordinates": [
          [
            [
              8.5,
              12.5
            ],
            [
              9.5,
              12.5
            ],
            [
              9.5,
              13.5
            ],
            [
              8.5,
              13.5
            ],
            [
              8.5,
              12.5
            ]
          ]
        ]
      }
    },
    {
      "type": "Feature",
      "properties": {
        "cell_id": "SYN_l_shape_r003_c010",
        "region_id": "Synthetic-l_shape"
      },
      "geometry": {
        "type": "Polygon",
        "coordinates": [
          [
            [
              9.5,
              12.5
            ],
            [
              10.5,
              12.5
            ],
            [
              10.5,
              13.5
            ],
            [
              9.5,
              13.5
            ],
            [
              9.5,
              12.5
            ]
          ]
        ]
      }
    },
    {
      "type": "Feature",
      "properties": {
        "cell_id": "SYN_l_shape_r003_c011",
        "region_id": "Synthetic-l_shape"
      },
      "geometry": {
        "type": "Polygon",
        "coordinates": [
          [
            [
              10.5,
              12.5
            ],
            [
              11.5,
              12.5
            ],
            [
              11.5,
              13.5
            ],
            [
              10.5,
              13.5
            ],
            [
              10.5,
              12.5
            ]
          ]
        ]
      }
    },
    {
      "type": "Feature",
      "properties": {
        "cell_id": "SYN_l_shape_r003_c012",
        "region_id": "Synthetic-l_shape"
      },
      "geometry": {
        "type": "Polygon",
        "coordinates": [
          [
            [
              11.5,
              12.5
            ],
            [
              12.5,
              12.5
            ],
            [
              12.5,
              13.5
            ],
            [
              11.5,
              13.5
            ],
            [
              11.5,
              12.5
            ]
          ]
        ]
      }
    },
    {
      "type": "Feature",
      "properties": {
        "cell_id": "SYN_l_shape_r003_c013",
        "region_id": "Synthetic-l_shape"
      },
      "geometry": {
        "type": "Polygon",
        "coordinates": [
          [
            [
              12.5,
              12.5
            ],
            [
              13.5,
              12.5
            ],
            [
              13.5,
              13.5
            ],
            [
              12.5,
              13.5
            ],
            [
              12.5,
              12.5
            ]
          ]
        ]
      }
    },
    {
      "type": "Feature",
      "properties": {
        "cell_id": "SYN_l_shape_r003_c014",
        "region_id": "Synthetic-l_shape"
      },
      "geometry": {
        "type": "Polygon",
        "coordinates": [
          [
            [
              13.5,
              12.5
            ],
            [
              14.5,
              12.5
            ],
            [
              14.5,
              13.5
            ],
            [
              13.5,
              13.5
            ],
            [
              13.5,
              12.5
            ]
          ]
        ]
      }
    },
    {
      "type": "Feature",
      "properties": {
        "cell_id": "SYN_l_shape_r003_c015",
        "region_id": "Synthetic-l_shape"
      },
      "geometry": {
        "type": "Polygon",
        "coordinates": [
          [
            [
              14.5,
              12.5
            ],
            [
              15.5,
              12.5
            ],
            [
              15.5,
              13.5
            ],
            [
              14.5,
              13.5
            ],
            [
              14.5,
              12.5
            ]
          ]
        ]
      }
    },
    {
      "type": "Feature",
      "properties": {
        "cell_id": "SYN_l_shape_r003_c016",
        "region_id": "Synthetic-l_shape"
      },
      "geometry": {
        "type": "Polygon",
        "coordinates": [
          [
            [
              15.5,
              12.5
            ],
            [
              16.5,
              12.5
            ],
            [
              16.5,
              13.5
            ],
            [
              15.5,
              13.5
            ],
            [
              15.5,
              12.5
            ]
          ]
        ]
      }
    },
    {
      "type": "Feature",
      "properties": {
        "cell_id": "SYN_l_shape_r004_c000",
        "region_id": "Synthetic-l_shape"
      },
      "geometry": {
        "type": "Polygon",
        "coordinates": [
          [
            [
              -0.5,
              11.5
            ],
            [
              0.5,
              11.5
            ],
            [
              0.5,
              12.5
            ],
            [
              -0.5,
              12.5
            ],
            [
              -0.5,
              11.5
            ]
          ]
        ]
      }
    },
    {
      "type": "Feature",
      "properties": {
        "cell_id": "SYN_l_shape_r004_c001",
        "region_id": "Synthetic-l_shape"
      },
      "geometry": {
        "type": "Polygon",
        "coordinates": [
          [
            [
              0.5,
              11.5
            ],
            [
              1.5,
              11.5
            ],
            [
              1.5,
              12.5
            ],
            [
              0.5,
              12.5
            ],
            [
              0.5,
              11.5
            ]
          ]
        ]
      }
    },
    {
      "type": "Feature",
      "properties": {
        "cell_id": "SYN_l_shape_r004_c002",
        "region_id": "Synthetic-l_shape"
      },
      "geometry": {
        "type": "Polygon",
        "coordinates": [
          [
            [
              1.5,
              11.5
            ],
            [
              2.5,
              11.5
            ],
            [
              2.5,
              12.5
            ],
            [
              1.5,
              12.5
            ],
            [
              1.5,
              11.5
            ]
          ]
        ]
      }
    },
    {
      "type": "Feature",
      "properties": {
        "cell_id": "SYN_l_shape_r004_c003",
        "region_id": "Synthetic-l_shape"
      },
      "geometry": {
        "type": "Polygon",
        "coordinates": [
          [
            [
              2.5,
              11.5
            ],
            [
              3.5,
              11.5
            ],
            [
              3.5,
              12.5
            ],
            [
              2.5,
              12.5
            ],
            [
              2.5,
              11.5
            ]
          ]
        ]
      }
    },
    {
      "type": "Feature",
      "properties": {
        "cell_id": "SYN_l_shape_r004_c004",
        "region_id": "Synthetic-l_shape"
      },
      "geometry": {
        "type": "Polygon",
        "coordinates": [
          [
            [
              3.5,
              11.5
            ],
            [
              4.5,
              11.5
            ],
            [
              4.5,
              12.5
            ],
            [
              3.5,
              12.5
            ],
            [
              3.5,
              11.5
            ]
          ]
        ]
      }
    },
    {
      "type": "Feature",
      "properties": {
        "cell_id": "SYN_l_shape_r004_c005",
        "region_id": "Synthetic-l_shape"
      },
      "geometry": {
        "type": "Polygon",
        "coordinates": [
          [
            [
              4.5,
              11.5
            ],
            [
              5.5,
              11.5
            ],
            [
              5.5,
              12.5
            ],
            [
              4.5,
              12.5
            ],
            [
              4.5,
              11.5
            ]
          ]
        ]
      }
    },
    {
      "type": "Feature",
      "properties": {
        "cell_id": "SYN_l_shape_r004_c006",
        "region_id": "Synthetic-l_shape"
      },
      "geometry": {
        "type": "Polygon",
        "coordinates": [
          [
            [
              5.5,
              11.5
            ],
            [
              6.5,
              11.5
            ],
            [
              6.5,
              12.5
            ],
            [
              5.5,
              12.5
            ],
            [
              5.5,
              11.5
            ]
          ]
        ]
      }
    },
    {
      "type": "Feature",
      "properties": {
        "cell_id": "SYN_l_shape_r004_c007",
        "region_id": "Synthetic-l_shape"
      },
      "geometry": {
        "type": "Polygon",
        "coordinates": [
          [
            [
              6.5,
              11.5
            ],
            [
              7.5,
              11.5
            ],
            [
              7.5,
              12.5
            ],
            [
              6.5,
              12.5
            ],
            [
              6.5,
              11.5
            ]
          ]
        ]
      }
    },
    {
      "type": "Feature",
      "properties": {
        "cell_id": "SYN_l_shape_r004_c008",
        "region_id": "Synthetic-l_shape"
      },
      "geometry": {
        "type": "Polygon",
        "coordinates": [
          [
            [
              7.5,
              11.5
            ],
            [
              8.5,
              11.5
            ],
            [
              8.5,
              12.5
            ],
            [
              7.5,
              12.5
            ],
            [
              7.5,
              11.5
            ]
          ]
        ]
      }
    },
    {
      "type": "Feature",
      "properties": {
        "cell_id": "SYN_l_shape_r004_c009",
        "region_id": "Synthetic-l_shape"
      },
      "geometry": {
        "type": "Polygon",
        "coordinates": [
          [
            [
              8.5,
              11.5
            ],
            [
              9.5,
              11.5
            ],
            [
              9.5,
              12.5
            ],
            [
              8.5,
              12.5
            ],
            [
              8.5,
              11.5
            ]
          ]
        ]
      }
    },
    {
      "type": "Feature",
      "properties": {
        "cell_id": "SYN_l_shape_r004_c010",
        "region_id": "Synthetic-l_shape"
      },
      "geometry": {
        "type": "Polygon",
        "coordinates": [
          [
            [
              9.5,
              11.5
            ],
            [
              10.5,
              11.5
            ],
            [
              10.5,
              12.5
            ],
            [
              9.5,
              12.5
            ],
            [
              9.5,
              11.5
            ]
          ]
        ]
      }
    },
    {
      "type": "Feature",
      "properties": {
        "cell_id": "SYN_l_shape_r004_c011",
        "region_id": "Synthetic-l_shape"
      },
      "geometry": {
        "type": "Polygon",
        "coordinates": [
          [
            [
              10.5,
              11.5
            ],
            [
              11.5,
              11.5
            ],
            [
              11.5,
              12.5
            ],
            [
              10.5,
              12.5
            ],
            [
              10.5,
              11.5
            ]
          ]
        ]
      }
    },
    {
      "type": "Feature",
      "properties": {
        "cell_id": "SYN_l_shape_r004_c012",
        "region_id": "Synthetic-l_shape"
      },
      "geometry": {
        "type": "Polygon",
        "coordinates": [
          [
            [
              11.5,
              11.5
            ],
            [
              12.5,
              11.5
            ],
            [
              12.5,
              12.5
            ],
            [
              11.5,
              12.5
            ],
            [
              11.5,
              11.5
            ]
          ]
        ]
      }
    },
    {
      "type": "Feature",
      "properties": {
        "cell_id": "SYN_l_shape_r004_c013",
        "region_id": "Synthetic-l_shape"
      },
      "geometry": {
        "type": "Polygon",
        "coordinates": [
          [
            [
              12.5,
              11.5
            ],
            [
              13.5,
              11.5
            ],
            [
              13.5,
              12.5
            ],
            [
              12.5,
              12.5
            ],
            [
              12.5,
              11.5
            ]
          ]
        ]
      }
    },
    {
      "type": "Feature",
      "properties": {
        "cell_id": "SYN_l_shape_r004_c014",
        "region_id": "Synthetic-l_shape"
      },
      "geometry": {
        "type": "Polygon",
        "coordinates": [
          [
            [
              13.5,
              11.5
            ],
            [
              14.5,
              11.5
            ],
            [
              14.5,
              12.5
            ],
            [
              13.5,
              12.5
            ],
            [
              13.5,
              11.5
            ]
          ]
        ]
      }
    },
    {
      "type": "Feature",
      "properties": {
        "cell_id": "SYN_l_shape_r004_c015",
        "region_id": "Synthetic-l_shape"
      },
      "geometry": {
        "type": "Polygon",
        "coordinates": [
          [
            [
              14.5,
              11.5
            ],
            [
              15.5,
              11.5
            ],
            [
              15.5,
              12.5
            ],
            [
              14.5,
              12.5
            ],
            [
              14.5,
              11.5
            ]
          ]
        ]
      }
    },
    {
      "type": "Feature",
      "properties": {
        "cell_id": "SYN_l_shape_r004_c016",
        "region_id": "Synthetic-l_shape"
      },
      "geometry": {
        "type": "Polygon",
        "coordinates": [
          [
            [
              15.5,
              11.5
            ],
            [
              16.5,
              11.5
            ],
            [
              16.5,
              12.5
            ],
            [
              15.5,
              12.5
            ],
            [
              15.5,
              11.5
            ]
          ]
        ]
      }
    },
    {
      "type": "Feature",
      "properties": {
        "cell_id": "SYN_l_shape_r005_c000",
        "region_id": "Synthetic-l_shape"
      },
      "geometry": {
        "type": "Polygon",
        "coordinates": [
          [
            [
              -0.5,
              10.5
            ],
            [
              0.5,
              10.5
            ],
            [
              0.5,
              11.5
            ],
            [
              -0.5,
              11.5
            ],
            [
              -0.5,
              10.5
            ]
          ]
        ]
      }
    },
    {
      "type": "Feature",
      "properties": {
        "cell_id": "SYN_l_shape_r005_c001",
        "region_id": "Synthetic-l_shape"
      },
      "geometry": {
        "type": "Polygon",
        "coordinates": [
          [
            [
              0.5,
              10.5
            ],
            [
              1.5,
              10.5
            ],
            [
              1.5,
              11.5
            ],
            [
              0.5,
              11.5
            ],
            [
              0.5,
              10.5
            ]
          ]
        ]
      }
    },
    {
      "type": "Feature",
      "properties": {
        "cell_id": "SYN_l_shape_r005_c002",
        "region_id": "Synthetic-l_shape"
      },
      "geometry": {
        "type": "Polygon",
        "coordinates": [
          [
            [
              1.5,
              10.5
            ],
            [
              2.5,
              10.5
            ],
            [
              2.5,
              11.5
            ],
            [
              1.5,
              11.5
            ],
            [
              1.5,
              10.5
            ]
          ]
        ]
      }
    },
    {
      "type": "Feature",
      "properties": {
        "cell_id": "SYN_l_shape_r005_c003",
        "region_id": "Synthetic-l_shape"
      },
      "geometry": {
        "type": "Polygon",
        "coordinates": [
          [
            [
              2.5,
              10.5
            ],
            [
              3.5,
              10.5
            ],
            [
              3.5,
              11.5
            ],
            [
              2.5,
              11.5
            ],
            [
              2.5,
              10.5
            ]
          ]
        ]
      }
    },
    {
      "type": "Feature",
      "properties": {
        "cell_id": "SYN_l_shape_r005_c004",
        "region_id": "Synthetic-l_shape"
      },
      "geometry": {
        "type": "Polygon",
        "coordinates": [
          [
            [
              3.5,
              10.5
            ],
            [
              4.5,
              10.5
            ],
            [
              4.5,
              11.5
            ],
            [
              3.5,
              11.5
            ],
            [
              3.5,
              10.5
            ]
          ]
        ]
      }
    },
    {
      "type": "Feature",
      "properties": {
        "cell_id": "SYN_l_shape_r006_c000",
        "region_id": "Synthetic-l_shape"
      },
      "geometry": {
        "type": "Polygon",
        "coordinates": [
          [
            [
              -0.5,
              9.5
            ],
            [
              0.5,
              9.5
            ],
            [
              0.5,
              10.5
            ],
            [
              -0.5,
              10.5
            ],
            [
              -0.5,
              9.5
            ]
          ]
        ]
      }
    },
    {
      "type": "Feature",
      "properties": {
        "cell_id": "SYN_l_shape_r006_c001",
        "region_id": "Synthetic-l_shape"
      },
      "geometry": {
        "type": "Polygon",
        "coordinates": [
          [
            [
              0.5,
              9.5
            ],
            [
              1.5,
              9.5
            ],
            [
              1.5,
              10.5
            ],
            [
              0.5,
              10.5
            ],
            [
              0.5,
              9.5
            ]
          ]
        ]
      }
    },
    {
      "type": "Feature",
      "properties": {
        "cell_id": "SYN_l_shape_r006_c002",
        "region_id": "Synthetic-l_shape"
      },
      "geometry": {
        "type": "Polygon",
        "coordinates": [
          [
            [
              1.5,
              9.5
            ],
            [
              2.5,
              9.5
            ],
            [
              2.5,
              10.5
            ],
            [
              1.5,
              10.5
            ],
            [
              1.5,
              9.5
            ]
          ]
        ]
      }
    },
    {
      "type": "Feature",
      "properties": {
        "cell_id": "SYN_l_shape_r006_c003",
        "region_id": "Synthetic-l_shape"
      },
      "geometry": {
        "type": "Polygon",
        "coordinates": [
          [
            [
              2.5,
              9.5
            ],
            [
              3.5,
              9.5
            ],
            [
              3.5,
              10.5
            ],
            [
              2.5,
              10.5
            ],
            [
              2.5,
              9.5
            ]
          ]
        ]
      }
    },
    {
      "type": "Feature",
      "properties": {
        "cell_id": "SYN_l_shape_r006_c004",
        "region_id": "Synthetic-l_shape"
      },
      "geometry": {
        "type": "Polygon",
        "coordinates": [
          [
            [
              3.5,
              9.5
            ],
            [
              4.5,
              9.5
            ],
            [
              4.5,
              10.5
            ],
            [
              3.5,
              10.5
            ],
            [
              3.5,
              9.5
            ]
          ]
        ]
      }
    },
    {
      "type": "Feature",
      "properties": {
        "cell_id": "SYN_l_shape_r007_c000",
        "region_id": "Synthetic-l_shape"
      },
      "geometry": {
        "type": "Polygon",
        "coordinates": [
          [
            [
              -0.5,
              8.5
            ],
            [
              0.5,
              8.5
            ],
            [
              0.5,
              9.5
            ],
            [
              -0.5,
              9.5
            ],
            [
              -0.5,
              8.5
            ]
          ]
        ]
      }
    },
    {
      "type": "Feature",
      "properties": {
        "cell_id": "SYN_l_shape_r007_c001",
        "region_id": "Synthetic-l_shape"
      },
      "geometry": {
        "type": "Polygon",
        "coordinates": [
          [
            [
              0.5,
              8.5
            ],
            [
              1.5,
              8.5
            ],
            [
              1.5,
              9.5
            ],
            [
              0.5,
              9.5
            ],
            [
              0.5,
              8.5
            ]
          ]
        ]
      }
    },
    {
      "type": "Feature",
      "properties": {
        "cell_id": "SYN_l_shape_r007_c002",
        "region_id": "Synthetic-l_shape"
      },
      "geometry": {
        "type": "Polygon",
        "coordinates": [
          [
            [
              1.5,
              8.5
            ],
            [
              2.5,
              8.5
            ],
            [
              2.5,
              9.5
            ],
            [
              1.5,
              9.5
            ],
            [
              1.5,
              8.5
            ]
          ]
        ]
      }
    },
    {
      "type": "Feature",
      "properties": {
        "cell_id": "SYN_l_shape_r007_c003",
        "region_id": "Synthetic-l_shape"
      },
      "geometry": {
        "type": "Polygon",
        "coordinates": [
          [
            [
              2.5,
              8.5
            ],
            [
              3.5,
              8.5
            ],
            [
              3.5,
              9.5
            ],
            [
              2.5,
              9.5
            ],
            [
              2.5,
              8.5
            ]
          ]
        ]
      }
    },
    {
      "type": "Feature",
      "properties": {
        "cell_id": "SYN_l_shape_r007_c004",
        "region_id": "Synthetic-l_shape"
      },
      "geometry": {
        "type": "Polygon",
        "coordinates": [
          [
            [
              3.5,
              8.5
            ],
            [
              4.5,
              8.5
            ],
            [
              4.5,
              9.5
            ],
            [
              3.5,
              9.5
            ],
            [
              3.5,
              8.5
            ]
          ]
        ]
      }
    },
    {
      "type": "Feature",
      "properties": {
        "cell_id": "SYN_l_shape_r008_c000",
        "region_id": "Synthetic-l_shape"
      },
      "geometry": {
        "type": "Polygon",
        "coordinates": [
          [
            [
              -0.5,
              7.5
            ],
            [
              0.5,
              7.5
            ],
            [
              0.5,
              8.5
            ],
            [
              -0.5,
              8.5
            ],
            [
              -0.5,
              7.5
            ]
          ]
        ]
      }
    },
    {
      "type": "Feature",
      "properties": {
        "cell_id": "SYN_l_shape_r008_c001",
        "region_id": "Synthetic-l_shape"
      },
      "geometry": {
        "type": "Polygon",
        "coordinates": [
          [
            [
              0.5,
              7.5
            ],
            [
              1.5,
              7.5
            ],
            [
              1.5,
              8.5
            ],
            [
              0.5,
              8.5
            ],
            [
              0.5,
              7.5
            ]
          ]
        ]
      }
    },
    {
      "type": "Feature",
      "properties": {
        "cell_id": "SYN_l_shape_r008_c002",
        "region_id": "Synthetic-l_shape"
      },
      "geometry": {
        "type": "Polygon",
        "coordinates": [
          [
            [
              1.5,
              7.5
            ],
            [
              2.5,
              7.5
            ],
            [
              2.5,
              8.5
            ],
            [
              1.5,
              8.5
            ],
            [
              1.5,
              7.5
            ]
          ]
        ]
      }
    },
    {
      "type": "Feature",
      "properties": {
        "cell_id": "SYN_l_shape_r008_c003",
        "region_id": "Synthetic-l_shape"
      },
      "geometry": {
        "type": "Polygon",
        "coordinates": [
          [
            [
              2.5,
              7.5
            ],
            [
              3.5,
              7.5
            ],
            [
              3.5,
              8.5
            ],
            [
              2.5,
              8.5
            ],
            [
              2.5,
              7.5
            ]
          ]
        ]
      }
    },
    {
      "type": "Feature",
      "properties": {
        "cell_id": "SYN_l_shape_r008_c004",
        "region_id": "Synthetic-l_shape"
      },
      "geometry": {
        "type": "Polygon",
        "coordinates": [
          [
            [
              3.5,
              7.5
            ],
            [
              4.5,
              7.5
            ],
            [
              4.5,
              8.5
            ],
            [
              3.5,
              8.5
            ],
            [
              3.5,
              7.5
            ]
          ]
        ]
      }
    },
    {
      "type": "Feature",
      "properties": {
        "cell_id": "SYN_l_shape_r009_c000",
        "region_id": "Synthetic-l_shape"
      },
      "geometry": {
        "type": "Polygon",
        "coordinates": [
          [
            [
              -0.5,
              6.5
            ],
            [
              0.5,
              6.5
            ],
            [
              0.5,
              7.5
            ],
            [
              -0.5,
              7.5
            ],
            [
              -0.5,
              6.5
            ]
          ]
        ]
      }
    },
    {
      "type": "Feature",
      "properties": {
        "cell_id": "SYN_l_shape_r009_c001",
        "region_id": "Synthetic-l_shape"
      },
      "geometry": {
        "type": "Polygon",
        "coordinates": [
          [
            [
              0.5,
              6.5
            ],
            [
              1.5,
              6.5
            ],
            [
              1.5,
              7.5
            ],
            [
              0.5,
              7.5
            ],
            [
              0.5,
              6.5
            ]
          ]
        ]
      }
    },
    {
      "type": "Feature",
      "properties": {
        "cell_id": "SYN_l_shape_r009_c002",
        "region_id": "Synthetic-l_shape"
      },
      "geometry": {
        "type": "Polygon",
        "coordinates": [
          [
            [
              1.5,
              6.5
            ],
            [
              2.5,
              6.5
            ],
            [
              2.5,
              7.5
            ],
            [
              1.5,
              7.5
            ],
            [
              1.5,
              6.5
            ]
          ]
        ]
      }
    },
    {
      "type": "Feature",
      "properties": {
        "cell_id": "SYN_l_shape_r009_c003",
        "region_id": "Synthetic-l_shape"
      },
      "geometry": {
        "type": "Polygon",
        "coordinates": [
          [
            [
              2.5,
              6.5
            ],
            [
              3.5,
              6.5
            ],
            [
              3.5,
              7.5
            ],
            [
              2.5,
              7.5
            ],
            [
              2.5,
              6.5
            ]
          ]
        ]
      }
    },
    {
      "type": "Feature",
      "properties": {
        "cell_id": "SYN_l_shape_r009_c004",
        "region_id": "Synthetic-l_shape"
      },
      "geometry": {
        "type": "Polygon",
        "coordinates": [
          [
            [
              3.5,
              6.5
            ],
            [
              4.5,
              6.5
            ],
            [
              4.5,
              7.5
            ],
            [
              3.5,
              7.5
            ],
            [
              3.5,
              6.5
            ]
          ]
        ]
      }
    },
    {
      "type": "Feature",
      "properties": {
        "cell_id": "SYN_l_shape_r010_c000",
        "region_id": "Synthetic-l_shape"
      },
      "geometry": {
        "type": "Polygon",
        "coordinates": [
          [
            [
              -0.5,
              5.5
            ],
            [
              0.5,
              5.5
            ],
            [
              0.5,
              6.5
            ],
            [
              -0.5,
              6.5
            ],
            [
              -0.5,
              5.5
            ]
          ]
        ]
      }
    },
    {
      "type": "Feature",
      "properties": {
        "cell_id": "SYN_l_shape_r010_c001",
        "region_id": "Synthetic-l_shape"
      },
      "geometry": {
        "type": "Polygon",
        "coordinates": [
          [
            [
              0.5,
              5.5
            ],
            [
              1.5,
              5.5
            ],
            [
              1.5,
              6.5
            ],
            [
              0.5,
              6.5
            ],
            [
              0.5,
              5.5
            ]
          ]
        ]
      }
    },
    {
      "type": "Feature",
      "properties": {
        "cell_id": "SYN_l_shape_r010_c002",
        "region_id": "Synthetic-l_shape"
      },
      "geometry": {
        "type": "Polygon",
        "coordinates": [
          [
            [
              1.5,
              5.5
            ],
            [
              2.5,
              5.5
            ],
            [
              2.5,
              6.5
            ],
            [
              1.5,
              6.5
            ],
            [
              1.5,
              5.5
            ]
          ]
        ]
      }
    },
    {
      "type": "Feature",
      "properties": {
        "cell_id": "SYN_l_shape_r010_c003",
        "region_id": "Synthetic-l_shape"
      },
      "geometry": {
        "type": "Polygon",
        "coordinates": [
          [
            [
              2.5,
              5.5
            ],
            [
              3.5,
              5.5
            ],
            [
              3.5,
              6.5
            ],
            [
              2.5,
              6.5
            ],
            [
              2.5,
              5.5
            ]
          ]
        ]
      }
    },
    {
      "type": "Feature",
      "properties": {
        "cell_id": "SYN_l_shape_r010_c004",
        "region_id": "Synthetic-l_shape"
      },
      "geometry": {
        "type": "Polygon",
        "coordinates": [
          [
            [
              3.5,
              5.5
            ],
            [
              4.5,
              5.5
            ],
            [
              4.5,
              6.5
            ],
            [
              3.5,
              6.5
            ],
            [
              3.5,
              5.5
            ]
          ]
        ]
      }
    },
    {
      "type": "Feature",
      "properties": {
        "cell_id": "SYN_l_shape_r011_c000",
        "region_id": "Synthetic-l_shape"
      },
      "geometry": {
        "type": "Polygon",
        "coordinates": [
          [
            [
              -0.5,
              4.5
            ],
            [
              0.5,
              4.5
            ],
            [
              0.5,
              5.5
            ],
            [
              -0.5,
              5.5
            ],
            [
              -0.5,
              4.5
            ]
          ]
        ]
      }
    },
    {
      "type": "Feature",
      "properties": {
        "cell_id": "SYN_l_shape_r011_c001",
        "region_id": "Synthetic-l_shape"
      },
      "geometry": {
        "type": "Polygon",
        "coordinates": [
          [
            [
              0.5,
              4.5
            ],
            [
              1.5,
              4.5
            ],
            [
              1.5,
              5.5
            ],
            [
              0.5,
              5.5
            ],
            [
              0.5,
              4.5
            ]
          ]
        ]
      }
    },
    {
      "type": "Feature",
      "properties": {
        "cell_id": "SYN_l_shape_r011_c002",
        "region_id": "Synthetic-l_shape"
      },
      "geometry": {
        "type": "Polygon",
        "coordinates": [
          [
            [
              1.5,
              4.5
            ],
            [
              2.5,
              4.5
            ],
            [
              2.5,
              5.5
            ],
            [
              1.5,
              5.5
            ],
            [
              1.5,
              4.5
            ]
          ]
        ]
      }
    },
    {
      "type": "Feature",
      "properties": {
        "cell_id": "SYN_l_shape_r011_c003",
        "region_id": "Synthetic-l_shape"
      },
      "geometry": {
        "type": "Polygon",
        "coordinates": [
          [
            [
              2.5,
              4.5
            ],
            [
              3.5,
              4.5
            ],
            [
              3.5,
              5.5
            ],
            [
              2.5,
              5.5
            ],
            [
              2.5,
              4.5
            ]
          ]
        ]
      }
    },
    {
      "type": "Feature",
      "properties": {
        "cell_id": "SYN_l_shape_r011_c004",
        "region_id": "Synthetic-l_shape"
      },
      "geometry": {
        "type": "Polygon",
        "coordinates": [
          [
            [
              3.5,
              4.5
            ],
            [
              4.5,
              4.5
            ],
            [
              4.5,
              5.5
            ],
            [
              3.5,
              5.5
            ],
            [
              3.5,
              4.5
            ]
          ]
        ]
      }
    },
    {
      "type": "Feature",
      "properties": {
        "cell_id": "SYN_l_shape_r012_c000",
        "region_id": "Synthetic-l_shape"
      },
      "geometry": {
        "type": "Polygon",
        "coordinates": [
          [
            [
              -0.5,
              3.5
            ],
            [
              0.5,
              3.5
            ],
            [
              0.5,
              4.5
            ],
            [
              -0.5,
              4.5
            ],
            [
              -0.5,
              3.5
            ]
          ]
        ]
      }
    },
    {
      "type": "Feature",
      "properties": {
        "cell_id": "SYN_l_shape_r012_c001",
        "region_id": "Synthetic-l_shape"
      },
      "geometry": {
        "type": "Polygon",
        "coordinates": [
          [
            [
              0.5,
              3.5
            ],
            [
              1.5,
              3.5
            ],
            [
              1.5,
              4.5
            ],
            [
              0.5,
              4.5
            ],
            [
              0.5,
              3.5
            ]
          ]
        ]
      }
    },
    {
      "type": "Feature",
      "properties": {
        "cell_id": "SYN_l_shape_r012_c002",
        "region_id": "Synthetic-l_shape"
      },
      "geometry": {
        "type": "Polygon",
        "coordinates": [
          [
            [
              1.5,
              3.5
            ],
            [
              2.5,
              3.5
            ],
            [
              2.5,
              4.5
            ],
            [
              1.5,
              4.5
            ],
            [
              1.5,
              3.5
            ]
          ]
        ]
      }
    },
    {
      "type": "Feature",
      "properties": {
        "cell_id": "SYN_l_shape_r012_c003",
        "region_id": "Synthetic-l_shape"
      },
      "geometry": {
        "type": "Polygon",
        "coordinates": [
          [
            [
              2.5,
              3.5
            ],
            [
              3.5,
              3.5
            ],
            [
              3.5,
              4.5
            ],
            [
              2.5,
              4.5
            ],
            [
              2.5,
              3.5
            ]
          ]
        ]
      }
    },
    {
      "type": "Feature",
      "properties": {
        "cell_id": "SYN_l_shape_r012_c004",
        "region_id": "Synthetic-l_shape"
      },
      "geometry": {
        "type": "Polygon",
        "coordinates": [
          [
            [
              3.5,
              3.5
            ],
            [
              4.5,
              3.5
            ],
            [
              4.5,
              4.5
            ],
            [
              3.5,
              4.5
            ],
            [
              3.5,
              3.5
            ]
          ]
        ]
      }
    },
    {
      "type": "Feature",
      "properties": {
        "cell_id": "SYN_l_shape_r013_c000",
        "region_id": "Synthetic-l_shape"
      },
      "geometry": {
        "type": "Polygon",
        "coordinates": [
          [
            [
              -0.5,
              2.5
            ],
            [
              0.5,
              2.5
            ],
            [
              0.5,
              3.5
            ],
            [
              -0.5,
              3.5
            ],
            [
              -0.5,
              2.5
            ]
          ]
        ]
      }
    },
    {
      "type": "Feature",
      "properties": {
        "cell_id": "SYN_l_shape_r013_c001",
        "region_id": "Synthetic-l_shape"
      },
      "geometry": {
        "type": "Polygon",
        "coordinates": [
          [
            [
              0.5,
              2.5
            ],
            [
              1.5,
              2.5
            ],
            [
              1.5,
              3.5
            ],
            [
              0.5,
              3.5
            ],
            [
              0.5,
              2.5
            ]
          ]
        ]
      }
    },
    {
      "type": "Feature",
      "properties": {
        "cell_id": "SYN_l_shape_r013_c002",
        "region_id": "Synthetic-l_shape"
      },
      "geometry": {
        "type": "Polygon",
        "coordinates": [
          [
            [
              1.5,
              2.5
            ],
            [
              2.5,
              2.5
            ],
            [
              2.5,
              3.5
            ],
            [
              1.5,
              3.5
            ],
            [
              1.5,
              2.5
            ]
          ]
        ]
      }
    },
    {
      "type": "Feature",
      "properties": {
        "cell_id": "SYN_l_shape_r013_c003",
        "region_id": "Synthetic-l_shape"
      },
      "geometry": {
        "type": "Polygon",
        "coordinates": [
          [
            [
              2.5,
              2.5
            ],
            [
              3.5,
              2.5
            ],
            [
              3.5,
              3.5
            ],
            [
              2.5,
              3.5
            ],
            [
              2.5,
              2.5
            ]
          ]
        ]
      }
    },
    {
      "type": "Feature",
      "properties": {
        "cell_id": "SYN_l_shape_r013_c004",
        "region_id": "Synthetic-l_shape"
      },
      "geometry": {
        "type": "Polygon",
        "coordinates": [
          [
            [
              3.5,
              2.5
            ],
            [
              4.5,
              2.5
            ],
            [
              4.5,
              3.5
            ],
            [
              3.5,
              3.5
            ],
            [
              3.5,
              2.5
            ]
          ]
        ]
      }
    },
    {
      "type": "Feature",
      "properties": {
        "cell_id": "SYN_l_shape_r014_c000",
        "region_id": "Synthetic-l_shape"
      },
      "geometry": {
        "type": "Polygon",
        "coordinates": [
          [
            [
              -0.5,
              1.5
            ],
            [
              0.5,
              1.5
            ],
            [
              0.5,
              2.5
            ],
            [
              -0.5,
              2.5
            ],
            [
              -0.5,
              1.5
            ]
          ]
        ]
      }
    },
    {
      "type": "Feature",
      "properties": {
        "cell_id": "SYN_l_shape_r014_c001",
        "region_id": "Synthetic-l_shape"
      },
      "geometry": {
        "type": "Polygon",
        "coordinates": [
          [
            [
              0.5,
              1.5
            ],
            [
              1.5,
              1.5
            ],
            [
              1.5,
              2.5
            ],
            [
              0.5,
              2.5
            ],
            [
              0.5,
              1.5
            ]
          ]
        ]
      }
    },
    {
      "type": "Feature",
      "properties": {
        "cell_id": "SYN_l_shape_r014_c002",
        "region_id": "Synthetic-l_shape"
      },
      "geometry": {
        "type": "Polygon",
        "coordinates": [
          [
            [
              1.5,
              1.5
            ],
            [
              2.5,
              1.5
            ],
            [
              2.5,
              2.5
            ],
            [
              1.5,
              2.5
            ],
            [
              1.5,
              1.5
            ]
          ]
        ]
      }
    },
    {
      "type": "Feature",
      "properties": {
        "cell_id": "SYN_l_shape_r014_c003",
        "region_id": "Synthetic-l_shape"
      },
      "geometry": {
        "type": "Polygon",
        "coordinates": [
          [
            [
              2.5,
              1.5
            ],
            [
              3.5,
              1.5
            ],
            [
              3.5,
              2.5
            ],
            [
              2.5,
              2.5
            ],
            [
              2.5,
              1.5
            ]
          ]
        ]
      }
    },
    {
      "type": "Feature",
      "properties": {
        "cell_id": "SYN_l_shape_r014_c004",
        "region_id": "Synthetic-l_shape"
      },
      "geometry": {
        "type": "Polygon",
        "coordinates": [
          [
            [
              3.5,
              1.5
            ],
            [
              4.5,
              1.5
            ],
            [
              4.5,
              2.5
            ],
            [
              3.5,
              2.5
            ],
            [
              3.5,
              1.5
            ]
          ]
        ]
      }
    },
    {
      "type": "Feature",
      "properties": {
        "cell_id": "SYN_l_shape_r015_c000",
        "region_id": "Synthetic-l_shape"
      },
      "geometry": {
        "type": "Polygon",
        "coordinates": [
          [
            [
              -0.5,
              0.5
            ],
            [
              0.5,
              0.5
            ],
            [
              0.5,
              1.5
            ],
            [
              -0.5,
              1.5
            ],
            [
              -0.5,
              0.5
            ]
          ]
        ]
      }
    },
    {
      "type": "Feature",
      "properties": {
        "cell_id": "SYN_l_shape_r015_c001",
        "region_id": "Synthetic-l_shape"
      },
      "geometry": {
        "type": "Polygon",
        "coordinates": [
          [
            [
              0.5,
              0.5
            ],
            [
              1.5,
              0.5
            ],
            [
              1.5,
              1.5
            ],
            [
              0.5,
              1.5
            ],
            [
              0.5,
              0.5
            ]
          ]
        ]
      }
    },
    {
      "type": "Feature",
      "properties": {
        "cell_id": "SYN_l_shape_r015_c002",
        "region_id": "Synthetic-l_shape"
      },
      "geometry": {
        "type": "Polygon",
        "coordinates": [
          [
            [
              1.5,
              0.5
            ],
            [
              2.5,
              0.5
            ],
            [
              2.5,
              1.5
            ],
            [
              1.5,
              1.5
            ],
            [
              1.5,
              0.5
            ]
          ]
        ]
      }
    },
    {
      "type": "Feature",
      "properties": {
        "cell_id": "SYN_l_shape_r015_c003",
        "region_id": "Synthetic-l_shape"
      },
      "geometry": {
        "type": "Polygon",
        "coordinates": [
          [
            [
              2.5,
              0.5
            ],
            [
              3.5,
              0.5
            ],
            [
              3.5,
              1.5
            ],
            [
              2.5,
              1.5
            ],
            [
              2.5,
              0.5
            ]
          ]
        ]
      }
    },
    {
      "type": "Feature",
      "properties": {
        "cell_id": "SYN_l_shape_r015_c004",
        "region_id": "Synthetic-l_shape"
      },
      "geometry": {
        "type": "Polygon",
        "coordinates": [
          [
            [
              3.5,
              0.5
            ],
            [
              4.5,
              0.5
            ],
            [
              4.5,
              1.5
            ],
            [
              3.5,
              1.5
            ],
            [
              3.5,
              0.5
            ]
          ]
        ]
      }
    },
    {
      "type": "Feature",
      "properties": {
        "cell_id": "SYN_l_shape_r016_c000",
        "region_id": "Synthetic-l_shape"
      },
      "geometry": {
        "type": "Polygon",
        "coordinates": [
          [
            [
              -0.5,
              -0.5
            ],
            [
              0.5,
              -0.5
            ],
            [
              0.5,
              0.5
            ],
            [
              -0.5,
              0.5
            ],
            [
              -0.5,
              -0.5
            ]
          ]
        ]
      }
    },
    {
      "type": "Feature",
      "properties": {
        "cell_id": "SYN_l_shape_r016_c001",
        "region_id": "Synthetic-l_shape"
      },
      "geometry": {
        "type": "Polygon",
        "coordinates": [
          [
            [
              0.5,
              -0.5
            ],
            [
              1.5,
              -0.5
            ],
            [
              1.5,
              0.5
            ],
            [
              0.5,
              0.5
            ],
            [
              0.5,
              -0.5
            ]
          ]
        ]
      }
    },
    {
      "type": "Feature",
      "properties": {
        "cell_id": "SYN_l_shape_r016_c002",
        "region_id": "Synthetic-l_shape"
      },
      "geometry": {
        "type": "Polygon",
        "coordinates": [
          [
            [
              1.5,
              -0.5
            ],
            [
              2.5,
              -0.5
            ],
            [
              2.5,
              0.5
            ],
            [
              1.5,
              0.5
            ],
            [
              1.5,
              -0.5
            ]
          ]
        ]
      }
    },
    {
      "type": "Feature",
      "properties": {
        "cell_id": "SYN_l_shape_r016_c003",
        "region_id": "Synthetic-l_shape"
      },
      "geometry": {
        "type": "Polygon",
        "coordinates": [
          [
            [
              2.5,
              -0.5
            ],
            [
              3.5,
              -0.5
            ],
            [
              3.5,
              0.5
            ],
            [
              2.5,
              0.5
            ],
            [
              2.5,
              -0.5
            ]
          ]
        ]
      }
    },
    {
      "type": "Feature",
      "properties": {
        "cell_id": "SYN_l_shape_r016_c004",
        "region_id": "Synthetic-l_shape"
      },
      "geometry": {
        "type": "Polygon",
        "coordinates": [
          [
            [
              3.5,
              -0.5
            ],
            [
              4.5,
              -0.5
            ],
            [
              4.5,
              0.5
            ],
            [
              3.5,
              0.5
            ],
            [
              3.5,
              -0.5
            ]
          ]
        ]
      }
    }
  ]
}