{
  "type": "FeatureCollection",
  "features": [
    {
      "type": "Feature",
      "properties": {
        "cell_id": "CEG2000_f4_r0028_c0108",
        "region_id": "安徽"
      },
      "geometry": {
        "type": "Polygon",
        "coordinates": [
          [
            [
              116.800006,
              29.5
            ],
            [
              117.199994,
              29.5
            ],
            [
              117.199994,
              29.900000000000002
            ],
            [
              116.800006,
              29.900000000000002
            ],
            [
              116.800006,
              29.5
            ]
          ]
        ]
      }
    },
    {
      "type": "Feature",
      "properties": {
        "cell_id": "CEG2000_f4_r0028_c0109",
        "region_id": "安徽"
      },
      "geometry": {
        "type": "Polygon",
        "coordinates": [
          [
            [
              117.2,
              29.5
            ],
            [
              117.6,
              29.5
            ],
            [
              117.6,
              29.900000000000002
            ],
            [
              117.2,
              29.900000000000002
            ],
            [
              117.2,
              29.5
            ]
          ]
        ]
      }
    },
    {
      "type": "Feature",
      "properties": {
        "cell_id": "CEG2000_f4_r0028_c0110",
        "region_id": "安徽"
      },
      "geometry": {
        "type": "Polygon",
        "coordinates": [
          [
            [
              117.59999400000001,
              29.5
            ],
            [
              118.0,
              29.5
            ],
            [
              118.0,
              29.900000000000002
            ],
            [
              117.59999400000001,
              29.900000000000002
            ],
            [
              117.59999400000001,
              29.5
            ]
          ]
        ]
      }
    },
    {
      "type": "Feature",
      "properties": {
        "cell_id": "CEG2000_f4_r0028_c0111",
        "region_id": "安徽"
      },
      "geometry": {
        "type": "Polygon",
        "coordinates": [
          [
            [
              118.0,
              29.5
            ],
            [
              118.40000599999999,
              29.5
            ],
            [
              118.40000599999999,
              29.900000000000002
            ],
            [
              118.0,
              29.900000000000002
            ],
            [
              118.0,
              29.5
            ]
          ]
        ]
      }
    },
    {
      "type": "Feature",
      "properties": {
        "cell_id": "CEG2000_f4_r0028_c0112",
        "region_id": "安徽"
      },
      "geometry": {
        "type": "Polygon",
        "coordinates": [
          [
            [
              118.4,
              29.5
            ],
            [
              118.8,
              29.5
            ],
            [
              118.8,
              29.900000000000002
            ],
            [
              118.4,
              29.900000000000002
            ],
            [
              118.4,
              29.5
            ]
          ]
        ]
      }
    },
    {
      "type": "Feature",
      "properties": {
        "cell_id": "CEG2000_f4_r0029_c0106",
        "region_id": "安徽"
      },
      "geometry": {
        "type": "Polygon",
        "coordinates": [
          [
            [
              116.0,
              29.9
            ],
            [
              116.40000599999999,
              29.9
            ],
            [
              116.40000599999999,
              30.3
            ],
            [
              116.0,
              30.3
            ],
            [
              116.0,
              29.9
            ]
          ]
        ]
      }
    },
    {
      "type": "Feature",
      "properties": {
        "cell_id": "CEG2000_f4_r0029_c0107",
        "region_id": "安徽"
      },
      "geometry": {
        "type": "Polygon",
        "coordinates": [
          [
            [
              116.4,
              29.9
            ],
            [
              116.8,
              29.9
            ],
            [
              116.8,
              30.3
            ],
            [
              116.4,
              30.3
            ],
            [
              116.4,
              29.9
            ]
          ]
        ]
      }
    },
    {
      "type": "Feature",
      "properties": {
        "cell_id": "CEG2000_f4_r0029_c0108",
        "region_id": "安徽"
      },
      "geometry": {
        "type": "Polygon",
        "coordinates": [
          [
            [
              116.800006,
              29.9
            ],
            [
              117.199994,
              29.9
            ],
            [
              117.199994,
              30.3
            ],
            [
              116.800006,
              30.3
            ],
            [
              116.800006,
              29.9
            ]
          ]
        ]
      }
    },
    {
      "type": "Feature",
      "properties": {
        "cell_id": "CEG2000_f4_r0029_c0109",
        "region_id": "安徽"
      },
      "geometry": {
        "type": "Polygon",
        "coordinates": [
          [
            [
              117.2,
              29.9
            ],
            [
              117.6,
              29.9
            ],
            [
              117.6,
              30.3
            ],
            [
              117.2,
              30.3
            ],
            [
              117.2,
              29.9
            ]
          ]
        ]
      }
    },
    {
      "type": "Feature",
      "properties": {
        "cell_id": "CEG2000_f4_r0029_c0110",
        "region_id": "安徽"
      },
      "geometry": {
        "type": "Polygon",
        "coordinates": [
          [
            [
              117.59999400000001,
              29.9
            ],
            [
              118.0,
              29.9
            ],
            [
              118.0,
              30.3
            ],
            [
              117.59999400000001,
              30.3
            ],
            [
              117.59999400000001,
              29.9
            ]
          ]
        ]
      }
    },
    {
      "type": "Feature",
      "properties": {
        "cell_id": "CEG2000_f4_r0029_c0111",
        "region_id": "安徽"
      },
      "geometry": {
        "type": "Polygon",
        "coordinates": [
          [
            [
              118.0,
              29.9
            ],
            [
              118.40000599999999,
              29.9
            ],
            [
              118.40000599999999,
              30.3
            ],
            [
              118.0,
              30.3
            ],
            [
              118.0,
              29.9
            ]
          ]
        ]
      }
    },
    {
      "type": "Feature",
      "properties": {
        "cell_id": "CEG2000_f4_r0029_c0112",
        "region_id": "安徽"
      },
      "geometry": {
        "type": "Polygon",
        "coordinates": [
          [
            [
              118.4,
              29.9
            ],
            [
              118.8,
              29.9
            ],
            [
              118.8,
              30.3
            ],
            [
              118.4,
              30.3
            ],
            [
              118.4,
              29.9
            ]
          ]
        ]
      }
    },
    {
      "type": "Feature",
      "properties": {
        "cell_id": "CEG2000_f4_r0029_c0113",
        "region_id": "安徽"
      },
      "geometry": {
        "type": "Polygon",
        "coordinates": [
          [
            [
              118.800006,
              29.9
            ],
            [
              119.199994,
              29.9
            ],
            [
              119.199994,
              30.3
            ],
            [
              118.800006,
              30.3
            ],
            [
              118.800006,
              29.9
            ]
          ]
        ]
      }
    },
    {
      "type": "Feature",
      "properties": {
        "cell_id": "CEG2000_f4_r0030_c0105",
        "region_id": "安徽"
      },
      "geometry": {
        "type": "Polygon",
        "coordinates": [
          [
            [
              115.59999400000001,
              30.3
            ],
            [
              116.0,
              30.3
            ],
            [
              116.0,
              30.700002
            ],
            [
              115.59999400000001,
              30.700002
            ],
            [
              115.59999400000001,
              30.3
            ]
          ]
        ]
      }
    },
    {
      "type": "Feature",
      "properties": {
        "cell_id": "CEG2000_f4_r0030_c0106",
        "region_id": "安徽"
      },
      "geometry": {
        "type": "Polygon",
        "coordinates": [
          [
            [
              116.0,
              30.3
            ],
            [
              116.40000599999999,
              30.3
            ],
            [
              116.40000599999999,
              30.700002
            ],
            [
              116.0,
              30.700002
            ],
            [
              116.0,
              30.3
            ]
          ]
        ]
      }
    },
    {
      "type": "Feature",
      "properties": {
        "cell_id": "CEG2000_f4_r0030_c0107",
        "region_id": "安徽"
      },
      "geometry": {
        "type": "Polygon",
        "coordinates": [
          [
            [
              116.4,
              30.3
            ],
            [
              116.8,
              30.3
            ],
            [
              116.8,
              30.700002
            ],
            [
              116.4,
              30.700002
            ],
            [
              116.4,
              30.3
            ]
          ]
        ]
      }
    },
    {
      "type": "Feature",
      "properties": {
        "cell_id": "CEG2000_f4_r0030_c0108",
        "region_id": "安徽"
      },
      "geometry": {
        "type": "Polygon",
        "coordinates": [
          [
            [
              116.800006,
              30.3
            ],
            [
              117.199994,
              30.3
            ],
            [
              117.199994,
              30.700002
            ],
            [
              116.800006,
              30.700002
            ],
            [
              116.800006,
              30.3
            ]
          ]
        ]
      }
    },
    {
      "type": "Feature",
      "properties": {
        "cell_id": "CEG2000_f4_r0030_c0109",
        "region_id": "安徽"
      },
      "geometry": {
        "type": "Polygon",
        "coordinates": [
          [
            [
              117.2,
              30.3
            ],
            [
              117.6,
              30.3
            ],
            [
              117.6,
              30.700002
            ],
            [
              117.2,
              30.700002
            ],
            [
              117.2,
              30.3
            ]
          ]
        ]
      }
    },
    {
      "type": "Feature",
      "properties": {
        "cell_id": "CEG2000_f4_r0030_c0110",
        "region_id": "安徽"
      },
      "geometry": {
        "type": "Polygon",
        "coordinates": [
          [
            [
              117.59999400000001,
              30.3
            ],
            [
              118.0,
              30.3
            ],
            [
              118.0,
              30.700002
            ],
            [
              117.59999400000001,
              30.700002
            ],
            [
              117.59999400000001,
              30.3
            ]
          ]
        ]
      }
    },
    {
      "type": "Feature",
      "properties": {
        "cell_id": "CEG2000_f4_r0030_c0111",
        "region_id": "安徽"
      },
      "geometry": {
        "type": "Polygon",
        "coordinates": [
          [
            [
              118.0,
              30.3
            ],
            [
              118.40000599999999,
              30.3
            ],
            [
              118.40000599999999,
              30.700002
            ],
            [
              118.0,
              30.700002
            ],
            [
              118.0,
              30.3
            ]
          ]
        ]
      }
    },
    {
      "type": "Feature",
      "properties": {
        "cell_id": "CEG2000_f4_r0030_c0112",
        "region_id": "安徽"
      },
      "geometry": {
        "type": "Polygon",
        "coordinates": [
          [
            [
              118.4,
              30.3
            ],
            [
              118.8,
              30.3
            ],
            [
              118.8,
              30.700002
            ],
            [
              118.4,
              30.700002
            ],
            [
              118.4,
              30.3
            ]
          ]
        ]
      }
    },
    {
      "type": "Feature",
      "properties": {
        "cell_id": "CEG2000_f4_r0030_c0113",
        "region_id": "安徽"
      },
      "geometry": {
        "type": "Polygon",
        "coordinates": [
          [
            [
              118.800006,
              30.3
            ],
            [
              119.199994,
              30.3
            ],
            [
              119.199994,
              30.700002
            ],
            [
              118.800006,
              30.700002
            ],
            [
              118.800006,
              30.3
            ]
          ]
        ]
      }
    },
    {
      "type": "Feature",
      "properties": {
        "cell_id": "CEG2000_f4_r0031_c0106",
        "region_id": "安徽"
      },
      "geometry": {
        "type": "Polygon",
        "coordinates": [
          [
            [
              116.0,
              30.7
            ],
            [
              116.40000599999999,
              30.7
            ],
            [
              116.40000599999999,
              31.1
            ],
            [
              116.0,
              31.1
            ],
            [
              116.0,
              30.7
            ]
          ]
        ]
      }
    },
    {
      "type": "Feature",
      "properties": {
        "cell_id": "CEG2000_f4_r0031_c0107",
        "region_id": "安徽"
      },
      "geometry": {
        "type": "Polygon",
        "coordinates": [
          [
            [
              116.4,
              30.7
            ],
            [
              116.8,
              30.7
            ],
            [
              116.8,
              31.1
            ],
            [
              116.4,
              31.1
            ],
            [
              116.4,
              30.7
            ]
          ]
        ]
      }
    },
    {
      "type": "Feature",
      "properties": {
        "cell_id": "CEG2000_f4_r0031_c0108",
        "region_id": "安徽"
      },
      "geometry": {
        "type": "Polygon",
        "coordinates": [
          [
            [
              116.800006,
              30.7
            ],
            [
              117.199994,
              30.7
            ],
            [
              117.199994,
              31.1
            ],
            [
              116.800006,
              31.1
            ],
            [
              116.800006,
              30.7
            ]
          ]
        ]
      }
    },
    {
      "type": "Feature",
      "properties": {
        "cell_id": "CEG2000_f4_r0031_c0109",
        "region_id": "安徽"
      },
      "geometry": {
        "type": "Polygon",
        "coordinates": [
          [
            [
              117.2,
              30.7
            ],
            [
              117.6,
              30.7
            ],
            [
              117.6,
              31.1
            ],
            [
              117.2,
              31.1
            ],
            [
              117.2,
              30.7
            ]
          ]
        ]
      }
    },
    {
      "type": "Feature",
      "properties": {
        "cell_id": "CEG2000_f4_r0031_c0110",
        "region_id": "安徽"
      },
      "geometry": {
        "type": "Polygon",
        "coordinates": [
          [
            [
              117.59999400000001,
              30.7
            ],
            [
              118.0,
              30.7
            ],
            [
              118.0,
              31.1
            ],
            [
              117.59999400000001,
              31.1
            ],
            [
              117.59999400000001,
              30.7
            ]
          ]
        ]
      }
    },
    {
      "type": "Feature",
      "properties": {
        "cell_id": "CEG2000_f4_r0031_c0111",
        "region_id": "安徽"
      },
      "geometry": {
        "type": "Polygon",
        "coordinates": [
          [
            [
              118.0,
              30.7
            ],
            [
              118.40000599999999,
              30.7
            ],
            [
              118.40000599999999,
              31.1
            ],
            [
              118.0,
              31.1
            ],
            [
              118.0,
              30.7
            ]
          ]
        ]
      }
    },
    {
      "type": "Feature",
      "properties": {
        "cell_id": "CEG2000_f4_r0031_c0112",
        "region_id": "安徽"
      },
      "geometry": {
        "type": "Polygon",
        "coordinates": [
          [
            [
              118.4,
              30.7
            ],
            [
              118.8,
              30.7
            ],
            [
              118.8,
              31.1
            ],
            [
              118.4,
              31.1
            ],
            [
              118.4,
              30.7
            ]
          ]
        ]
      }
    },
    {
      "type": "Feature",
      "properties": {
        "cell_id": "CEG2000_f4_r0031_c0113",
        "region_id": "安徽"
      },
      "geometry": {
        "type": "Polygon",
        "coordinates": [
          [
            [
              118.800006,
              30.7
            ],
            [
              119.199994,
              30.7
            ],
            [
              119.199994,
              31.1
            ],
            [
              118.800006,
              31.1
            ],
            [
              118.800006,
              30.7
            ]
          ]
        ]
      }
    },
    {
      "type": "Feature",
      "properties": {
        "cell_id": "CEG2000_f4_r0031_c0114",
        "region_id": "安徽"
      },
      "geometry": {
        "type": "Polygon",
        "coordinates": [
          [
            [
              119.2,
              30.7
            ],
            [
              119.6,
              30.7
            ],
            [
              119.6,
              31.1
            ],
            [
              119.2,
              31.1
            ],
            [
              119.2,
              30.7
            ]
          ]
        ]
      }
    },
    {
      "type": "Feature",
      "properties": {
        "cell_id": "CEG2000_f4_r0032_c0104",
        "region_id": "安徽"
      },
      "geometry": {
        "type": "Polygon",
        "coordinates": [
          [
            [
              115.2,
              31.100002
            ],
            [
              115.6,
              31.100002
            ],
            [
              115.6,
              31.5
            ],
            [
              115.2,
              31.5
            ],
            [
              115.2,
              31.100002
            ]
          ]
        ]
      }
    },
    {
      "type": "Feature",
      "properties": {
        "cell_id": "CEG2000_f4_r0032_c0105",
        "region_id": "安徽"
      },
      "geometry": {
        "type": "Polygon",
        "coordinates": [
          [
            [
              115.59999400000001,
              31.100002
            ],
            [
              116.0,
              31.100002
            ],
            [
              116.0,
              31.5
            ],
            [
              115.59999400000001,
              31.5
            ],
            [
              115.59999400000001,
              31.100002
            ]
          ]
        ]
      }
    },
    {
      "type": "Feature",
      "properties": {
        "cell_id": "CEG2000_f4_r0032_c0106",
        "region_id": "安徽"
      },
      "geometry": {
        "type": "Polygon",
        "coordinates": [
          [
            [
              116.0,
              31.100002
            ],
            [
              116.40000599999999,
              31.100002
            ],
            [
              116.40000599999999,
              31.5
            ],
            [
              116.0,
              31.5
            ],
            [
              116.0,
              31.100002
            ]
          ]
        ]
      }
    },
    {
      "type": "Feature",
      "properties": {
        "cell_id": "CEG2000_f4_r0032_c0107",
        "region_id": "安徽"
      },
      "geometry": {
        "type": "Polygon",
        "coordinates": [
          [
            [
              116.4,
              31.100002
            ],
            [
              116.8,
              31.100002
            ],
            [
              116.8,
              31.5
            ],
            [
              116.4,
              31.5
            ],
            [
              116.4,
              31.100002
            ]
          ]
        ]
      }
    },
    {
      "type": "Feature",
      "properties": {
        "cell_id": "CEG2000_f4_r0032_c0108",
        "region_id": "安徽"
      },
      "geometry": {
        "type": "Polygon",
        "coordinates": [
          [
            [
              116.800006,
              31.100002
            ],
            [
              117.199994,
              31.100002
            ],
            [
              117.199994,
              31.5
            ],
            [
              116.800006,
              31.5
            ],
            [
              116.800006,
              31.100002
            ]
          ]
        ]
      }
    },
    {
      "type": "Feature",
      "properties": {
        "cell_id": "CEG2000_f4_r0032_c0109",
        "region_id": "安徽"
      },
      "geometry": {
        "type": "Polygon",
        "coordinates": [
          [
            [
              117.2,
              31.100002
            ],
            [
              117.6,
              31.100002
            ],
            [
              117.6,
              31.5
            ],
            [
              117.2,
              31.5
            ],
            [
              117.2,
              31.100002
            ]
          ]
        ]
      }
    },
    {
      "type": "Feature",
      "properties": {
        "cell_id": "CEG2000_f4_r0032_c0110",
        "region_id": "安徽"
      },
      "geometry": {
        "type": "Polygon",
        "coordinates": [
          [
            [
              117.59999400000001,
              31.100002
            ],
            [
              118.0,
              31.100002
            ],
            [
              118.0,
              31.5
            ],
            [
              117.59999400000001,
              31.5
            ],
            [
              117.59999400000001,
              31.100002
            ]
          ]
        ]
      }
    },
    {
      "type": "Feature",
      "properties": {
        "cell_id": "CEG2000_f4_r0032_c0111",
        "region_id": "安徽"
      },
      "geometry": {
        "type": "Polygon",
        "coordinates": [
          [
            [
              118.0,
              31.100002
            ],
            [
              118.40000599999999,
              31.100002
            ],
            [
              118.40000599999999,
              31.5
            ],
            [
              118.0,
              31.5
            ],
            [
              118.0,
              31.100002
            ]
          ]
        ]
      }
    },
    {
      "type": "Feature",
      "properties": {
        "cell_id": "CEG2000_f4_r0032_c0112",
        "region_id": "安徽"
      },
      "geometry": {
        "type": "Polygon",
        "coordinates": [
          [
            [
              118.4,
              31.100002
            ],
            [
              118.8,
              31.100002
            ],
            [
              118.8,
              31.5
            ],
            [
              118.4,
              31.5
            ],
            [
              118.4,
              31.100002
            ]
          ]
        ]
      }
    },
    {
      "type": "Feature",
      "properties": {
        "cell_id": "CEG2000_f4_r0032_c0113",
        "region_id": "安徽"
      },
      "geometry": {
        "type": "Polygon",
        "coordinates": [
          [
            [
              118.800006,
              31.100002
            ],
            [
              119.199994,
              31.100002
            ],
            [
              119.199994,
              31.5
            ],
            [
              118.800006,
              31.5
            ],
            [
              118.800006,
              31.100002
            ]
          ]
        ]
      }
    },
    {
      "type": "Feature",
      "properties": {
        "cell_id": "CEG2000_f4_r0032_c0114",
        "region_id": "安徽"
      },
      "geometry": {
        "type": "Polygon",
        "coordinates": [
          [
            [
              119.2,
              31.100002
            ],
            [
              119.6,
              31.100002
            ],
            [
              119.6,
              31.5
            ],
            [
              119.2,
              31.5
            ],
            [
              119.2,
              31.100002
            ]
          ]
        ]
      }
    },
    {
      "type": "Feature",
      "properties": {
        "cell_id": "CEG2000_f4_r0033_c0105",
        "region_id": "安徽"
      },
      "geometry": {
        "type": "Polygon",
        "coordinates": [
          [
            [
              115.59999400000001,
              31.5
            ],
            [
              116.0,
              31.5
            ],
            [
              116.0,
              31.900002
            ],
            [
              115.59999400000001,
              31.900002
            ],
            [
              115.59999400000001,
              31.5
            ]
          ]
        ]
      }
    },
    {
      "type": "Feature",
      "properties": {
        "cell_id": "CEG2000_f4_r0033_c0106",
        "region_id": "安徽"
      },
      "geometry": {
        "type": "Polygon",
        "coordinates": [
          [
            [
              116.0,
              31.5
            ],
            [
              116.40000599999999,
              31.5
            ],
            [
              116.40000599999999,
              31.900002
            ],
            [
              116.0,
              31.900002
            ],
            [
              116.0,
              31.5
            ]
          ]
        ]
      }
    },
    {
      "type": "Feature",
      "properties": {
        "cell_id": "CEG2000_f4_r0033_c0107",
        "region_id": "安徽"
      },
      "geometry": {
        "type": "Polygon",
        "coordinates": [
          [
            [
              116.4,
              31.5
            ],
            [
              116.8,
              31.5
            ],
            [
              116.8,
              31.900002
            ],
            [
              116.4,
              31.900002
            ],
            [
              116.4,
              31.5
            ]
          ]
        ]
      }
    },
    {
      "type": "Feature",
      "properties": {
        "cell_id": "CEG2000_f4_r0033_c0108",
        "region_id": "安徽"
      },
      "geometry": {
        "type": "Polygon",
        "coordinates": [
          [
            [
              116.800006,
              31.5
            ],
            [
              117.199994,
              31.5
            ],
            [
              117.199994,
              31.900002
            ],
            [
              116.800006,
              31.900002
            ],
            [
              116.800006,
              31.5
            ]
          ]
        ]
      }
    },
    {
      "type": "Feature",
      "properties": {
        "cell_id": "CEG2000_f4_r0033_c0109",
        "region_id": "安徽"
      },
      "geometry": {
        "type": "Polygon",
        "coordinates": [
          [
            [
              117.2,
              31.5
            ],
            [
              117.6,
              31.5
            ],
            [
              117.6,
              31.900002
            ],
            [
              117.2,
              31.900002
            ],
            [
              117.2,
              31.5
            ]
          ]
        ]
      }
    },
    {
      "type": "Feature",
      "properties": {
        "cell_id": "CEG2000_f4_r0033_c0110",
        "region_id": "安徽"
      },
      "geometry": {
        "type": "Polygon",
        "coordinates": [
          [
            [
              117.59999400000001,
              31.5
            ],
            [
              118.0,
              31.5
            ],
            [
              118.0,
              31.900002
            ],
            [
              117.59999400000001,
              31.900002
            ],
            [
              117.59999400000001,
              31.5
            ]
          ]
        ]
      }
    },
    {
      "type": "Feature",
      "properties": {
        "cell_id": "CEG2000_f4_r0033_c0111",
        "region_id": "安徽"
      },
      "geometry": {
        "type": "Polygon",
        "coordinates": [
          [
            [
              118.0,
              31.5
            ],
            [
              118.40000599999999,
              31.5
            ],
            [
              118.40000599999999,
              31.900002
            ],
            [
              118.0,
              31.900002
            ],
            [
              118.0,
              31.5
            ]
          ]
        ]
      }
    },
    {
      "type": "Feature",
      "properties": {
        "cell_id": "CEG2000_f4_r0033_c0112",
        "region_id": "安徽"
      },
      "geometry": {
        "type": "Polygon",
        "coordinates": [
          [
            [
              118.4,
              31.5
            ],
            [
              118.8,
              31.5
            ],
            [
              118.8,
              31.900002
            ],
            [
              118.4,
              31.900002
            ],
            [
              118.4,
              31.5
            ]
          ]
        ]
      }
    },
    {
      "type": "Feature",
      "properties": {
        "cell_id": "CEG2000_f4_r0034_c0105",
        "region_id": "安徽"
      },
      "geometry": {
        "type": "Polygon",
        "coordinates": [
          [
            [
              115.59999400000001,
              31.9
            ],
            [
              116.0,
              31.9
            ],
            [
              116.0,
              32.3
            ],
            [
              115.59999400000001,
              32.3
            ],
            [
              115.59999400000001,
              31.9
            ]
          ]
        ]
      }
    },
    {
      "type": "Feature",
      "properties": {
        "cell_id": "CEG2000_f4_r0034_c0106",
        "region_id": "安徽"
      },
      "geometry": {
        "type": "Polygon",
        "coordinates": [
          [
            [
              116.0,
              31.9
            ],
            [
              116.40000599999999,
              31.9
            ],
            [
              116.40000599999999,
              32.3
            ],
            [
              116.0,
              32.3
            ],
            [
              116.0,
              31.9
            ]
          ]
        ]
      }
    },
    {
      "type": "Feature",
      "properties": {
        "cell_id": "CEG2000_f4_r0034_c0107",
        "region_id": "安徽"
      },
      "geometry": {
        "type": "Polygon",
        "coordinates": [
          [
            [
              116.4,
              31.9
            ],
            [
              116.8,
              31.9
            ],
            [
              116.8,
              32.3
            ],
            [
              116.4,
              32.3
            ],
            [
              116.4,
              31.9
            ]
          ]
        ]
      }
    },
    {
      "type": "Feature",
      "properties": {
        "cell_id": "CEG2000_f4_r0034_c0108",
        "region_id": "安徽"
      },
      "geometry": {
        "type": "Polygon",
        "coordinates": [
          [
            [
              116.800006,
              31.9
            ],
            [
              117.199994,
              31.9
            ],
            [
              117.199994,
              32.3
            ],
            [
              116.800006,
              32.3
            ],
            [
              116.800006,
              31.9
            ]
          ]
        ]
      }
    },
    {
      "type": "Feature",
      "properties": {
        "cell_id": "CEG2000_f4_r0034_c0109",
        "region_id": "安徽"
      },
      "geometry": {
        "type": "Polygon",
        "coordinates": [
          [
            [
              117.2,
              31.9
            ],
            [
              117.6,
              31.9
            ],
            [
              117.6,
              32.3
            ],
            [
              117.2,
              32.3
            ],
            [
              117.2,
              31.9
            ]
          ]
        ]
      }
    },
    {
      "type": "Feature",
      "properties": {
        "cell_id": "CEG2000_f4_r0034_c0110",
        "region_id": "安徽"
      },
      "geometry": {
        "type": "Polygon",
        "coordinates": [
          [
            [
              117.59999400000001,
              31.9
            ],
            [
              118.0,
              31.9
            ],
            [
              118.0,
              32.3
            ],
            [
              117.59999400000001,
              32.3
            ],
            [
              117.59999400000001,
              31.9
            ]
          ]
        ]
      }
    },
    {
      "type": "Feature",
      "properties": {
        "cell_id": "CEG2000_f4_r0034_c0111",
        "region_id": "安徽"
      },
      "geometry": {
        "type": "Polygon",
        "coordinates": [
          [
            [
              118.0,
              31.9
            ],
            [
              118.40000599999999,
              31.9
            ],
            [
              118.40000599999999,
              32.3
            ],
            [
              118.0,
              32.3
            ],
            [
              118.0,
              31.9
            ]
          ]
        ]
      }
    },
    {
      "type": "Feature",
      "properties": {
        "cell_id": "CEG2000_f4_r0035_c0104",
        "region_id": "安徽"
      },
      "geometry": {
        "type": "Polygon",
        "coordinates": [
          [
            [
              115.2,
              32.300002000000006
            ],
            [
              115.6,
              32.300002000000006
            ],
            [
              115.6,
              32.7
            ],
            [
              115.2,
              32.7
            ],
            [
              115.2,
              32.300002000000006
            ]
          ]
        ]
      }
    },
    {
      "type": "Feature",
      "properties": {
        "cell_id": "CEG2000_f4_r0035_c0105",
        "region_id": "安徽"
      },
      "geometry": {
        "type": "Polygon",
        "coordinates": [
          [
            [
              115.59999400000001,
              32.300002000000006
            ],
            [
              116.0,
              32.300002000000006
            ],
            [
              116.0,
              32.7
            ],
            [
              115.59999400000001,
              32.7
            ],
            [
              115.59999400000001,
              32.300002000000006
            ]
          ]
        ]
      }
    },
    {
      "type": "Feature",
      "properties": {
        "cell_id": "CEG2000_f4_r0035_c0106",
        "region_id": "安徽"
      },
      "geometry": {
        "type": "Polygon",
        "coordinates": [
          [
            [
              116.0,
              32.300002000000006
            ],
            [
              116.40000599999999,
              32.300002000000006
            ],
            [
              116.40000599999999,
              32.7
            ],
            [
              116.0,
              32.7
            ],
            [
              116.0,
              32.300002000000006
            ]
          ]
        ]
      }
    },
    {
      "type": "Feature",
      "properties": {
        "cell_id": "CEG2000_f4_r0035_c0107",
        "region_id": "安徽"
      },
      "geometry": {
        "type": "Polygon",
        "coordinates": [
          [
            [
              116.4,
              32.300002000000006
            ],
            [
              116.8,
              32.300002000000006
            ],
            [
              116.8,
              32.7
            ],
            [
              116.4,
              32.7
            ],
            [
              116.4,
              32.300002000000006
            ]
          ]
        ]
      }
    },
    {
      "type": "Feature",
      "properties": {
        "cell_id": "CEG2000_f4_r0035_c0108",
        "region_id": "安徽"
      },
      "geometry": {
        "type": "Polygon",
        "coordinates": [
          [
            [
              116.800006,
              32.300002000000006
            ],
            [
              117.199994,
              32.300002000000006
            ],
            [
              117.199994,
              32.7
            ],
            [
              116.800006,
              32.7
            ],
            [
              116.800006,
              32.300002000000006
            ]
          ]
        ]
      }
    },
    {
      "type": "Feature",
      "properties": {
        "cell_id": "CEG2000_f4_r0035_c0109",
        "region_id": "安徽"
      },
      "geometry": {
        "type": "Polygon",
        "coordinates": [
          [
            [
              117.2,
              32.300002000000006
            ],
            [
              117.6,
              32.300002000000006
            ],
            [
              117.6,
              32.7
            ],
            [
              117.2,
              32.7
            ],
            [
              117.2,
              32.300002000000006
            ]
          ]
        ]
      }
    },
    {
      "type": "Feature",
      "properties": {
        "cell_id": "CEG2000_f4_r0035_c0110",
        "region_id": "安徽"
      },
      "geometry": {
        "type": "Polygon",
        "coordinates": [
          [
            [
              117.59999400000001,
              32.300002000000006
            ],
            [
              118.0,
              32.300002000000006
            ],
            [
              118.0,
              32.7
            ],
            [
              117.59999400000001,
              32.7
            ],
            [
              117.59999400000001,
              32.300002000000006
            ]
          ]
        ]
      }
    },
    {
      "type": "Feature",
      "properties": {
        "cell_id": "CEG2000_f4_r0035_c0111",
        "region_id": "安徽"
      },
      "geometry": {
        "type": "Polygon",
        "coordinates": [
          [
            [
              118.0,
              32.300002000000006
            ],
            [
              118.40000599999999,
              32.300002000000006
            ],
            [
              118.40000599999999,
              32.7
            ],
            [
              118.0,
              32.7
            ],
            [
              118.0,
              32.300002000000006
            ]
          ]
        ]
      }
    },
    {
      "type": "Feature",
      "properties": {
        "cell_id": "CEG2000_f4_r0035_c0112",
        "region_id": "安徽"
      },
      "geometry": {
        "type": "Polygon",
        "coordinates": [
          [
            [
              118.4,
              32.300002000000006
            ],
            [
              118.8,
              32.300002000000006
            ],
            [
              118.8,
              32.7
            ],
            [
              118.4,
              32.7
            ],
            [
              118.4,
              32.300002000000006
            ]
          ]
        ]
      }
    },
    {
      "type": "Feature",
      "properties": {
        "cell_id": "CEG2000_f4_r0035_c0113",
        "region_id": "安徽"
      },
      "geometry": {
        "type": "Polygon",
        "coordinates": [
          [
            [
              118.800006,
              32.300002000000006
            ],
            [
              119.199994,
              32.300002000000006
            ],
            [
              119.199994,
              32.7
            ],
            [
              118.800006,
              32.7
            ],
            [
              118.800006,
              32.300002000000006
            ]
          ]
        ]
      }
    },
    {
      "type": "Feature",
      "properties": {
        "cell_id": "CEG2000_f4_r0036_c0103",
        "region_id": "安徽"
      },
      "geometry": {
        "type": "Polygon",
        "coordinates": [
          [
            [
              114.800006,
              32.7
            ],
            [
              115.199994,
              32.7
            ],
            [
              115.199994,
              33.099999999999994
            ],
            [
              114.800006,
              33.099999999999994
            ],
            [
              114.800006,
              32.7
            ]
          ]
        ]
      }
    },
    {
      "type": "Feature",
      "properties": {
        "cell_id": "CEG2000_f4_r0036_c0104",
        "region_id": "安徽"
      },
      "geometry": {
        "type": "Polygon",
        "coordinates": [
          [
            [
              115.2,
              32.7
            ],
            [
              115.6,
              32.7
            ],
            [
              115.6,
              33.099999999999994
            ],
            [
              115.2,
              33.099999999999994
            ],
            [
              115.2,
              32.7
            ]
          ]
        ]
      }
    },
    {
      "type": "Feature",
      "properties": {
        "cell_id": "CEG2000_f4_r0036_c0105",
        "region_id": "安徽"
      },
      "geometry": {
        "type": "Polygon",
        "coordinates": [
          [
            [
              115.59999400000001,
              32.7
            ],
            [
              116.0,
              32.7
            ],
            [
              116.0,
              33.099999999999994
            ],
            [
              115.59999400000001,
              33.099999999999994
            ],
            [
              115.59999400000001,
              32.7
            ]
          ]
        ]
      }
    },
    {
      "type": "Feature",
      "properties": {
        "cell_id": "CEG2000_f4_r0036_c0106",
        "region_id": "安徽"
      },
      "geometry": {
        "type": "Polygon",
        "coordinates": [
          [
            [
              116.0,
              32.7
            ],
            [
              116.40000599999999,
              32.7
            ],
            [
              116.40000599999999,
              33.099999999999994
            ],
            [
              116.0,
              33.099999999999994
            ],
            [
              116.0,
              32.7
            ]
          ]
        ]
      }
    },
    {
      "type": "Feature",
      "properties": {
        "cell_id": "CEG2000_f4_r0036_c0107",
        "region_id": "安徽"
      },
      "geometry": {
        "type": "Polygon",
        "coordinates": [
          [
            [
              116.4,
              32.7
            ],
            [
              116.8,
              32.7
            ],
            [
              116.8,
              33.099999999999994
            ],
            [
              116.4,
              33.099999999999994
            ],
            [
              116.4,
              32.7
            ]
          ]
        ]
      }
    },
    {
      "type": "Feature",
      "properties": {
        "cell_id": "CEG2000_f4_r0036_c0108",
        "region_id": "安徽"
      },
      "geometry": {
        "type": "Polygon",
        "coordinates": [
          [
            [
              116.800006,
              32.7
            ],
            [
              117.199994,
              32.7
            ],
            [
              117.199994,
              33.099999999999994
            ],
            [
              116.800006,
              33.099999999999994
            ],
            [
              116.800006,
              32.7
            ]
          ]
        ]
      }
    },
    {
      "type": "Feature",
      "properties": {
        "cell_id": "CEG2000_f4_r0036_c0109",
        "region_id": "安徽"
      },
      "geometry": {
        "type": "Polygon",
        "coordinates": [
          [
            [
              117.2,
              32.7
            ],
            [
              117.6,
              32.7
            ],
            [
              117.6,
              33.099999999999994
            ],
            [
              117.2,
              33.099999999999994
            ],
            [
              117.2,
              32.7
            ]
          ]
        ]
      }
    },
    {
      "type": "Feature",
      "properties": {
        "cell_id": "CEG2000_f4_r0036_c0110",
        "region_id": "安徽"
      },
      "geometry": {
        "type": "Polygon",
        "coordinates": [
          [
            [
              117.59999400000001,
              32.7
            ],
            [
              118.0,
              32.7
            ],
            [
              118.0,
              33.099999999999994
            ],
            [
              117.59999400000001,
              33.099999999999994
            ],
            [
              117.59999400000001,
              32.7
            ]
          ]
        ]
      }
    },
    {
      "type": "Feature",
      "properties": {
        "cell_id": "CEG2000_f4_r0036_c0111",
        "region_id": "安徽"
      },
      "geometry": {
        "type": "Polygon",
        "coordinates": [
          [
            [
              118.0,
              32.7
            ],
            [
              118.40000599999999,
              32.7
            ],
            [
              118.40000599999999,
              33.099999999999994
            ],
            [
              118.0,
              33.099999999999994
            ],
            [
              118.0,
              32.7
            ]
          ]
        ]
      }
    },
    {
      "type": "Feature",
      "properties": {
        "cell_id": "CEG2000_f4_r0036_c0113",
        "region_id": "安徽"
      },
      "geometry": {
        "type": "Polygon",
        "coordinates": [
          [
            [
              118.800006,
              32.7
            ],
            [
              119.199994,
              32.7
            ],
            [
              119.199994,
              33.099999999999994
            ],
            [
              118.800006,
              33.099999999999994
            ],
            [
              118.800006,
              32.7
            ]
          ]
        ]
      }
    },
    {
      "type": "Feature",
      "properties": {
        "cell_id": "CEG2000_f4_r0037_c0104",
        "region_id": "安徽"
      },
      "geometry": {
        "type": "Polygon",
        "coordinates": [
          [
            [
              115.2,
              33.099999999999994
            ],
            [
              115.6,
              33.099999999999994
            ],
            [
              115.6,
              33.5
            ],
            [
              115.2,
              33.5
            ],
            [
              115.2,
              33.099999999999994
            ]
          ]
        ]
      }
    },
    {
      "type": "Feature",
      "properties": {
        "cell_id": "CEG2000_f4_r0037_c0105",
        "region_id": "安徽"
      },
      "geometry": {
        "type": "Polygon",
        "coordinates": [
          [
            [
              115.59999400000001,
              33.099999999999994
            ],
            [
              116.0,
              33.099999999999994
            ],
            [
              116.0,
              33.5
            ],
            [
              115.59999400000001,
              33.5
            ],
            [
              115.59999400000001,
              33.099999999999994
            ]
          ]
        ]
      }
    },
    {
      "type": "Feature",
      "properties": {
        "cell_id": "CEG2000_f4_r0037_c0106",
        "region_id": "安徽"
      },
      "geometry": {
        "type": "Polygon",
        "coordinates": [
          [
            [
              116.0,
              33.099999999999994
            ],
            [
              116.40000599999999,
              33.099999999999994
            ],
            [
              116.40000599999999,
              33.5
            ],
            [
              116.0,
              33.5
            ],
            [
              116.0,
              33.099999999999994
            ]
          ]
        ]
      }
    },
    {
      "type": "Feature",
      "properties": {
        "cell_id": "CEG2000_f4_r0037_c0107",
        "region_id": "安徽"
      },
      "geometry": {
        "type": "Polygon",
        "coordinates": [
          [
            [
              116.4,
              33.099999999999994
            ],
            [
              116.8,
              33.099999999999994
            ],
            [
              116.8,
              33.5
            ],
            [
              116.4,
              33.5
            ],
            [
              116.4,
              33.099999999999994
            ]
          ]
        ]
      }
    },
    {
      "type": "Feature",
      "properties": {
        "cell_id": "CEG2000_f4_r0037_c0108",
        "region_id": "安徽"
      },
      "geometry": {
        "type": "Polygon",
        "coordinates": [
          [
            [
              116.800006,
              33.099999999999994
            ],
            [
              117.199994,
              33.099999999999994
            ],
            [
              117.199994,
              33.5
            ],
            [
              116.800006,
              33.5
            ],
            [
              116.800006,
              33.099999999999994
            ]
          ]
        ]
      }
    },
    {
      "type": "Feature",
      "properties": {
        "cell_id": "CEG2000_f4_r0037_c0109",
        "region_id": "安徽"
      },
      "geometry": {
        "type": "Polygon",
        "coordinates": [
          [
            [
              117.2,
              33.099999999999994
            ],
            [
              117.6,
              33.099999999999994
            ],
            [
              117.6,
              33.5
            ],
            [
              117.2,
              33.5
            ],
            [
              117.2,
              33.099999999999994
            ]
          ]
        ]
      }
    },
    {
      "type": "Feature",
      "properties": {
        "cell_id": "CEG2000_f4_r0037_c0110",
        "region_id": "安徽"
      },
      "geometry": {
        "type": "Polygon",
        "coordinates": [
          [
            [
              117.59999400000001,
              33.099999999999994
            ],
            [
              118.0,
              33.099999999999994
            ],
            [
              118.0,
              33.5
            ],
            [
              117.59999400000001,
              33.5
            ],
            [
              117.59999400000001,
              33.099999999999994
            ]
          ]
        ]
      }
    },
    {
      "type": "Feature",
      "properties": {
        "cell_id": "CEG2000_f4_r0038_c0105",
        "region_id": "安徽"
      },
      "geometry": {
        "type": "Polygon",
        "coordinates": [
          [
            [
              115.59999400000001,
              33.5
            ],
            [
              116.0,
              33.5
            ],
            [
              116.0,
              33.900002
            ],
            [
              115.59999400000001,
              33.900002
            ],
            [
              115.59999400000001,
              33.5
            ]
          ]
        ]
      }
    },
    {
      "type": "Feature",
      "properties": {
        "cell_id": "CEG2000_f4_r0038_c0106",
        "region_id": "安徽"
      },
      "geometry": {
        "type": "Polygon",
        "coordinates": [
          [
            [
              116.0,
              33.5
            ],
            [
              116.40000599999999,
              33.5
            ],
            [
              116.40000599999999,
              33.900002
            ],
            [
              116.0,
              33.900002
            ],
            [
              116.0,
              33.5
            ]
          ]
        ]
      }
    },
    {
      "type": "Feature",
      "properties": {
        "cell_id": "CEG2000_f4_r0038_c0107",
        "region_id": "安徽"
      },
      "geometry": {
        "type": "Polygon",
        "coordinates": [
          [
            [
              116.4,
              33.5
            ],
            [
              116.8,
              33.5
            ],
            [
              116.8,
              33.900002
            ],
            [
              116.4,
              33.900002
            ],
            [
              116.4,
              33.5
            ]
          ]
        ]
      }
    },
    {
      "type": "Feature",
      "properties": {
        "cell_id": "CEG2000_f4_r0038_c0108",
        "region_id": "安徽"
      },
      "geometry": {
        "type": "Polygon",
        "coordinates": [
          [
            [
              116.800006,
              33.5
            ],
            [
              117.199994,
              33.5
            ],
            [
              117.199994,
              33.900002
            ],
            [
              116.800006,
              33.900002
            ],
            [
              116.800006,
              33.5
            ]
          ]
        ]
      }
    },
    {
      "type": "Feature",
      "properties": {
        "cell_id": "CEG2000_f4_r0038_c0109",
        "region_id": "安徽"
      },
      "geometry": {
        "type": "Polygon",
        "coordinates": [
          [
            [
              117.2,
              33.5
            ],
            [
              117.6,
              33.5
            ],
            [
              117.6,
              33.900002
            ],
            [
              117.2,
              33.900002
            ],
            [
              117.2,
              33.5
            ]
          ]
        ]
      }
    },
    {
      "type": "Feature",
      "properties": {
        "cell_id": "CEG2000_f4_r0038_c0110",
        "region_id": "安徽"
      },
      "geometry": {
        "type": "Polygon",
        "coordinates": [
          [
            [
              117.59999400000001,
              33.5
            ],
            [
              118.0,
              33.5
            ],
            [
              118.0,
              33.900002
            ],
            [
              117.59999400000001,
              33.900002
            ],
            [
              117.59999400000001,
              33.5
            ]
          ]
        ]
      }
    },
    {
      "type": "Feature",
      "properties": {
        "cell_id": "CEG2000_f4_r0039_c0105",
        "region_id": "安徽"
      },
      "geometry": {
        "type": "Polygon",
        "coordinates": [
          [
            [
              115.59999400000001,
              33.900000000000006
            ],
            [
              116.0,
              33.900000000000006
            ],
            [
              116.0,
              34.3
            ],
            [
              115.59999400000001,
              34.3
            ],
            [
              115.59999400000001,
              33.900000000000006
            ]
          ]
        ]
      }
    },
    {
      "type": "Feature",
      "properties": {
        "cell_id": "CEG2000_f4_r0039_c0107",
        "region_id": "安徽"
      },
      "geometry": {
        "type": "Polygon",
        "coordinates": [
          [
            [
              116.4,
              33.900000000000006
            ],
            [
              116.8,
              33.900000000000006
            ],
            [
              116.8,
              34.3
            ],
            [
              116.4,
              34.3
            ],
            [
              116.4,
              33.900000000000006
            ]
          ]
        ]
      }
    },
    {
      "type": "Feature",
      "properties": {
        "cell_id": "CEG2000_f4_r0039_c0108",
        "region_id": "安徽"
      },
      "geometry": {
        "type": "Polygon",
        "coordinates": [
          [
            [
              116.800006,
              33.900000000000006
            ],
            [
              117.199994,
              33.900000000000006
            ],
            [
              117.199994,
              34.3
            ],
            [
              116.800006,
              34.3
            ],
            [
              116.800006,
              33.900000000000006
            ]
          ]
        ]
      }
    },
    {
      "type": "Feature",
      "properties": {
        "cell_id": "CEG2000_f4_r0039_c0109",
        "region_id": "安徽"
      },
      "geometry": {
        "type": "Polygon",
        "coordinates": [
          [
            [
              117.2,
              33.900000000000006
            ],
            [
              117.6,
              33.900000000000006
            ],
            [
              117.6,
              34.3
            ],
            [
              117.2,
              34.3
            ],
            [
              117.2,
              33.900000000000006
            ]
          ]
        ]
      }
    },
    {
      "type": "Feature",
      "properties": {
        "cell_id": "CEG2000_f4_r0040_c0106",
        "region_id": "安徽"
      },
      "geometry": {
        "type": "Polygon",
        "coordinates": [
          [
            [
              116.0,
              34.300002000000006
            ],
            [
              116.40000599999999,
              34.300002000000006
            ],
            [
              116.40000599999999,
              34.7
            ],
            [
              116.0,
              34.7
            ],
            [
              116.0,
              34.300002000000006
            ]
          ]
        ]
      }
    },
    {
      "type": "Feature",
      "properties": {
        "cell_id": "CEG2000_f4_r0040_c0107",
        "region_id": "安徽"
      },
      "geometry": {
        "type": "Polygon",
        "coordinates": [
          [
            [
              116.4,
              34.300002000000006
            ],
            [
              116.8,
              34.300002000000006
            ],
            [
              116.8,
              34.7
            ],
            [
              116.4,
              34.7
            ],
            [
              116.4,
              34.300002000000006
            ]
          ]
        ]
      }
    }
  ]
}