{
  "type": "FeatureCollection",
  "features": [
    {
      "type": "Feature",
      "properties": {
        "cell_id": "CEG2000_f4_r0022_c0115",
        "method": "Direct Polar",
        "view": "annulus"
      },
      "geometry": {
        "type": "Polygon",
        "coordinates": [
          [
            [
              -0.23537405897124064,
              -0.9719048576704424
            ],
            [
              -0.0684805416244414,
              -0.9976524522191198
            ],
            [
              -0.0815009568586758,
              -0.9514995808385694
            ],
            [
              -0.2892833694620195,
              -0.9572435072397727
            ],
            [
              -0.23537405897124064,
              -0.9719048576704424
            ]
          ]
        ]
      }
    },
    {
      "type": "Feature",
      "properties": {
        "cell_id": "CEG2000_f4_r0022_c0116",
        "method": "Direct Polar",
        "view": "annulus"
      },
      "geometry": {
        "type": "Polygon",
        "coordinates": [
          [
            [
              -0.0684805416244414,
              -0.9976524522191198
            ],
            [
              0.1043223699017753,
              -0.994543535064241
            ],
            [
              0.1175309218557615,
              -0.8979089546904022
            ],
            [
              -0.0815009568586758,
              -0.9514995808385694
            ],
            [
              -0.0684805416244414,
              -0.9976524522191198
            ]
          ]
        ]
      }
    },
    {
      "type": "Feature",
      "properties": {
        "cell_id": "CEG2000_f4_r0023_c0113",
        "method": "Direct Polar",
        "view": "annulus"
      },
      "geometry": {
        "type": "Polygon",
        "coordinates": [
          [
            [
              -0.5923883976607154,
              -0.8056525220695149
            ],
            [
              -0.4512289367191097,
              -0.8698378530030512
            ],
            [
              -0.49727997857123474,
              -0.7210074572281718
            ],
            [
              -0.6953918717265786,
              -0.7113253054644899
            ],
            [
              -0.5923883976607154,
              -0.8056525220695149
            ]
          ]
        ]
      }
    },
    {
      "type": "Feature",
      "properties": {
        "cell_id": "CEG2000_f4_r0023_c0114",
        "method": "Direct Polar",
        "view": "annulus"
      },
      "geometry": {
        "type": "Polygon",
        "coordinates": [
          [
            [
              -0.4512266109318026,
              -0.8698388161154409
            ],
            [
              -0.28928052035075896,
              -0.9572443682496096
            ],
            [
              -0.32950013001142936,
              -0.820080796401243
            ],
            [
              -0.49727685592260257,
              -0.7210074443272972
            ],
            [
              -0.4512266109318026,
              -0.8698388161154409
            ]
          ]
        ]
      }
    },
    {
      "type": "Feature",
      "properties": {
        "cell_id": "CEG2000_f4_r0023_c0115",
        "method": "Direct Polar",
        "view": "annulus"
      },
      "geometry": {
        "type": "Polygon",
        "coordinates": [
          [
            [
              -0.2892833694620195,
              -0.9572435072397727
            ],
            [
              -0.0815009568586758,
              -0.9514995808385694
            ],
            [
              -0.09433222474832702,
              -0.8283300040035014
            ],
            [
              -0.329502327458929,
              -0.8200774510000088
            ],
            [
              -0.2892833694620195,
              -0.9572435072397727
            ]
          ]
        ]
      }
    },
    {
      "type": "Feature",
      "properties": {
        "cell_id": "CEG2000_f4_r0023_c0116",
        "method": "Direct Polar",
        "view": "annulus"
      },
      "geometry": {
        "type": "Polygon",
        "coordinates": [
          [
            [
              -0.0815009568586758,
              -0.9514995808385694
            ],
            [
              0.1175309218557615,
              -0.8979089546904022
            ],
            [
              0.1361001687193548,
              -0.7820531070177604
            ],
            [
              -0.09433222474832702,
              -0.8283300040035014
            ],
            [
              -0.0815009568586758,
              -0.9514995808385694
            ]
          ]
        ]
      }
    },
    {
      "type": "Feature",
      "properties": {
        "cell_id": "CEG2000_f4_r0023_c0117",
        "method": "Direct Polar",
        "view": "annulus"
      },
      "geometry": {
        "type": "Polygon",
        "coordinates": [
          [
            [
              0.1175281359845194,
              -0.8979099532969065
            ],
            [
              0.3154346613256791,
              -0.9078906644019441
            ],
            [
              0.35672669373745497,
              -0.7722486669559437
            ],
            [
              0.13609699838521,
              -0.7820542967848285
            ],
            [
              0.1175281359845194,
              -0.8979099532969065
            ]
          ]
        ]
      }
    },
    {
      "type": "Feature",
      "properties": {
        "cell_id": "CEG2000_f4_r0024_c0113",
        "method": "Direct Polar",
        "view": "annulus"
      },
      "geometry": {
        "type": "Polygon",
        "coordinates": [
          [
            [
              -0.6953918717265773,
              -0.7113253054644911
            ],
            [
              -0.49727997857123385,
              -0.7210074572281726
            ],
            [
              -0.601794762945613,
              -0.5850025226748666
            ],
            [
              -0.8080618275727696,
              -0.554183757298114
            ],
            [
              -0.6953918717265773,
              -0.7113253054644911
            ]
          ]
        ]
      }
    },
    {
      "type": "Feature",
      "properties": {
        "cell_id": "CEG2000_f4_r0024_c0114",
        "method": "Direct Polar",
        "view": "annulus"
      },
      "geometry": {
        "type": "Polygon",
        "coordinates": [
          [
            [
              -0.4972768559226016,
              -0.721007444327298
            ],
            [
              -0.32950013001142936,
              -0.820080796401245
            ],
            [
              -0.37771370988755365,
              -0.6302811997833991
            ],
            [
              -0.6017916532975653,
              -0.585003162832553
            ],
            [
              -0.4972768559226016,
              -0.721007444327298
            ]
          ]
        ]
      }
    },
    {
      "type": "Feature",
      "properties": {
        "cell_id": "CEG2000_f4_r0024_c0115",
        "method": "Direct Polar",
        "view": "annulus"
      },
      "geometry": {
        "type": "Polygon",
        "coordinates": [
          [
            [
              -0.32950232745892866,
              -0.8200774510000101
            ],
            [
              -0.09433222474832693,
              -0.8283300040035024
            ],
            [
              -0.11929553357654475,
              -0.7023248774783437
            ],
            [
              -0.3777168080042281,
              -0.6302795950132152
            ],
            [
              -0.32950232745892866,
              -0.8200774510000101
            ]
          ]
        ]
      }
    },
    {
      "type": "Feature",
      "properties": {
        "cell_id": "CEG2000_f4_r0024_c0116",
        "method": "Direct Polar",
        "view": "annulus"
      },
      "geometry": {
        "type": "Polygon",
        "coordinates": [
          [
            [
              -0.09433222474832693,
              -0.8283300040035024
            ],
            [
              0.1361001687193546,
              -0.7820531070177612
            ],
            [
              0.17153051424643823,
              -0.6608296554343253
            ],
            [
              -0.11929553357654475,
              -0.7023248774783437
            ],
            [
              -0.09433222474832693,
              -0.8283300040035024
            ]
          ]
        ]
      }
    },
    {
      "type": "Feature",
      "properties": {
        "cell_id": "CEG2000_f4_r0024_c0117",
        "method": "Direct Polar",
        "view": "annulus"
      },
      "geometry": {
        "type": "Polygon",
        "coordinates": [
          [
            [
              0.1360969983852098,
              -0.7820542967848295
            ],
            [
              0.3567266937374545,
              -0.7722486669559449
            ],
            [
              0.44965874866524796,
              -0.6526422099529801
            ],
            [
              0.17152652632341886,
              -0.6608306905603869
            ],
            [
              0.1360969983852098,
              -0.7820542967848295
            ]
          ]
        ]
      }
    },
    {
      "type": "Feature",
      "properties": {
        "cell_id": "CEG2000_f4_r0024_c0118",
        "method": "Direct Polar",
        "view": "annulus"
      },
      "geometry": {
        "type": "Polygon",
        "coordinates": [
          [
            [
              0.3567295812572872,
              -0.7722476981610151
            ],
            [
              0.5849863231681628,
              -0.7801528596211377
            ],
            [
              0.6497880679502035,
              -0.5810001930827597
            ],
            [
              0.4496627645494685,
              -0.6526419371176589
            ],
            [
              0.3567295812572872,
              -0.7722476981610151
            ]
          ]
        ]
      }
    },
    {
      "type": "Feature",
      "properties": {
        "cell_id": "CEG2000_f4_r0025_c0112",
        "method": "Direct Polar",
        "view": "annulus"
      },
      "geometry": {
        "type": "Polygon",
        "coordinates": [
          [
            [
              -0.883649448887854,
              -0.46814917652409893
            ],
            [
              -0.8080632841527735,
              -0.5541823081123148
            ],
            [
              -0.8387115698480359,
              -0.29247625870462207
            ],
            [
              -0.9655781315795526,
              -0.2601131903909144
            ],
            [
              -0.883649448887854,
              -0.46814917652409893
            ]
          ]
        ]
      }
    },
    {
      "type": "Feature",
      "properties": {
        "cell_id": "CEG2000_f4_r0025_c0113",
        "method": "Direct Polar",
        "view": "annulus"
      },
      "geometry": {
        "type": "Polygon",
        "coordinates": [
          [
            [
              -0.8080618275727696,
              -0.554183757298114
            ],
            [
              -0.601794762945613,
              -0.5850025226748666
            ],
            [
              -0.694691804041168,
              -0.3433777983460726
            ],
            [
              -0.8387095630697848,
              -0.29247685092833364
            ],
            [
              -0.8080618275727696,
              -0.554183757298114
            ]
          ]
        ]
      }
    },
    {
      "type": "Feature",
      "properties": {
        "cell_id": "CEG2000_f4_r0025_c0114",
        "method": "Direct Polar",
        "view": "annulus"
      },
      "geometry": {
        "type": "Polygon",
        "coordinates": [
          [
            [
              -0.6017916532975653,
              -0.585003162832553
            ],
            [
              -0.37771370988755365,
              -0.6302811997833991
            ],
            [
              -0.5237102980268824,
              -0.4443584261203184
            ],
            [
              -0.6946894260776809,
              -0.3433787730358637
            ],
            [
              -0.6017916532975653,
              -0.585003162832553
            ]
          ]
        ]
      }
    },
    {
      "type": "Feature",
      "properties": {
        "cell_id": "CEG2000_f4_r0025_c0115",
        "method": "Direct Polar",
        "view": "annulus"
      },
      "geometry": {
        "type": "Polygon",
        "coordinates": [
          [
            [
              -0.3777168080042281,
              -0.6302795950132152
            ],
            [
              -0.11929553357654475,
              -0.7023248774783437
            ],
            [
              -0.1995718276340019,
              -0.5974255669264047
            ],
            [
              -0.5237150639918501,
              -0.4443576938037298
            ],
            [
              -0.3777168080042281,
              -0.6302795950132152
            ]
          ]
        ]
      }
    },
    {
      "type": "Feature",
      "properties": {
        "cell_id": "CEG2000_f4_r0025_c0116",
        "method": "Direct Polar",
        "view": "annulus"
      },
      "geometry": {
        "type": "Polygon",
        "coordinates": [
          [
            [
              -0.11929553357654475,
              -0.7023248774783437
            ],
            [
              0.17153051424643823,
              -0.6608296554343253
            ],
            [
              0.2773401928664049,
              -0.543289922707786
            ],
            [
              -0.1995718276340019,
              -0.5974255669264047
            ],
            [
              -0.11929553357654475,
              -0.7023248774783437
            ]
          ]
        ]
      }
    },
    {
      "type": "Feature",
      "properties": {
        "cell_id": "CEG2000_f4_r0025_c0117",
        "method": "Direct Polar",
        "view": "annulus"
      },
      "geometry": {
        "type": "Polygon",
        "coordinates": [
          [
            [
              0.17152652632341886,
              -0.6608306905603869
            ],
            [
              0.44965874866524796,
              -0.6526422099529801
            ],
            [
              0.5783868962228699,
              -0.42685586980421697
            ],
            [
              0.2773337994718223,
              -0.5432908804910858
            ],
            [
              0.17152652632341886,
              -0.6608306905603869
            ]
          ]
        ]
      }
    },
    {
      "type": "Feature",
      "properties": {
        "cell_id": "CEG2000_f4_r0025_c0118",
        "method": "Direct Polar",
        "view": "annulus"
      },
      "geometry": {
        "type": "Polygon",
        "coordinates": [
          [
            [
              0.4496627645494685,
              -0.6526419371176589
            ],
            [
              0.6497880679502035,
              -0.5810001930827597
            ],
            [
              0.7156865618316699,
              -0.3253854350209434
            ],
            [
              0.5783888028810883,
              -0.4268532862827944
            ],
            [
              0.4496627645494685,
              -0.6526419371176589
            ]
          ]
        ]
      }
    },
    {
      "type": "Feature",
      "properties": {
        "cell_id": "CEG2000_f4_r0025_c0119",
        "method": "Direct Polar",
        "view": "annulus"
      },
      "geometry": {
        "type": "Polygon",
        "coordinates": [
          [
            [
              0.6497902336977529,
              -0.5809987833488539
            ],
            [
              0.8042068123264848,
              -0.5195731583951421
            ],
            [
              0.8444005367060629,
              -0.27739470173007297
            ],
            [
              0.7156880003777066,
              -0.3253842150313854
            ],
            [
              0.6497902336977529,
              -0.5809987833488539
            ]
          ]
        ]
      }
    },
    {
      "type": "Feature",
      "properties": {
        "cell_id": "CEG2000_f4_r0026_c0111",
        "method": "Direct Polar",
        "view": "annulus"
      },
      "geometry": {
        "type": "Polygon",
        "coordinates": [
          [
            [
              -0.9767550989716808,
              -0.21435829032911702
            ],
            [
              -0.9655775928773447,
              -0.26011519012390044
            ],
            [
              -0.9109955967610329,
              -0.00818433530332273
            ],
            [
              -0.9999732182499542,
              -0.007318659906671785
            ],
            [
              -0.9767550989716808,
              -0.21435829032911702
            ]
          ]
        ]
      }
    },
    {
      "type": "Feature",
      "properties": {
        "cell_id": "CEG2000_f4_r0026_c0112",
        "method": "Direct Polar",
        "view": "annulus"
      },
      "geometry": {
        "type": "Polygon",
        "coordinates": [
          [
            [
              -0.9655778158213666,
              -0.26011436252855974
            ],
            [
              -0.8387112373408949,
              -0.29247755637039446
            ],
            [
              -0.8129174986276262,
              -0.009453990376999425
            ],
            [
              -0.910997067872975,
              -0.008184320590292215
            ],
            [
              -0.9655778158213666,
              -0.26011436252855974
            ]
          ]
        ]
      }
    },
    {
      "type": "Feature",
      "properties": {
        "cell_id": "CEG2000_f4_r0026_c0113",
        "method": "Direct Polar",
        "view": "annulus"
      },
      "geometry": {
        "type": "Polygon",
        "coordinates": [
          [
            [
              -0.8387092305601818,
              -0.29247814859559723
            ],
            [
              -0.694691246364428,
              -0.3433791823315607
            ],
            [
              -0.714815468145506,
              -0.011783238754095472
            ],
            [
              -0.8129160273210482,
              -0.009454015029661925
            ],
            [
              -0.8387092305601818,
              -0.29247814859559723
            ]
          ]
        ]
      }
    },
    {
      "type": "Feature",
      "properties": {
        "cell_id": "CEG2000_f4_r0026_c0114",
        "method": "Direct Polar",
        "view": "annulus"
      },
      "geometry": {
        "type": "Polygon",
        "coordinates": [
          [
            [
              -0.694688868396439,
              -0.343380157022111
            ],
            [
              -0.5237089171323667,
              -0.4443594021583788
            ],
            [
              -0.6166029440493044,
              -0.017447716630018015
            ],
            [
              -0.7148139962089918,
              -0.01178328827206572
            ],
            [
              -0.694688868396439,
              -0.343380157022111
            ]
          ]
        ]
      }
    },
    {
      "type": "Feature",
      "properties": {
        "cell_id": "CEG2000_f4_r0026_c0115",
        "method": "Direct Polar",
        "view": "annulus"
      },
      "geometry": {
        "type": "Polygon",
        "coordinates": [
          [
            [
              -0.5237136830994887,
              -0.4443586698526722
            ],
            [
              -0.1995712816775602,
              -0.5974268201006658
            ],
            [
              -0.5189969772715879,
              -0.05181316207970959
            ],
            [
              -0.6166044196834694,
              -0.01744757085127614
            ],
            [
              -0.5237136830994887,
              -0.4443586698526722
            ]
          ]
        ]
      }
    },
    {
      "type": "Feature",
      "properties": {
        "cell_id": "CEG2000_f4_r0026_c0116",
        "method": "Direct Polar",
        "view": "annulus"
      },
      "geometry": {
        "type": "Polygon",
        "coordinates": [
          [
            [
              -0.1995712816775602,
              -0.5974268201006658
            ],
            [
              0.2773392332848434,
              -0.5432906688161657
            ],
            [
              0.5372270016499576,
              -0.03509678765655018
            ],
            [
              -0.5189969772715879,
              -0.05181316207970959
            ],
            [
              -0.1995712816775602,
              -0.5974268201006658
            ]
          ]
        ]
      }
    },
    {
      "type": "Feature",
      "properties": {
        "cell_id": "CEG2000_f4_r0026_c0117",
        "method": "Direct Polar",
        "view": "annulus"
      },
      "geometry": {
        "type": "Polygon",
        "coordinates": [
          [
            [
              0.2773328399018216,
              -0.5432916265800939
            ],
            [
              0.578386839341979,
              -0.4268578909375858
            ],
            [
              0.636239420986415,
              -0.01565936280100895
            ],
            [
              0.5372254772001008,
              -0.03509755902575665
            ],
            [
              0.2773328399018216,
              -0.5432916265800939
            ]
          ]
        ]
      }
    },
    {
      "type": "Feature",
      "properties": {
        "cell_id": "CEG2000_f4_r0026_c0118",
        "method": "Direct Polar",
        "view": "annulus"
      },
      "geometry": {
        "type": "Polygon",
        "coordinates": [
          [
            [
              0.5783887460119421,
              -0.4268553074127363
            ],
            [
              0.7156867017714892,
              -0.32538707132226513
            ],
            [
              0.7344075744438632,
              -0.011135330020544114
            ],
            [
              0.636240895062522,
              -0.01565925268299558
            ],
            [
              0.5783887460119421,
              -0.4268553074127363
            ]
          ]
        ]
      }
    },
    {
      "type": "Feature",
      "properties": {
        "cell_id": "CEG2000_f4_r0026_c0119",
        "method": "Direct Polar",
        "view": "annulus"
      },
      "geometry": {
        "type": "Polygon",
        "coordinates": [
          [
            [
              0.7156881403227141,
              -0.3253858513288029
            ],
            [
              0.8444001391649704,
              -0.2773959118580911
            ],
            [
              0.8325048594789656,
              -0.009120678292844272
            ],
            [
              0.7344090461673927,
              -0.01113528820259545
            ],
            [
              0.7156881403227141,
              -0.3253858513288029
            ]
          ]
        ]
      }
    },
    {
      "type": "Feature",
      "properties": {
        "cell_id": "CEG2000_f4_r0027_c0111",
        "method": "Direct Polar",
        "view": "annulus"
      },
      "geometry": {
        "type": "Polygon",
        "coordinates": [
          [
            [
              -0.999973226011906,
              -0.00731759928812427
            ],
            [
              -0.9109956074155788,
              -0.008183149263478273
            ],
            [
              -0.9667825741305103,
              0.24306875283242665
            ],
            [
              -0.9796617276873631,
              0.20065617185775933
            ],
            [
              -0.999973226011906,
              -0.00731759928812427
            ]
          ]
        ]
      }
    },
    {
      "type": "Feature",
      "properties": {
        "cell_id": "CEG2000_f4_r0027_c0112",
        "method": "Direct Polar",
        "view": "annulus"
      },
      "geometry": {
        "type": "Polygon",
        "coordinates": [
          [
            [
              -0.9109970785274655,
              -0.008183134552579348
            ],
            [
              -0.8129175145586819,
              -0.009452620418713954
            ],
            [
              -0.8666997171667122,
              0.282078848209708
            ],
            [
              -0.9667840129681312,
              0.24306828510219788
            ],
            [
              -0.9109970785274655,
              -0.008183134552579348
            ]
          ]
        ]
      }
    },
    {
      "type": "Feature",
      "properties": {
        "cell_id": "CEG2000_f4_r0027_c0113",
        "method": "Direct Polar",
        "view": "annulus"
      },
      "geometry": {
        "type": "Polygon",
        "coordinates": [
          [
            [
              -0.8129160432522159,
              -0.009452645067806196
            ],
            [
              -0.7148154962863346,
              -0.011781531502150304
            ],
            [
              -0.750058787390225,
              0.3460184227971042
            ],
            [
              -0.8666981319977465,
              0.28207957839440884
            ],
            [
              -0.8129160432522159,
              -0.009452645067806196
            ]
          ]
        ]
      }
    },
    {
      "type": "Feature",
      "properties": {
        "cell_id": "CEG2000_f4_r0027_c0114",
        "method": "Direct Polar",
        "view": "annulus"
      },
      "geometry": {
        "type": "Polygon",
        "coordinates": [
          [
            [
              -0.7148140243501147,
              -0.011781581012951663
            ],
            [
              -0.6166030155390119,
              -0.01744518999805254
            ],
            [
              -0.5594917318651892,
              0.4430572639121074
            ],
            [
              -0.7500567997437565,
              0.3460196724772709
            ],
            [
              -0.7148140243501147,
              -0.011781581012951663
            ]
          ]
        ]
      }
    },
    {
      "type": "Feature",
      "properties": {
        "cell_id": "CEG2000_f4_r0027_c0115",
        "method": "Direct Polar",
        "view": "annulus"
      },
      "geometry": {
        "type": "Polygon",
        "coordinates": [
          [
            [
              -0.6166044911718123,
              -0.01744504424037758
            ],
            [
              -0.5189970948504047,
              -0.05180566466236649
            ],
            [
              -0.20280353411243493,
              0.5666096553840635
            ],
            [
              -0.5594960185752722,
              0.4430558963686027
            ],
            [
              -0.6166044911718123,
              -0.01744504424037758
            ]
          ]
        ]
      }
    },
    {
      "type": "Feature",
      "properties": {
        "cell_id": "CEG2000_f4_r0027_c0116",
        "method": "Direct Polar",
        "view": "annulus"
      },
      "geometry": {
        "type": "Polygon",
        "coordinates": [
          [
            [
              -0.5189970948504047,
              -0.05180566466236649
            ],
            [
              0.5372274629924808,
              -0.03509173130051157
            ],
            [
              0.2885730594435966,
              0.5275923653186152
            ],
            [
              -0.20280353411243493,
              0.5666096553840635
            ],
            [
              -0.5189970948504047,
              -0.05180566466236649
            ]
          ]
        ]
      }
    },
    {
      "type": "Feature",
      "properties": {
        "cell_id": "CEG2000_f4_r0027_c0117",
        "method": "Direct Polar",
        "view": "annulus"
      },
      "geometry": {
        "type": "Polygon",
        "coordinates": [
          [
            [
              0.5372259385580228,
              -0.035092502559679106
            ],
            [
              0.6362396075244995,
              -0.015657097918620716
            ],
            [
              0.4972797102356462,
              0.3425211824718201
            ],
            [
              0.2885669909703795,
              0.5275943629278248
            ],
            [
              0.5372259385580228,
              -0.035092502559679106
            ]
          ]
        ]
      }
    },
    {
      "type": "Feature",
      "properties": {
        "cell_id": "CEG2000_f4_r0027_c0118",
        "method": "Direct Polar",
        "view": "annulus"
      },
      "geometry": {
        "type": "Polygon",
        "coordinates": [
          [
            [
              0.6362410815996932,
              -0.01565698781650109
            ],
            [
              0.7344077296490512,
              -0.011133718557531544
            ],
            [
              0.6199698555516321,
              0.2630690170434397
            ],
            [
              0.4972818013799124,
              0.342519420612773
            ],
            [
              0.6362410815996932,
              -0.01565698781650109
            ]
          ]
        ]
      }
    },
    {
      "type": "Feature",
      "properties": {
        "cell_id": "CEG2000_f4_r0027_c0119",
        "method": "Direct Polar",
        "view": "annulus"
      },
      "geometry": {
        "type": "Polygon",
        "coordinates": [
          [
            [
              0.7344092013723488,
              -0.011133676745626384
            ],
            [
              0.8325050047083944,
              -0.009119358046271812
            ],
            [
              0.7845919448774445,
              0.24055666173030546
            ],
            [
              0.6199713707815275,
              0.26306814487642866
            ],
            [
              0.7344092013723488,
              -0.011133676745626384
            ]
          ]
        ]
      }
    },
    {
      "type": "Feature",
      "properties": {
        "cell_id": "CEG2000_f4_r0027_c0120",
        "method": "Direct Polar",
        "view": "annulus"
      },
      "geometry": {
        "type": "Polygon",
        "coordinates": [
          [
            [
              0.832503533460567,
              -0.009119379880577956
            ],
            [
              0.9305820976813463,
              -0.007979823651521507
            ],
            [
              0.9288094119427037,
              0.22292631486121686
            ],
            [
              0.7845897347796281,
              0.2405569851960781
            ],
            [
              0.832503533460567,
              -0.009119379880577956
            ]
          ]
        ]
      }
    },
    {
      "type": "Feature",
      "properties": {
        "cell_id": "CEG2000_f4_r0028_c0112",
        "method": "Direct Polar",
        "view": "annulus"
      },
      "geometry": {
        "type": "Polygon",
        "coordinates": [
          [
            [
              -0.9667840129681312,
              0.24306828510219788
            ],
            [
              -0.8666997171667122,
              0.282078848209708
            ],
            [
              -0.8336284711457193,
              0.5523256033312695
            ],
            [
              -0.890177813889935,
              0.4556132786235892
            ],
            [
              -0.9667840129681312,
              0.24306828510219788
            ]
          ]
        ]
      }
    },
    {
      "type": "Feature",
      "properties": {
        "cell_id": "CEG2000_f4_r0028_c0113",
        "method": "Direct Polar",
        "view": "annulus"
      },
      "geometry": {
        "type": "Polygon",
        "coordinates": [
          [
            [
              -0.8666981319977465,
              0.28207957839440884
            ],
            [
              -0.750058787390225,
              0.3460184227971042
            ],
            [
              -0.6422869400869136,
              0.6031895100736752
            ],
            [
              -0.8336273477164495,
              0.5523272989263138
            ],
            [
              -0.8666981319977465,
              0.28207957839440884
            ]
          ]
        ]
      }
    },
    {
      "type": "Feature",
      "properties": {
        "cell_id": "CEG2000_f4_r0028_c0114",
        "method": "Direct Polar",
        "view": "annulus"
      },
      "geometry": {
        "type": "Polygon",
        "coordinates": [
          [
            [
              -0.7500567997437565,
              0.3460196724772709
            ],
            [
              -0.5594917318651892,
              0.4430572639121074
            ],
            [
              -0.42194458883724595,
              0.6802090096088176
            ],
            [
              -0.6422832245056415,
              0.6031897975802285
            ],
            [
              -0.7500567997437565,
              0.3460196724772709
            ]
          ]
        ]
      }
    },
    {
      "type": "Feature",
      "properties": {
        "cell_id": "CEG2000_f4_r0028_c0115",
        "method": "Direct Polar",
        "view": "annulus"
      },
      "geometry": {
        "type": "Polygon",
        "coordinates": [
          [
            [
              -0.5594960185752722,
              0.4430558963686027
            ],
            [
              -0.20280353411243493,
              0.5666096553840635
            ],
            [
              -0.11823251614082733,
              0.6724595321352905
            ],
            [
              -0.42194808962797054,
              0.6802073420050773
            ],
            [
              -0.5594960185752722,
              0.4430558963686027
            ]
          ]
        ]
      }
    },
    {
      "type": "Feature",
      "properties": {
        "cell_id": "CEG2000_f4_r0028_c0116",
        "method": "Direct Polar",
        "view": "annulus"
      },
      "geometry": {
        "type": "Polygon",
        "coordinates": [
          [
            [
              -0.20280353411243493,
              0.5666096553840635
            ],
            [
              0.2885730594435966,
              0.5275923653186152
            ],
            [
              0.18353100246319293,
              0.6830821320615398
            ],
            [
              -0.11823251614082733,
              0.6724595321352905
            ],
            [
              -0.20280353411243493,
              0.5666096553840635
            ]
          ]
        ]
      }
    },
    {
      "type": "Feature",
      "properties": {
        "cell_id": "CEG2000_f4_r0028_c0117",
        "method": "Direct Polar",
        "view": "annulus"
      },
      "geometry": {
        "type": "Polygon",
        "coordinates": [
          [
            [
              0.2885669909703795,
              0.5275943629278248
            ],
            [
              0.4972797102356462,
              0.3425211824718201
            ],
            [
              0.42785148638313336,
              0.5999299037506912
            ],
            [
              0.18352702057700226,
              0.6830842629461155
            ],
            [
              0.2885669909703795,
              0.5275943629278248
            ]
          ]
        ]
      }
    },
    {
      "type": "Feature",
      "properties": {
        "cell_id": "CEG2000_f4_r0028_c0118",
        "method": "Direct Polar",
        "view": "annulus"
      },
      "geometry": {
        "type": "Polygon",
        "coordinates": [
          [
            [
              0.4972818013799124,
              0.342519420612773
            ],
            [
              0.6199698555516321,
              0.2630690170434397
            ],
            [
              0.5397272669752727,
              0.46622360448867906
            ],
            [
              0.42785388566644383,
              0.5999276592760856
            ],
            [
              0.4972818013799124,
              0.342519420612773
            ]
          ]
        ]
      }
    },
    {
      "type": "Feature",
      "properties": {
        "cell_id": "CEG2000_f4_r0028_c0119",
        "method": "Direct Polar",
        "view": "annulus"
      },
      "geometry": {
        "type": "Polygon",
        "coordinates": [
          [
            [
              0.6199713707815275,
              0.26306814487642866
            ],
            [
              0.7845919448774445,
              0.24055666173030546
            ],
            [
              0.6401134473559188,
              0.39953171925938075
            ],
            [
              0.5397283934808922,
              0.46622189241553064
            ],
            [
              0.6199713707815275,
              0.26306814487642866
            ]
          ]
        ]
      }
    },
    {
      "type": "Feature",
      "properties": {
        "cell_id": "CEG2000_f4_r0028_c0120",
        "method": "Direct Polar",
        "view": "annulus"
      },
      "geometry": {
        "type": "Polygon",
        "coordinates": [
          [
            [
              0.7845897347796281,
              0.2405569851960781
            ],
            [
              0.9288094119427037,
              0.22292631486121686
            ],
            [
              0.7411114133919334,
              0.36210873472497873
            ],
            [
              0.6401118062580267,
              0.399532357619482
            ],
            [
              0.7845897347796281,
              0.2405569851960781
            ]
          ]
        ]
      }
    },
    {
      "type": "Feature",
      "properties": {
        "cell_id": "CEG2000_f4_r0029_c0113",
        "method": "Direct Polar",
        "view": "annulus"
      },
      "geometry": {
        "type": "Polygon",
        "coordinates": [
          [
            [
              -0.8336273477164505,
              0.5523272989263124
            ],
            [
              -0.6422869400869148,
              0.6031895100736736
            ],
            [
              -0.5603321715054295,
              0.7939536091390034
            ],
            [
              -0.7072293430678603,
              0.7069841980580632
            ],
            [
              -0.8336273477164505,
              0.5523272989263124
            ]
          ]
        ]
      }
    },
    {
      "type": "Feature",
      "properties": {
        "cell_id": "CEG2000_f4_r0029_c0114",
        "method": "Direct Polar",
        "view": "annulus"
      },
      "geometry": {
        "type": "Polygon",
        "coordinates": [
          [
            [
              -0.6422832245056432,
              0.6031897975802274
            ],
            [
              -0.421944588837247,
              0.6802090096088166
            ],
            [
              -0.33329183903398596,
              0.8106558446136257
            ],
            [
              -0.5603295825082442,
              0.7939549121016385
            ],
            [
              -0.6422832245056432,
              0.6031897975802274
            ]
          ]
        ]
      }
    },
    {
      "type": "Feature",
      "properties": {
        "cell_id": "CEG2000_f4_r0029_c0115",
        "method": "Direct Polar",
        "view": "annulus"
      },
      "geometry": {
        "type": "Polygon",
        "coordinates": [
          [
            [
              -0.42194808962797115,
              0.6802073420050756
            ],
            [
              -0.11823251614082779,
              0.6724595321352894
            ],
            [
              -0.09067912707712461,
              0.7781466157987604
            ],
            [
              -0.33329507381843204,
              0.8106549992126145
            ],
            [
              -0.42194808962797115,
              0.6802073420050756
            ]
          ]
        ]
      }
    },
    {
      "type": "Feature",
      "properties": {
        "cell_id": "CEG2000_f4_r0029_c0116",
        "method": "Direct Polar",
        "view": "annulus"
      },
      "geometry": {
        "type": "Polygon",
        "coordinates": [
          [
            [
              -0.11823251614082779,
              0.6724595321352894
            ],
            [
              0.18353100246319337,
              0.6830821320615386
            ],
            [
              0.14796444333938064,
              0.8308942113253822
            ],
            [
              -0.09067912707712461,
              0.7781466157987604
            ],
            [
              -0.11823251614082779,
              0.6724595321352894
            ]
          ]
        ]
      }
    },
    {
      "type": "Feature",
      "properties": {
        "cell_id": "CEG2000_f4_r0029_c0117",
        "method": "Direct Polar",
        "view": "annulus"
      },
      "geometry": {
        "type": "Polygon",
        "coordinates": [
          [
            [
              0.1835270205770028,
              0.6830842629461142
            ],
            [
              0.4278514863831342,
              0.5999299037506896
            ],
            [
              0.3560846242501904,
              0.7533305266944321
            ],
            [
              0.1479610640425607,
              0.8308958539195357
            ],
            [
              0.1835270205770028,
              0.6830842629461142
            ]
          ]
        ]
      }
    },
    {
      "type": "Feature",
      "properties": {
        "cell_id": "CEG2000_f4_r0029_c0118",
        "method": "Direct Polar",
        "view": "annulus"
      },
      "geometry": {
        "type": "Polygon",
        "coordinates": [
          [
            [
              0.4278538856664448,
              0.5999276592760842
            ],
            [
              0.5397272669752725,
              0.4662236044886769
            ],
            [
              0.5248774946978886,
              0.6840734429078229
            ],
            [
              0.3560878408191704,
              0.7533302887555651
            ],
            [
              0.4278538856664448,
              0.5999276592760842
            ]
          ]
        ]
      }
    },
    {
      "type": "Feature",
      "properties": {
        "cell_id": "CEG2000_f4_r0029_c0119",
        "method": "Direct Polar",
        "view": "annulus"
      },
      "geometry": {
        "type": "Polygon",
        "coordinates": [
          [
            [
              0.5397283934808923,
              0.46622189241552864
            ],
            [
              0.6401134473559186,
              0.3995317192593788
            ],
            [
              0.609807510435643,
              0.574264490155535
            ],
            [
              0.5248791331230661,
              0.6840716384192059
            ],
            [
              0.5397283934808923,
              0.46622189241552864
            ]
          ]
        ]
      }
    },
    {
      "type": "Feature",
      "properties": {
        "cell_id": "CEG2000_f4_r0030_c0114",
        "method": "Direct Polar",
        "view": "annulus"
      },
      "geometry": {
        "type": "Polygon",
        "coordinates": [
          [
            [
              -0.5603295825082442,
              0.7939549121016385
            ],
            [
              -0.33329183903398596,
              0.8106558446136257
            ],
            [
              -0.27814727929266614,
              0.9046638328170824
            ],
            [
              -0.46675528907735303,
              0.8843865105926914
            ],
            [
              -0.5603295825082442,
              0.7939549121016385
            ]
          ]
        ]
      }
    },
    {
      "type": "Feature",
      "properties": {
        "cell_id": "CEG2000_f4_r0030_c0115",
        "method": "Direct Polar",
        "view": "annulus"
      },
      "geometry": {
        "type": "Polygon",
        "coordinates": [
          [
            [
              -0.33329507381843204,
              0.8106549992126145
            ],
            [
              -0.09067912707712461,
              0.7781466157987604
            ],
            [
              -0.07675023271372444,
              0.8807129387185315
            ],
            [
              -0.27815066202348404,
              0.9046651112925064
            ],
            [
              -0.33329507381843204,
              0.8106549992126145
            ]
          ]
        ]
      }
    },
    {
      "type": "Feature",
      "properties": {
        "cell_id": "CEG2000_f4_r0030_c0116",
        "method": "Direct Polar",
        "view": "annulus"
      },
      "geometry": {
        "type": "Polygon",
        "coordinates": [
          [
            [
              -0.09067912707712461,
              0.7781466157987604
            ],
            [
              0.14796444333938064,
              0.8308942113253822
            ],
            [
              0.12588664229294744,
              0.9452976802910258
            ],
            [
              -0.07675023271372444,
              0.8807129387185315
            ],
            [
              -0.09067912707712461,
              0.7781466157987604
            ]
          ]
        ]
      }
    },
    {
      "type": "Feature",
      "properties": {
        "cell_id": "CEG2000_f4_r0030_c0117",
        "method": "Direct Polar",
        "view": "annulus"
      },
      "geometry": {
        "type": "Polygon",
        "coordinates": [
          [
            [
              0.1479610640425607,
              0.8308958539195357
            ],
            [
              0.3560846242501904,
              0.7533305266944321
            ],
            [
              0.3040493531440399,
              0.8601555629233285
            ],
            [
              0.12588342968802244,
              0.9452970144067978
            ],
            [
              0.1479610640425607,
              0.8308958539195357
            ]
          ]
        ]
      }
    },
    {
      "type": "Feature",
      "properties": {
        "cell_id": "CEG2000_f4_r0030_c0118",
        "method": "Direct Polar",
        "view": "annulus"
      },
      "geometry": {
        "type": "Polygon",
        "coordinates": [
          [
            [
              0.3560878408191704,
              0.7533302887555651
            ],
            [
              0.5248774946978886,
              0.6840734429078229
            ],
            [
              0.4916338325788822,
              0.8568151048884386
            ],
            [
              0.3040515384661064,
              0.8601537036125665
            ],
            [
              0.3560878408191704,
              0.7533302887555651
            ]
          ]
        ]
      }
    },
    {
      "type": "Feature",
      "properties": {
        "cell_id": "CEG2000_f4_r0031_c0115",
        "method": "Direct Polar",
        "view": "annulus"
      },
      "geometry": {
        "type": "Polygon",
        "coordinates": [
          [
            [
              -0.27815088600072174,
              0.9046646990932876
            ],
            [
              -0.07675028507151732,
              0.8807124290586202
            ],
            [
              -0.06871863149739754,
              0.9874012263116212
            ],
            [
              -0.2384597845254993,
              0.9711523727840304
            ],
            [
              -0.27815088600072174,
              0.9046646990932876
            ]
          ]
        ]
      }
    },
    {
      "type": "Feature",
      "properties": {
        "cell_id": "CEG2000_f4_r0031_c0116",
        "method": "Direct Polar",
        "view": "annulus"
      },
      "geometry": {
        "type": "Polygon",
        "coordinates": [
          [
            [
              -0.07675028507151732,
              0.8807124290586202
            ],
            [
              0.12588672669128076,
              0.9452971221465336
            ],
            [
              0.1057558138680415,
              0.9943921298125343
            ],
            [
              -0.06871863149739754,
              0.9874012263116212
            ],
            [
              -0.07675028507151732,
              0.8807124290586202
            ]
          ]
        ]
      }
    },
    {
      "type": "Feature",
      "properties": {
        "cell_id": "CEG2000_f4_r0031_c0117",
        "method": "Direct Polar",
        "view": "annulus"
      },
      "geometry": {
        "type": "Polygon",
        "coordinates": [
          [
            [
              0.12588351408425538,
              0.9452964562631018
            ],
            [
              0.30404946620866846,
              0.860154798235419
            ],
            [
              0.2716770839070646,
              0.9623884673455693
            ],
            [
              0.10575321884340744,
              0.9943924057957494
            ],
            [
              0.12588351408425538,
              0.9452964562631018
            ]
          ]
        ]
      }
    },
    {
      "type": "Feature",
      "properties": {
        "cell_id": "CEG2000_f4_r0031_c0118",
        "method": "Direct Polar",
        "view": "annulus"
      },
      "geometry": {
        "type": "Polygon",
        "coordinates": [
          [
            [
              0.30405165153058455,
              0.8601529389235852
            ],
            [
              0.4916341065775326,
              0.8568145020748416
            ],
            [
              0.4165823442954137,
              0.909097987249635
            ],
            [
              0.27167943634974695,
              0.9623878032605586
            ],
            [
              0.30405165153058455,
              0.8601529389235852
            ]
          ]
        ]
      }
    }
  ]
}