{
  "type": "FeatureCollection",
  "features": [
    {
      "type": "Feature",
      "properties": {
        "cell_id": "CEG2000_f4_r0022_c0115",
        "method": "Direct Polar",
        "view": "disk"
      },
      "geometry": {
        "type": "Polygon",
        "coordinates": [
          [
            [
              -0.23537405897124064,
              -0.9719048576704424
            ],
            [
              -0.0684805416244414,
              -0.9976524522191198
            ],
            [
              -0.07795466490902951,
              -0.9100976705582923
            ],
            [
              -0.2892833694620195,
              -0.9572435072397727
            ],
            [
              -0.23537405897124064,
              -0.9719048576704424
            ]
          ]
        ]
      }
    },
    {
      "type": "Feature",
      "properties": {
        "cell_id": "CEG2000_f4_r0022_c0116",
        "method": "Direct Polar",
        "view": "disk"
      },
      "geometry": {
        "type": "Polygon",
        "coordinates": [
          [
            [
              -0.0684805416244414,
              -0.9976524522191198
            ],
            [
              0.1043223699017753,
              -0.994543535064241
            ],
            [
              0.10621769599267035,
              -0.8114785357971411
            ],
            [
              -0.07795466490902951,
              -0.9100976705582923
            ],
            [
              -0.0684805416244414,
              -0.9976524522191198
            ]
          ]
        ]
      }
    },
    {
      "type": "Feature",
      "properties": {
        "cell_id": "CEG2000_f4_r0023_c0113",
        "method": "Direct Polar",
        "view": "disk"
      },
      "geometry": {
        "type": "Polygon",
        "coordinates": [
          [
            [
              -0.5923883976607154,
              -0.8056525220695149
            ],
            [
              -0.4426899189183109,
              -0.8533771158778846
            ],
            [
              -0.43222256657769725,
              -0.6266805564547342
            ],
            [
              -0.6920125817836988,
              -0.7078685862409769
            ],
            [
              -0.5923883976607154,
              -0.8056525220695149
            ]
          ]
        ]
      }
    },
    {
      "type": "Feature",
      "properties": {
        "cell_id": "CEG2000_f4_r0023_c0114",
        "method": "Direct Polar",
        "view": "disk"
      },
      "geometry": {
        "type": "Polygon",
        "coordinates": [
          [
            [
              -0.44268754342887906,
              -0.8533778801078448
            ],
            [
              -0.28928052035075896,
              -0.9572443682496096
            ],
            [
              -0.28951075303300844,
              -0.72055270177222
            ],
            [
              -0.4322187852619653,
              -0.6266789979071171
            ],
            [
              -0.44268754342887906,
              -0.8533778801078448
            ]
          ]
        ]
      }
    },
    {
      "type": "Feature",
      "properties": {
        "cell_id": "CEG2000_f4_r0023_c0115",
        "method": "Direct Polar",
        "view": "disk"
      },
      "geometry": {
        "type": "Polygon",
        "coordinates": [
          [
            [
              -0.2892833694620195,
              -0.9572435072397727
            ],
            [
              -0.07795466490902951,
              -0.9100976705582923
            ],
            [
              -0.07696100759020814,
              -0.6757935784445835
            ],
            [
              -0.28951179404618355,
              -0.7205475479545053
            ],
            [
              -0.2892833694620195,
              -0.9572435072397727
            ]
          ]
        ]
      }
    },
    {
      "type": "Feature",
      "properties": {
        "cell_id": "CEG2000_f4_r0023_c0116",
        "method": "Direct Polar",
        "view": "disk"
      },
      "geometry": {
        "type": "Polygon",
        "coordinates": [
          [
            [
              -0.07795466490902951,
              -0.9100976705582923
            ],
            [
              0.10621769599267035,
              -0.8114785357971411
            ],
            [
              0.10346737376387037,
              -0.5945399031345618
            ],
            [
              -0.07696100759020814,
              -0.6757935784445835
            ],
            [
              -0.07795466490902951,
              -0.9100976705582923
            ]
          ]
        ]
      }
    },
    {
      "type": "Feature",
      "properties": {
        "cell_id": "CEG2000_f4_r0023_c0117",
        "method": "Direct Polar",
        "view": "disk"
      },
      "geometry": {
        "type": "Polygon",
        "coordinates": [
          [
            [
              0.10621526144103186,
              -0.8114800736097595
            ],
            [
              0.303658103361983,
              -0.87399512803605
            ],
            [
              0.29891780270442364,
              -0.6471028905893558
            ],
            [
              0.10346508890392417,
              -0.5945415277676795
            ],
            [
              0.10621526144103186,
              -0.8114800736097595
            ]
          ]
        ]
      }
    },
    {
      "type": "Feature",
      "properties": {
        "cell_id": "CEG2000_f4_r0024_c0113",
        "method": "Direct Polar",
        "view": "disk"
      },
      "geometry": {
        "type": "Polygon",
        "coordinates": [
          [
            [
              -0.6920125817836976,
              -0.7078685862409781
            ],
            [
              -0.4322225665776965,
              -0.6266805564547349
            ],
            [
              -0.4954145356718934,
              -0.4815906866973644
            ],
            [
              -0.7927138886176722,
              -0.5436578566965885
            ],
            [
              -0.6920125817836976,
              -0.7078685862409781
            ]
          ]
        ]
      }
    },
    {
      "type": "Feature",
      "properties": {
        "cell_id": "CEG2000_f4_r0024_c0114",
        "method": "Direct Polar",
        "view": "disk"
      },
      "geometry": {
        "type": "Polygon",
        "coordinates": [
          [
            [
              -0.4322187852619646,
              -0.626678997907118
            ],
            [
              -0.28951075303300916,
              -0.7205527017722235
            ],
            [
              -0.2518737222645589,
              -0.42029523341918806
            ],
            [
              -0.4954105691726405,
              -0.4815898463838706
            ],
            [
              -0.4322187852619646,
              -0.626678997907118
            ]
          ]
        ]
      }
    },
    {
      "type": "Feature",
      "properties": {
        "cell_id": "CEG2000_f4_r0024_c0115",
        "method": "Direct Polar",
        "view": "disk"
      },
      "geometry": {
        "type": "Polygon",
        "coordinates": [
          [
            [
              -0.28951179404618366,
              -0.7205475479545074
            ],
            [
              -0.07696100759020821,
              -0.6757935784445854
            ],
            [
              -0.07483650901094849,
              -0.4405826475330451
            ],
            [
              -0.2518759277211439,
              -0.4202943961018632
            ],
            [
              -0.28951179404618366,
              -0.7205475479545074
            ]
          ]
        ]
      }
    },
    {
      "type": "Feature",
      "properties": {
        "cell_id": "CEG2000_f4_r0024_c0116",
        "method": "Direct Polar",
        "view": "disk"
      },
      "geometry": {
        "type": "Polygon",
        "coordinates": [
          [
            [
              -0.07696100759020821,
              -0.6757935784445854
            ],
            [
              0.10346737376387041,
              -0.5945399031345636
            ],
            [
              0.09795017183982854,
              -0.3773578047673282
            ],
            [
              -0.07483650901094849,
              -0.4405826475330451
            ],
            [
              -0.07696100759020821,
              -0.6757935784445854
            ]
          ]
        ]
      }
    },
    {
      "type": "Feature",
      "properties": {
        "cell_id": "CEG2000_f4_r0024_c0117",
        "method": "Direct Polar",
        "view": "disk"
      },
      "geometry": {
        "type": "Polygon",
        "coordinates": [
          [
            [
              0.10346508890392418,
              -0.5945415277676813
            ],
            [
              0.29891780270442364,
              -0.6471028905893575
            ],
            [
              0.34101398319915277,
              -0.4949533847180857
            ],
            [
              0.09794789459051954,
              -0.3773583958620149
            ],
            [
              0.10346508890392418,
              -0.5945415277676813
            ]
          ]
        ]
      }
    },
    {
      "type": "Feature",
      "properties": {
        "cell_id": "CEG2000_f4_r0024_c0118",
        "method": "Direct Polar",
        "view": "disk"
      },
      "geometry": {
        "type": "Polygon",
        "coordinates": [
          [
            [
              0.29892037309696445,
              -0.6471024052560179
            ],
            [
              0.5712052907541849,
              -0.7617741190925222
            ],
            [
              0.5614726426860848,
              -0.5020340167839188
            ],
            [
              0.3410183859191907,
              -0.49495514755826153
            ],
            [
              0.29892037309696445,
              -0.6471024052560179
            ]
          ]
        ]
      }
    },
    {
      "type": "Feature",
      "properties": {
        "cell_id": "CEG2000_f4_r0025_c0112",
        "method": "Direct Polar",
        "view": "disk"
      },
      "geometry": {
        "type": "Polygon",
        "coordinates": [
          [
            [
              -0.883649448887854,
              -0.46814917652409893
            ],
            [
              -0.7927156139930306,
              -0.543656638353429
            ],
            [
              -0.7413059461769593,
              -0.25850888134595673
            ],
            [
              -0.9655781315795526,
              -0.2601131903909144
            ],
            [
              -0.883649448887854,
              -0.46814917652409893
            ]
          ]
        ]
      }
    },
    {
      "type": "Feature",
      "properties": {
        "cell_id": "CEG2000_f4_r0025_c0113",
        "method": "Direct Polar",
        "view": "disk"
      },
      "geometry": {
        "type": "Polygon",
        "coordinates": [
          [
            [
              -0.7927138886176722,
              -0.5436578566965885
            ],
            [
              -0.4954145356718934,
              -0.4815906866973644
            ],
            [
              -0.5084386373612005,
              -0.251315099552866
            ],
            [
              -0.7413025044497087,
              -0.2585088231177088
            ],
            [
              -0.7927138886176722,
              -0.5436578566965885
            ]
          ]
        ]
      }
    },
    {
      "type": "Feature",
      "properties": {
        "cell_id": "CEG2000_f4_r0025_c0114",
        "method": "Direct Polar",
        "view": "disk"
      },
      "geometry": {
        "type": "Polygon",
        "coordinates": [
          [
            [
              -0.4954105691726405,
              -0.4815898463838706
            ],
            [
              -0.2518737222645589,
              -0.42029523341918806
            ],
            [
              -0.30327939084389005,
              -0.25732691012159997
            ],
            [
              -0.5084350817403822,
              -0.25131491567697933
            ],
            [
              -0.4954105691726405,
              -0.4815898463838706
            ]
          ]
        ]
      }
    },
    {
      "type": "Feature",
      "properties": {
        "cell_id": "CEG2000_f4_r0025_c0115",
        "method": "Direct Polar",
        "view": "disk"
      },
      "geometry": {
        "type": "Polygon",
        "coordinates": [
          [
            [
              -0.2518759277211439,
              -0.4202943961018632
            ],
            [
              -0.07483650901094849,
              -0.4405826475330451
            ],
            [
              -0.09132237827677125,
              -0.2733768802033675
            ],
            [
              -0.30328538950434836,
              -0.2573292339870815
            ],
            [
              -0.2518759277211439,
              -0.4202943961018632
            ]
          ]
        ]
      }
    },
    {
      "type": "Feature",
      "properties": {
        "cell_id": "CEG2000_f4_r0025_c0116",
        "method": "Direct Polar",
        "view": "disk"
      },
      "geometry": {
        "type": "Polygon",
        "coordinates": [
          [
            [
              -0.07483650901094849,
              -0.4405826475330451
            ],
            [
              0.09795017183982854,
              -0.3773578047673282
            ],
            [
              0.11365359303101151,
              -0.22263939148201264
            ],
            [
              -0.09132237827677125,
              -0.2733768802033675
            ],
            [
              -0.07483650901094849,
              -0.4405826475330451
            ]
          ]
        ]
      }
    },
    {
      "type": "Feature",
      "properties": {
        "cell_id": "CEG2000_f4_r0025_c0117",
        "method": "Direct Polar",
        "view": "disk"
      },
      "geometry": {
        "type": "Polygon",
        "coordinates": [
          [
            [
              0.09794789459051954,
              -0.3773583958620149
            ],
            [
              0.34101398319915277,
              -0.4949533847180857
            ],
            [
              0.3695688213159876,
              -0.27274584141783237
            ],
            [
              0.11364955997859384,
              -0.222637015848002
            ],
            [
              0.09794789459051954,
              -0.3773583958620149
            ]
          ]
        ]
      }
    },
    {
      "type": "Feature",
      "properties": {
        "cell_id": "CEG2000_f4_r0025_c0118",
        "method": "Direct Polar",
        "view": "disk"
      },
      "geometry": {
        "type": "Polygon",
        "coordinates": [
          [
            [
              0.3410183859191907,
              -0.49495514755826153
            ],
            [
              0.5614726426860848,
              -0.5020340167839188
            ],
            [
              0.5360144756862695,
              -0.24369788766513317
            ],
            [
              0.36957003960332285,
              -0.2727441906387896
            ],
            [
              0.3410183859191907,
              -0.49495514755826153
            ]
          ]
        ]
      }
    },
    {
      "type": "Feature",
      "properties": {
        "cell_id": "CEG2000_f4_r0025_c0119",
        "method": "Direct Polar",
        "view": "disk"
      },
      "geometry": {
        "type": "Polygon",
        "coordinates": [
          [
            [
              0.5614750468198878,
              -0.5020332749950712
            ],
            [
              0.7712139122735765,
              -0.4982574656872997
            ],
            [
              0.746879037714329,
              -0.24535783539811984
            ],
            [
              0.5360164131070005,
              -0.24369736495611782
            ],
            [
              0.5614750468198878,
              -0.5020332749950712
            ]
          ]
        ]
      }
    },
    {
      "type": "Feature",
      "properties": {
        "cell_id": "CEG2000_f4_r0026_c0111",
        "method": "Direct Polar",
        "view": "disk"
      },
      "geometry": {
        "type": "Polygon",
        "coordinates": [
          [
            [
              -0.9767550989716808,
              -0.21435829032911702
            ],
            [
              -0.9655775928773447,
              -0.26011519012390044
            ],
            [
              -0.8288749351872601,
              -0.00744656770923111
            ],
            [
              -0.9999732182499542,
              -0.007318659906671785
            ],
            [
              -0.9767550989716808,
              -0.21435829032911702
            ]
          ]
        ]
      }
    },
    {
      "type": "Feature",
      "properties": {
        "cell_id": "CEG2000_f4_r0026_c0112",
        "method": "Direct Polar",
        "view": "disk"
      },
      "geometry": {
        "type": "Polygon",
        "coordinates": [
          [
            [
              -0.9655778158213666,
              -0.26011436252855974
            ],
            [
              -0.741305763486975,
              -0.2585100670826415
            ],
            [
              -0.6402883756583473,
              -0.007446364670704967
            ],
            [
              -0.8288777639944747,
              -0.007446567711281865
            ],
            [
              -0.9655778158213666,
              -0.26011436252855974
            ]
          ]
        ]
      }
    },
    {
      "type": "Feature",
      "properties": {
        "cell_id": "CEG2000_f4_r0026_c0113",
        "method": "Direct Polar",
        "view": "disk"
      },
      "geometry": {
        "type": "Polygon",
        "coordinates": [
          [
            [
              -0.7413023217583685,
              -0.2585100088533576
            ],
            [
              -0.5084383502167391,
              -0.25131617229540404
            ],
            [
              -0.45169359738581316,
              -0.007445856642556445
            ],
            [
              -0.6402855467740256,
              -0.007446364666256359
            ],
            [
              -0.7413023217583685,
              -0.2585100088533576
            ]
          ]
        ]
      }
    },
    {
      "type": "Feature",
      "properties": {
        "cell_id": "CEG2000_f4_r0026_c0114",
        "method": "Direct Polar",
        "view": "disk"
      },
      "geometry": {
        "type": "Polygon",
        "coordinates": [
          [
            [
              -0.5084347945942013,
              -0.25131598841688957
            ],
            [
              -0.3032781592488323,
              -0.2573271088631153
            ],
            [
              -0.2630672981484022,
              -0.007443888675871726
            ],
            [
              -0.4516907683086331,
              -0.007445856629890816
            ],
            [
              -0.5084347945942013,
              -0.25131598841688957
            ]
          ]
        ]
      }
    },
    {
      "type": "Feature",
      "properties": {
        "cell_id": "CEG2000_f4_r0026_c0115",
        "method": "Direct Polar",
        "view": "disk"
      },
      "geometry": {
        "type": "Polygon",
        "coordinates": [
          [
            [
              -0.3032841579020425,
              -0.25732943274491077
            ],
            [
              -0.09132260003327924,
              -0.2733788653487489
            ],
            [
              -0.07956009148578569,
              -0.007942743591495686
            ],
            [
              -0.2630701279718916,
              -0.007443888739882983
            ],
            [
              -0.3032841579020425,
              -0.25732943274491077
            ]
          ]
        ]
      }
    },
    {
      "type": "Feature",
      "properties": {
        "cell_id": "CEG2000_f4_r0026_c0116",
        "method": "Direct Polar",
        "view": "disk"
      },
      "geometry": {
        "type": "Polygon",
        "coordinates": [
          [
            [
              -0.09132260003327924,
              -0.2733788653487489
            ],
            [
              0.11365335683363839,
              -0.22264000486340207
            ],
            [
              0.11201546520333969,
              -0.007317917722707615
            ],
            [
              -0.07956009148578569,
              -0.007942743591495686
            ],
            [
              -0.09132260003327924,
              -0.2733788653487489
            ]
          ]
        ]
      }
    },
    {
      "type": "Feature",
      "properties": {
        "cell_id": "CEG2000_f4_r0026_c0117",
        "method": "Direct Polar",
        "view": "disk"
      },
      "geometry": {
        "type": "Polygon",
        "coordinates": [
          [
            [
              0.1136493237882849,
              -0.22263762922026564
            ],
            [
              0.3695699777021148,
              -0.2727480131035645
            ],
            [
              0.30073988369354426,
              -0.007401922597296908
            ],
            [
              0.11201263071397768,
              -0.007317914143989475
            ],
            [
              0.1136493237882849,
              -0.22263762922026564
            ]
          ]
        ]
      }
    },
    {
      "type": "Feature",
      "properties": {
        "cell_id": "CEG2000_f4_r0026_c0118",
        "method": "Direct Polar",
        "view": "disk"
      },
      "geometry": {
        "type": "Polygon",
        "coordinates": [
          [
            [
              0.3695711960008866,
              -0.2727463623170045
            ],
            [
              0.5360154405124549,
              -0.2436995041826968
            ],
            [
              0.48935142313988844,
              -0.007419707778493377
            ],
            [
              0.30074271323240925,
              -0.007401923038306413
            ],
            [
              0.3695711960008866,
              -0.2727463623170045
            ]
          ]
        ]
      }
    },
    {
      "type": "Feature",
      "properties": {
        "cell_id": "CEG2000_f4_r0026_c0119",
        "method": "Direct Polar",
        "view": "disk"
      },
      "geometry": {
        "type": "Polygon",
        "coordinates": [
          [
            [
              0.5360173779372088,
              -0.24369898147045763
            ],
            [
              0.7468786860860487,
              -0.24535890576604405
            ],
            [
              0.6779493528526532,
              -0.007427413637057872
            ],
            [
              0.4893542521556613,
              -0.007419707939813216
            ],
            [
              0.5360173779372088,
              -0.24369898147045763
            ]
          ]
        ]
      }
    },
    {
      "type": "Feature",
      "properties": {
        "cell_id": "CEG2000_f4_r0027_c0111",
        "method": "Direct Polar",
        "view": "disk"
      },
      "geometry": {
        "type": "Polygon",
        "coordinates": [
          [
            [
              -0.999973226011906,
              -0.00731759928812427
            ],
            [
              -0.8288749448813639,
              -0.007445488583598999
            ],
            [
              -0.9639810716212551,
              0.24236439826584377
            ],
            [
              -0.9796617276873631,
              0.20065617185775933
            ],
            [
              -0.999973226011906,
              -0.00731759928812427
            ]
          ]
        ]
      }
    },
    {
      "type": "Feature",
      "properties": {
        "cell_id": "CEG2000_f4_r0027_c0112",
        "method": "Direct Polar",
        "view": "disk"
      },
      "geometry": {
        "type": "Polygon",
        "coordinates": [
          [
            [
              -0.8288777736885456,
              -0.007445488585648949
            ],
            [
              -0.6402883882063239,
              -0.007445285633328105
            ],
            [
              -0.7889722099342179,
              0.2567814063390349
            ],
            [
              -0.9639836569874117,
              0.242364221198804
            ],
            [
              -0.8288777736885456,
              -0.007445488585648949
            ]
          ]
        ]
      }
    },
    {
      "type": "Feature",
      "properties": {
        "cell_id": "CEG2000_f4_r0027_c0113",
        "method": "Direct Polar",
        "view": "disk"
      },
      "geometry": {
        "type": "Polygon",
        "coordinates": [
          [
            [
              -0.6402855593220577,
              -0.007445285628881802
            ],
            [
              -0.4516936151680697,
              -0.007444777825984724
            ],
            [
              -0.6042352858510023,
              0.2787468717431974
            ],
            [
              -0.7889695329271492,
              0.256781669416016
            ],
            [
              -0.6402855593220577,
              -0.007445285628881802
            ]
          ]
        ]
      }
    },
    {
      "type": "Feature",
      "properties": {
        "cell_id": "CEG2000_f4_r0027_c0114",
        "method": "Direct Polar",
        "view": "disk"
      },
      "geometry": {
        "type": "Polygon",
        "coordinates": [
          [
            [
              -0.4516907860910009,
              -0.007444777813324521
            ],
            [
              -0.2630673286487499,
              -0.007442810714355344
            ],
            [
              -0.35229054386106734,
              0.2789762128295432
            ],
            [
              -0.6042323844095142,
              0.27874727863938803
            ],
            [
              -0.4516907860910009,
              -0.007444777813324521
            ]
          ]
        ]
      }
    },
    {
      "type": "Feature",
      "properties": {
        "cell_id": "CEG2000_f4_r0027_c0115",
        "method": "Direct Polar",
        "view": "disk"
      },
      "geometry": {
        "type": "Polygon",
        "coordinates": [
          [
            [
              -0.26307015847191223,
              -0.007442810778338756
            ],
            [
              -0.07955900404398836,
              -0.00794148392210698
            ],
            [
              -0.07893995913793343,
              0.22054913016643532
            ],
            [
              -0.3522957898056286,
              0.2789773684836658
            ],
            [
              -0.26307015847191223,
              -0.007442810778338756
            ]
          ]
        ]
      }
    },
    {
      "type": "Feature",
      "properties": {
        "cell_id": "CEG2000_f4_r0027_c0116",
        "method": "Direct Polar",
        "view": "disk"
      },
      "geometry": {
        "type": "Polygon",
        "coordinates": [
          [
            [
              -0.07955900404398836,
              -0.00794148392210698
            ],
            [
              0.11201578511406275,
              -0.007316878051510838
            ],
            [
              0.11199015612924439,
              0.2047493673822231
            ],
            [
              -0.07893995913793343,
              0.22054913016643532
            ],
            [
              -0.07955900404398836,
              -0.00794148392210698
            ]
          ]
        ]
      }
    },
    {
      "type": "Feature",
      "properties": {
        "cell_id": "CEG2000_f4_r0027_c0117",
        "method": "Direct Polar",
        "view": "disk"
      },
      "geometry": {
        "type": "Polygon",
        "coordinates": [
          [
            [
              0.11201295062633723,
              -0.007316874473936821
            ],
            [
              0.30074016146074034,
              -0.007400856690411716
            ],
            [
              0.19611107612457757,
              0.13507930508200408
            ],
            [
              0.11198694701035276,
              0.20474858113700156
            ],
            [
              0.11201295062633723,
              -0.007316874473936821
            ]
          ]
        ]
      }
    },
    {
      "type": "Feature",
      "properties": {
        "cell_id": "CEG2000_f4_r0027_c0118",
        "method": "Direct Polar",
        "view": "disk"
      },
      "geometry": {
        "type": "Polygon",
        "coordinates": [
          [
            [
              0.30074299099936125,
              -0.007400857131287396
            ],
            [
              0.4893516908688814,
              -0.007418636517333316
            ],
            [
              0.3425073052473481,
              0.14533458250392842
            ],
            [
              0.19611281071477366,
              0.13507923699272562
            ],
            [
              0.30074299099936125,
              -0.007400857131287396
            ]
          ]
        ]
      }
    },
    {
      "type": "Feature",
      "properties": {
        "cell_id": "CEG2000_f4_r0027_c0119",
        "method": "Direct Polar",
        "view": "disk"
      },
      "geometry": {
        "type": "Polygon",
        "coordinates": [
          [
            [
              0.4893545198845624,
              -0.007418636678605006
            ],
            [
              0.6779496160868808,
              -0.007426340083798468
            ],
            [
              0.6263028394217203,
              0.1920250663636807
            ],
            [
              0.3425094724284038,
              0.14533466505197076
            ],
            [
              0.4893545198845624,
              -0.007418636678605006
            ]
          ]
        ]
      }
    },
    {
      "type": "Feature",
      "properties": {
        "cell_id": "CEG2000_f4_r0027_c0120",
        "method": "Direct Polar",
        "view": "disk"
      },
      "geometry": {
        "type": "Polygon",
        "coordinates": [
          [
            [
              0.6779467872249964,
              -0.007426340001012066
            ],
            [
              0.8665379700414737,
              -0.007430639602360143
            ],
            [
              0.8885863112424739,
              0.21327224859520122
            ],
            [
              0.6262989048150975,
              0.19202465912486374
            ],
            [
              0.6779467872249964,
              -0.007426340001012066
            ]
          ]
        ]
      }
    },
    {
      "type": "Feature",
      "properties": {
        "cell_id": "CEG2000_f4_r0028_c0112",
        "method": "Direct Polar",
        "view": "disk"
      },
      "geometry": {
        "type": "Polygon",
        "coordinates": [
          [
            [
              -0.9639836569874117,
              0.242364221198804
            ],
            [
              -0.7889722099342179,
              0.2567814063390349
            ],
            [
              -0.8336284711457193,
              0.5523256033312695
            ],
            [
              -0.890177813889935,
              0.4556132786235892
            ],
            [
              -0.9639836569874117,
              0.242364221198804
            ]
          ]
        ]
      }
    },
    {
      "type": "Feature",
      "properties": {
        "cell_id": "CEG2000_f4_r0028_c0113",
        "method": "Direct Polar",
        "view": "disk"
      },
      "geometry": {
        "type": "Polygon",
        "coordinates": [
          [
            [
              -0.7889695329271492,
              0.256781669416016
            ],
            [
              -0.6042352858510023,
              0.2787468717431974
            ],
            [
              -0.5622949935138838,
              0.5280668506331823
            ],
            [
              -0.8336273477164495,
              0.5523272989263138
            ],
            [
              -0.7889695329271492,
              0.256781669416016
            ]
          ]
        ]
      }
    },
    {
      "type": "Feature",
      "properties": {
        "cell_id": "CEG2000_f4_r0028_c0114",
        "method": "Direct Polar",
        "view": "disk"
      },
      "geometry": {
        "type": "Polygon",
        "coordinates": [
          [
            [
              -0.6042323844095142,
              0.27874727863938803
            ],
            [
              -0.35229054386106734,
              0.2789762128295432
            ],
            [
              -0.32484697009042723,
              0.5236797476382987
            ],
            [
              -0.5622898226619701,
              0.5280653010577225
            ],
            [
              -0.6042323844095142,
              0.27874727863938803
            ]
          ]
        ]
      }
    },
    {
      "type": "Feature",
      "properties": {
        "cell_id": "CEG2000_f4_r0028_c0115",
        "method": "Direct Polar",
        "view": "disk"
      },
      "geometry": {
        "type": "Polygon",
        "coordinates": [
          [
            [
              -0.3522957898056286,
              0.2789773684836658
            ],
            [
              -0.07893995913793343,
              0.22054913016643532
            ],
            [
              -0.06752573804119882,
              0.38405954379071716
            ],
            [
              -0.3248499256383018,
              0.5236788834944133
            ],
            [
              -0.3522957898056286,
              0.2789773684836658
            ]
          ]
        ]
      }
    },
    {
      "type": "Feature",
      "properties": {
        "cell_id": "CEG2000_f4_r0028_c0116",
        "method": "Direct Polar",
        "view": "disk"
      },
      "geometry": {
        "type": "Polygon",
        "coordinates": [
          [
            [
              -0.07893995913793343,
              0.22054913016643532
            ],
            [
              0.11199015612924439,
              0.2047493673822231
            ],
            [
              0.11342595549270607,
              0.4221588857970381
            ],
            [
              -0.06752573804119882,
              0.38405954379071716
            ],
            [
              -0.07893995913793343,
              0.22054913016643532
            ]
          ]
        ]
      }
    },
    {
      "type": "Feature",
      "properties": {
        "cell_id": "CEG2000_f4_r0028_c0117",
        "method": "Direct Polar",
        "view": "disk"
      },
      "geometry": {
        "type": "Polygon",
        "coordinates": [
          [
            [
              0.11198694701035276,
              0.20474858113700156
            ],
            [
              0.19611107612457757,
              0.13507930508200408
            ],
            [
              0.28681955930264935,
              0.4021760729660456
            ],
            [
              0.11342384159475906,
              0.4221614942185887
            ],
            [
              0.11198694701035276,
              0.20474858113700156
            ]
          ]
        ]
      }
    },
    {
      "type": "Feature",
      "properties": {
        "cell_id": "CEG2000_f4_r0028_c0118",
        "method": "Direct Polar",
        "view": "disk"
      },
      "geometry": {
        "type": "Polygon",
        "coordinates": [
          [
            [
              0.19611281071477366,
              0.13507923699272562
            ],
            [
              0.3425073052473481,
              0.14533458250392842
            ],
            [
              0.33939235116459104,
              0.29317163496780035
            ],
            [
              0.28682085185314626,
              0.4021741254395867
            ],
            [
              0.19611281071477366,
              0.13507923699272562
            ]
          ]
        ]
      }
    },
    {
      "type": "Feature",
      "properties": {
        "cell_id": "CEG2000_f4_r0028_c0119",
        "method": "Direct Polar",
        "view": "disk"
      },
      "geometry": {
        "type": "Polygon",
        "coordinates": [
          [
            [
              0.3425094724284038,
              0.14533466505197076
            ],
            [
              0.6263028394217203,
              0.1920250663636807
            ],
            [
              0.4479234293512301,
              0.2795748449973568
            ],
            [
              0.3393927983367048,
              0.2931703327524549
            ],
            [
              0.3425094724284038,
              0.14533466505197076
            ]
          ]
        ]
      }
    },
    {
      "type": "Feature",
      "properties": {
        "cell_id": "CEG2000_f4_r0028_c0120",
        "method": "Direct Polar",
        "view": "disk"
      },
      "geometry": {
        "type": "Polygon",
        "coordinates": [
          [
            [
              0.6262989048150975,
              0.19202465912486374
            ],
            [
              0.8885863112424739,
              0.21327224859520122
            ],
            [
              0.5958426171726491,
              0.2911300680313558
            ],
            [
              0.44792118699993827,
              0.2795746088733513
            ],
            [
              0.6262989048150975,
              0.19202465912486374
            ]
          ]
        ]
      }
    },
    {
      "type": "Feature",
      "properties": {
        "cell_id": "CEG2000_f4_r0029_c0113",
        "method": "Direct Polar",
        "view": "disk"
      },
      "geometry": {
        "type": "Polygon",
        "coordinates": [
          [
            [
              -0.8336273477164505,
              0.5523272989263124
            ],
            [
              -0.5622949935138847,
              0.5280668506331808
            ],
            [
              -0.5453059130131551,
              0.7726623951618647
            ],
            [
              -0.7072293430678603,
              0.7069841980580632
            ],
            [
              -0.8336273477164505,
              0.5523272989263124
            ]
          ]
        ]
      }
    },
    {
      "type": "Feature",
      "properties": {
        "cell_id": "CEG2000_f4_r0029_c0114",
        "method": "Direct Polar",
        "view": "disk"
      },
      "geometry": {
        "type": "Polygon",
        "coordinates": [
          [
            [
              -0.562289822661972,
              0.5280653010577219
            ],
            [
              -0.32484697009042773,
              0.5236797476382975
            ],
            [
              -0.2899416378493168,
              0.7052164373440553
            ],
            [
              -0.5453031588608206,
              0.7726633307919606
            ],
            [
              -0.562289822661972,
              0.5280653010577219
            ]
          ]
        ]
      }
    },
    {
      "type": "Feature",
      "properties": {
        "cell_id": "CEG2000_f4_r0029_c0115",
        "method": "Direct Polar",
        "view": "disk"
      },
      "geometry": {
        "type": "Polygon",
        "coordinates": [
          [
            [
              -0.3248499256383016,
              0.523678883494411
            ],
            [
              -0.06752573804119888,
              0.38405954379071544
            ],
            [
              -0.06753778286169614,
              0.579563333551742
            ],
            [
              -0.289944631365416,
              0.7052161384157684
            ],
            [
              -0.3248499256383016,
              0.523678883494411
            ]
          ]
        ]
      }
    },
    {
      "type": "Feature",
      "properties": {
        "cell_id": "CEG2000_f4_r0029_c0116",
        "method": "Direct Polar",
        "view": "disk"
      },
      "geometry": {
        "type": "Polygon",
        "coordinates": [
          [
            [
              -0.06752573804119888,
              0.38405954379071544
            ],
            [
              0.11342595549270604,
              0.42215888579703614
            ],
            [
              0.12271281221794403,
              0.6890936972843081
            ],
            [
              -0.06753778286169614,
              0.579563333551742
            ],
            [
              -0.06752573804119888,
              0.38405954379071544
            ]
          ]
        ]
      }
    },
    {
      "type": "Feature",
      "properties": {
        "cell_id": "CEG2000_f4_r0029_c0117",
        "method": "Direct Polar",
        "view": "disk"
      },
      "geometry": {
        "type": "Polygon",
        "coordinates": [
          [
            [
              0.11342384159475905,
              0.4221614942185867
            ],
            [
              0.28681955930264935,
              0.40217607296604374
            ],
            [
              0.2903057896371699,
              0.6141692129232543
            ],
            [
              0.12271020611852625,
              0.6890961629484273
            ],
            [
              0.11342384159475905,
              0.4221614942185867
            ]
          ]
        ]
      }
    },
    {
      "type": "Feature",
      "properties": {
        "cell_id": "CEG2000_f4_r0029_c0118",
        "method": "Direct Polar",
        "view": "disk"
      },
      "geometry": {
        "type": "Polygon",
        "coordinates": [
          [
            [
              0.2868208518531463,
              0.4021741254395849
            ],
            [
              0.3393923511645895,
              0.2931716349677977
            ],
            [
              0.4474667358230229,
              0.5831839117761508
            ],
            [
              0.29030896093125874,
              0.6141701802104873
            ],
            [
              0.2868208518531463,
              0.4021741254395849
            ]
          ]
        ]
      }
    },
    {
      "type": "Feature",
      "properties": {
        "cell_id": "CEG2000_f4_r0029_c0119",
        "method": "Direct Polar",
        "view": "disk"
      },
      "geometry": {
        "type": "Polygon",
        "coordinates": [
          [
            [
              0.33939279833670366,
              0.29317033275245263
            ],
            [
              0.44792342935122875,
              0.27957484499735474
            ],
            [
              0.5007025702835147,
              0.4715188011345002
            ],
            [
              0.4474678496085926,
              0.5831820045890429
            ],
            [
              0.33939279833670366,
              0.29317033275245263
            ]
          ]
        ]
      }
    },
    {
      "type": "Feature",
      "properties": {
        "cell_id": "CEG2000_f4_r0030_c0114",
        "method": "Direct Polar",
        "view": "disk"
      },
      "geometry": {
        "type": "Polygon",
        "coordinates": [
          [
            [
              -0.5453031588608206,
              0.7726633307919606
            ],
            [
              -0.2899416378493168,
              0.7052164373440553
            ],
            [
              -0.26362259180059555,
              0.857422819025892
            ],
            [
              -0.46675528907735303,
              0.8843865105926914
            ],
            [
              -0.5453031588608206,
              0.7726633307919606
            ]
          ]
        ]
      }
    },
    {
      "type": "Feature",
      "properties": {
        "cell_id": "CEG2000_f4_r0030_c0115",
        "method": "Direct Polar",
        "view": "disk"
      },
      "geometry": {
        "type": "Polygon",
        "coordinates": [
          [
            [
              -0.289944631365416,
              0.7052161384157684
            ],
            [
              -0.06753778286169614,
              0.579563333551742
            ],
            [
              -0.06745825879790453,
              0.7740870515447157
            ],
            [
              -0.2636264330914112,
              0.8574260966963012
            ],
            [
              -0.289944631365416,
              0.7052161384157684
            ]
          ]
        ]
      }
    },
    {
      "type": "Feature",
      "properties": {
        "cell_id": "CEG2000_f4_r0030_c0116",
        "method": "Direct Polar",
        "view": "disk"
      },
      "geometry": {
        "type": "Polygon",
        "coordinates": [
          [
            [
              -0.06753778286169614,
              0.579563333551742
            ],
            [
              0.12271281221794403,
              0.6890936972843081
            ],
            [
              0.12023797343225032,
              0.9028811579857973
            ],
            [
              -0.06745825879790453,
              0.7740870515447157
            ],
            [
              -0.06753778286169614,
              0.579563333551742
            ]
          ]
        ]
      }
    },
    {
      "type": "Feature",
      "properties": {
        "cell_id": "CEG2000_f4_r0030_c0117",
        "method": "Direct Polar",
        "view": "disk"
      },
      "geometry": {
        "type": "Polygon",
        "coordinates": [
          [
            [
              0.12271020611852625,
              0.6890961629484273
            ],
            [
              0.2903057896371699,
              0.6141692129232543
            ],
            [
              0.27707335540587025,
              0.7838404703899747
            ],
            [
              0.12023476645838496,
              0.9028794817768155
            ],
            [
              0.12271020611852625,
              0.6890961629484273
            ]
          ]
        ]
      }
    },
    {
      "type": "Feature",
      "properties": {
        "cell_id": "CEG2000_f4_r0030_c0118",
        "method": "Direct Polar",
        "view": "disk"
      },
      "geometry": {
        "type": "Polygon",
        "coordinates": [
          [
            [
              0.29030896093125874,
              0.6141701802104873
            ],
            [
              0.4474667358230229,
              0.5831839117761508
            ],
            [
              0.48604940493834464,
              0.8470826136775101
            ],
            [
              0.277075001302939,
              0.7838377985242352
            ],
            [
              0.29030896093125874,
              0.6141701802104873
            ]
          ]
        ]
      }
    },
    {
      "type": "Feature",
      "properties": {
        "cell_id": "CEG2000_f4_r0031_c0115",
        "method": "Direct Polar",
        "view": "disk"
      },
      "geometry": {
        "type": "Polygon",
        "coordinates": [
          [
            [
              -0.26362655131062335,
              0.8574254000895304
            ],
            [
              -0.06745825920311585,
              0.7740860801687136
            ],
            [
              -0.06806427758255423,
              0.9779989747842087
            ],
            [
              -0.2384597845254993,
              0.9711523727840304
            ],
            [
              -0.26362655131062335,
              0.8574254000895304
            ]
          ]
        ]
      }
    },
    {
      "type": "Feature",
      "properties": {
        "cell_id": "CEG2000_f4_r0031_c0116",
        "method": "Direct Polar",
        "view": "disk"
      },
      "geometry": {
        "type": "Polygon",
        "coordinates": [
          [
            [
              -0.06745825920311585,
              0.7740860801687136
            ],
            [
              0.12023798477420947,
              0.9028801047349129
            ],
            [
              0.1057558138680415,
              0.9943921298125343
            ],
            [
              -0.06806427758255423,
              0.9779989747842087
            ],
            [
              -0.06745825920311585,
              0.7740860801687136
            ]
          ]
        ]
      }
    },
    {
      "type": "Feature",
      "properties": {
        "cell_id": "CEG2000_f4_r0031_c0117",
        "method": "Direct Polar",
        "view": "disk"
      },
      "geometry": {
        "type": "Polygon",
        "coordinates": [
          [
            [
              0.12023477779985543,
              0.9028784285264901
            ],
            [
              0.27707322802975287,
              0.7838391217197723
            ],
            [
              0.2716770839070646,
              0.9623884673455693
            ],
            [
              0.10575321884340744,
              0.9943924057957494
            ],
            [
              0.12023477779985543,
              0.9028784285264901
            ]
          ]
        ]
      }
    },
    {
      "type": "Feature",
      "properties": {
        "cell_id": "CEG2000_f4_r0031_c0118",
        "method": "Direct Polar",
        "view": "disk"
      },
      "geometry": {
        "type": "Polygon",
        "coordinates": [
          [
            [
              0.27707487392438285,
              0.7838364498538711
            ],
            [
              0.4860494960856327,
              0.847081704464014
            ],
            [
              0.4165823442954137,
              0.909097987249635
            ],
            [
              0.27167943634974695,
              0.9623878032605586
            ],
            [
              0.27707487392438285,
              0.7838364498538711
            ]
          ]
        ]
      }
    }
  ]
}