{
  "type": "FeatureCollection",
  "features": [
    {
      "type": "Feature",
      "properties": {
        "cell_id": "CEG2000_f4_r0013_c0108",
        "region_id": "福建"
      },
      "geometry": {
        "type": "Polygon",
        "coordinates": [
          [
            [
              116.800006,
              23.5
            ],
            [
              117.199994,
              23.5
            ],
            [
              117.199994,
              23.900000000000002
            ],
            [
              116.800006,
              23.900000000000002
            ],
            [
              116.800006,
              23.5
            ]
          ]
        ]
      }
    },
    {
      "type": "Feature",
      "properties": {
        "cell_id": "CEG2000_f4_r0013_c0109",
        "region_id": "福建"
      },
      "geometry": {
        "type": "Polygon",
        "coordinates": [
          [
            [
              117.2,
              23.5
            ],
            [
              117.6,
              23.5
            ],
            [
              117.6,
              23.900000000000002
            ],
            [
              117.2,
              23.900000000000002
            ],
            [
              117.2,
              23.5
            ]
          ]
        ]
      }
    },
    {
      "type": "Feature",
      "properties": {
        "cell_id": "CEG2000_f4_r0014_c0108",
        "region_id": "福建"
      },
      "geometry": {
        "type": "Polygon",
        "coordinates": [
          [
            [
              116.800006,
              23.9
            ],
            [
              117.199994,
              23.9
            ],
            [
              117.199994,
              24.3
            ],
            [
              116.800006,
              24.3
            ],
            [
              116.800006,
              23.9
            ]
          ]
        ]
      }
    },
    {
      "type": "Feature",
      "properties": {
        "cell_id": "CEG2000_f4_r0014_c0109",
        "region_id": "福建"
      },
      "geometry": {
        "type": "Polygon",
        "coordinates": [
          [
            [
              117.2,
              23.9
            ],
            [
              117.6,
              23.9
            ],
            [
              117.6,
              24.3
            ],
            [
              117.2,
              24.3
            ],
            [
              117.2,
              23.9
            ]
          ]
        ]
      }
    },
    {
      "type": "Feature",
      "properties": {
        "cell_id": "CEG2000_f4_r0014_c0110",
        "region_id": "福建"
      },
      "geometry": {
        "type": "Polygon",
        "coordinates": [
          [
            [
              117.59999400000001,
              23.9
            ],
            [
              118.0,
              23.9
            ],
            [
              118.0,
              24.3
            ],
            [
              117.59999400000001,
              24.3
            ],
            [
              117.59999400000001,
              23.9
            ]
          ]
        ]
      }
    },
    {
      "type": "Feature",
      "properties": {
        "cell_id": "CEG2000_f4_r0015_c0108",
        "region_id": "福建"
      },
      "geometry": {
        "type": "Polygon",
        "coordinates": [
          [
            [
              116.800006,
              24.3
            ],
            [
              117.199994,
              24.3
            ],
            [
              117.199994,
              24.700002
            ],
            [
              116.800006,
              24.700002
            ],
            [
              116.800006,
              24.3
            ]
          ]
        ]
      }
    },
    {
      "type": "Feature",
      "properties": {
        "cell_id": "CEG2000_f4_r0015_c0109",
        "region_id": "福建"
      },
      "geometry": {
        "type": "Polygon",
        "coordinates": [
          [
            [
              117.2,
              24.3
            ],
            [
              117.6,
              24.3
            ],
            [
              117.6,
              24.700002
            ],
            [
              117.2,
              24.700002
            ],
            [
              117.2,
              24.3
            ]
          ]
        ]
      }
    },
    {
      "type": "Feature",
      "properties": {
        "cell_id": "CEG2000_f4_r0015_c0110",
        "region_id": "福建"
      },
      "geometry": {
        "type": "Polygon",
        "coordinates": [
          [
            [
              117.59999400000001,
              24.3
            ],
            [
              118.0,
              24.3
            ],
            [
              118.0,
              24.700002
            ],
            [
              117.59999400000001,
              24.700002
            ],
            [
              117.59999400000001,
              24.3
            ]
          ]
        ]
      }
    },
    {
      "type": "Feature",
      "properties": {
        "cell_id": "CEG2000_f4_r0015_c0111",
        "region_id": "福建"
      },
      "geometry": {
        "type": "Polygon",
        "coordinates": [
          [
            [
              118.0,
              24.3
            ],
            [
              118.40000599999999,
              24.3
            ],
            [
              118.40000599999999,
              24.700002
            ],
            [
              118.0,
              24.700002
            ],
            [
              118.0,
              24.3
            ]
          ]
        ]
      }
    },
    {
      "type": "Feature",
      "properties": {
        "cell_id": "CEG2000_f4_r0016_c0106",
        "region_id": "福建"
      },
      "geometry": {
        "type": "Polygon",
        "coordinates": [
          [
            [
              116.0,
              24.7
            ],
            [
              116.40000599999999,
              24.7
            ],
            [
              116.40000599999999,
              25.1
            ],
            [
              116.0,
              25.1
            ],
            [
              116.0,
              24.7
            ]
          ]
        ]
      }
    },
    {
      "type": "Feature",
      "properties": {
        "cell_id": "CEG2000_f4_r0016_c0107",
        "region_id": "福建"
      },
      "geometry": {
        "type": "Polygon",
        "coordinates": [
          [
            [
              116.4,
              24.7
            ],
            [
              116.8,
              24.7
            ],
            [
              116.8,
              25.1
            ],
            [
              116.4,
              25.1
            ],
            [
              116.4,
              24.7
            ]
          ]
        ]
      }
    },
    {
      "type": "Feature",
      "properties": {
        "cell_id": "CEG2000_f4_r0016_c0108",
        "region_id": "福建"
      },
      "geometry": {
        "type": "Polygon",
        "coordinates": [
          [
            [
              116.800006,
              24.7
            ],
            [
              117.199994,
              24.7
            ],
            [
              117.199994,
              25.1
            ],
            [
              116.800006,
              25.1
            ],
            [
              116.800006,
              24.7
            ]
          ]
        ]
      }
    },
    {
      "type": "Feature",
      "properties": {
        "cell_id": "CEG2000_f4_r0016_c0109",
        "region_id": "福建"
      },
      "geometry": {
        "type": "Polygon",
        "coordinates": [
          [
            [
              117.2,
              24.7
            ],
            [
              117.6,
              24.7
            ],
            [
              117.6,
              25.1
            ],
            [
              117.2,
              25.1
            ],
            [
              117.2,
              24.7
            ]
          ]
        ]
      }
    },
    {
      "type": "Feature",
      "properties": {
        "cell_id": "CEG2000_f4_r0016_c0110",
        "region_id": "福建"
      },
      "geometry": {
        "type": "Polygon",
        "coordinates": [
          [
            [
              117.59999400000001,
              24.7
            ],
            [
              118.0,
              24.7
            ],
            [
              118.0,
              25.1
            ],
            [
              117.59999400000001,
              25.1
            ],
            [
              117.59999400000001,
              24.7
            ]
          ]
        ]
      }
    },
    {
      "type": "Feature",
      "properties": {
        "cell_id": "CEG2000_f4_r0016_c0111",
        "region_id": "福建"
      },
      "geometry": {
        "type": "Polygon",
        "coordinates": [
          [
            [
              118.0,
              24.7
            ],
            [
              118.40000599999999,
              24.7
            ],
            [
              118.40000599999999,
              25.1
            ],
            [
              118.0,
              25.1
            ],
            [
              118.0,
              24.7
            ]
          ]
        ]
      }
    },
    {
      "type": "Feature",
      "properties": {
        "cell_id": "CEG2000_f4_r0016_c0112",
        "region_id": "福建"
      },
      "geometry": {
        "type": "Polygon",
        "coordinates": [
          [
            [
              118.4,
              24.7
            ],
            [
              118.8,
              24.7
            ],
            [
              118.8,
              25.1
            ],
            [
              118.4,
              25.1
            ],
            [
              118.4,
              24.7
            ]
          ]
        ]
      }
    },
    {
      "type": "Feature",
      "properties": {
        "cell_id": "CEG2000_f4_r0017_c0106",
        "region_id": "福建"
      },
      "geometry": {
        "type": "Polygon",
        "coordinates": [
          [
            [
              116.0,
              25.100002
            ],
            [
              116.40000599999999,
              25.100002
            ],
            [
              116.40000599999999,
              25.5
            ],
            [
              116.0,
              25.5
            ],
            [
              116.0,
              25.100002
            ]
          ]
        ]
      }
    },
    {
      "type": "Feature",
      "properties": {
        "cell_id": "CEG2000_f4_r0017_c0107",
        "region_id": "福建"
      },
      "geometry": {
        "type": "Polygon",
        "coordinates": [
          [
            [
              116.4,
              25.100002
            ],
            [
              116.8,
              25.100002
            ],
            [
              116.8,
              25.5
            ],
            [
              116.4,
              25.5
            ],
            [
              116.4,
              25.100002
            ]
          ]
        ]
      }
    },
    {
      "type": "Feature",
      "properties": {
        "cell_id": "CEG2000_f4_r0017_c0108",
        "region_id": "福建"
      },
      "geometry": {
        "type": "Polygon",
        "coordinates": [
          [
            [
              116.800006,
              25.100002
            ],
            [
              117.199994,
              25.100002
            ],
            [
              117.199994,
              25.5
            ],
            [
              116.800006,
              25.5
            ],
            [
              116.800006,
              25.100002
            ]
          ]
        ]
      }
    },
    {
      "type": "Feature",
      "properties": {
        "cell_id": "CEG2000_f4_r0017_c0109",
        "region_id": "福建"
      },
      "geometry": {
        "type": "Polygon",
        "coordinates": [
          [
            [
              117.2,
              25.100002
            ],
            [
              117.6,
              25.100002
            ],
            [
              117.6,
              25.5
            ],
            [
              117.2,
              25.5
            ],
            [
              117.2,
              25.100002
            ]
          ]
        ]
      }
    },
    {
      "type": "Feature",
      "properties": {
        "cell_id": "CEG2000_f4_r0017_c0110",
        "region_id": "福建"
      },
      "geometry": {
        "type": "Polygon",
        "coordinates": [
          [
            [
              117.59999400000001,
              25.100002
            ],
            [
              118.0,
              25.100002
            ],
            [
              118.0,
              25.5
            ],
            [
              117.59999400000001,
              25.5
            ],
            [
              117.59999400000001,
              25.100002
            ]
          ]
        ]
      }
    },
    {
      "type": "Feature",
      "properties": {
        "cell_id": "CEG2000_f4_r0017_c0111",
        "region_id": "福建"
      },
      "geometry": {
        "type": "Polygon",
        "coordinates": [
          [
            [
              118.0,
              25.100002
            ],
            [
              118.40000599999999,
              25.100002
            ],
            [
              118.40000599999999,
              25.5
            ],
            [
              118.0,
              25.5
            ],
            [
              118.0,
              25.100002
            ]
          ]
        ]
      }
    },
    {
      "type": "Feature",
      "properties": {
        "cell_id": "CEG2000_f4_r0017_c0112",
        "region_id": "福建"
      },
      "geometry": {
        "type": "Polygon",
        "coordinates": [
          [
            [
              118.4,
              25.100002
            ],
            [
              118.8,
              25.100002
            ],
            [
              118.8,
              25.5
            ],
            [
              118.4,
              25.5
            ],
            [
              118.4,
              25.100002
            ]
          ]
        ]
      }
    },
    {
      "type": "Feature",
      "properties": {
        "cell_id": "CEG2000_f4_r0017_c0113",
        "region_id": "福建"
      },
      "geometry": {
        "type": "Polygon",
        "coordinates": [
          [
            [
              118.800006,
              25.100002
            ],
            [
              119.199994,
              25.100002
            ],
            [
              119.199994,
              25.5
            ],
            [
              118.800006,
              25.5
            ],
            [
              118.800006,
              25.100002
            ]
          ]
        ]
      }
    },
    {
      "type": "Feature",
      "properties": {
        "cell_id": "CEG2000_f4_r0018_c0106",
        "region_id": "福建"
      },
      "geometry": {
        "type": "Polygon",
        "coordinates": [
          [
            [
              116.0,
              25.5
            ],
            [
              116.40000599999999,
              25.5
            ],
            [
              116.40000599999999,
              25.900000000000002
            ],
            [
              116.0,
              25.900000000000002
            ],
            [
              116.0,
              25.5
            ]
          ]
        ]
      }
    },
    {
      "type": "Feature",
      "properties": {
        "cell_id": "CEG2000_f4_r0018_c0107",
        "region_id": "福建"
      },
      "geometry": {
        "type": "Polygon",
        "coordinates": [
          [
            [
              116.4,
              25.5
            ],
            [
              116.8,
              25.5
            ],
            [
              116.8,
              25.900000000000002
            ],
            [
              116.4,
              25.900000000000002
            ],
            [
              116.4,
              25.5
            ]
          ]
        ]
      }
    },
    {
      "type": "Feature",
      "properties": {
        "cell_id": "CEG2000_f4_r0018_c0108",
        "region_id": "福建"
      },
      "geometry": {
        "type": "Polygon",
        "coordinates": [
          [
            [
              116.800006,
              25.5
            ],
            [
              117.199994,
              25.5
            ],
            [
              117.199994,
              25.900000000000002
            ],
            [
              116.800006,
              25.900000000000002
            ],
            [
              116.800006,
              25.5
            ]
          ]
        ]
      }
    },
    {
      "type": "Feature",
      "properties": {
        "cell_id": "CEG2000_f4_r0018_c0109",
        "region_id": "福建"
      },
      "geometry": {
        "type": "Polygon",
        "coordinates": [
          [
            [
              117.2,
              25.5
            ],
            [
              117.6,
              25.5
            ],
            [
              117.6,
              25.900000000000002
            ],
            [
              117.2,
              25.900000000000002
            ],
            [
              117.2,
              25.5
            ]
          ]
        ]
      }
    },
    {
      "type": "Feature",
      "properties": {
        "cell_id": "CEG2000_f4_r0018_c0110",
        "region_id": "福建"
      },
      "geometry": {
        "type": "Polygon",
        "coordinates": [
          [
            [
              117.59999400000001,
              25.5
            ],
            [
              118.0,
              25.5
            ],
            [
              118.0,
              25.900000000000002
            ],
            [
              117.59999400000001,
              25.900000000000002
            ],
            [
              117.59999400000001,
              25.5
            ]
          ]
        ]
      }
    },
    {
      "type": "Feature",
      "properties": {
        "cell_id": "CEG2000_f4_r0018_c0111",
        "region_id": "福建"
      },
      "geometry": {
        "type": "Polygon",
        "coordinates": [
          [
            [
              118.0,
              25.5
            ],
            [
              118.40000599999999,
              25.5
            ],
            [
              118.40000599999999,
              25.900000000000002
            ],
            [
              118.0,
              25.900000000000002
            ],
            [
              118.0,
              25.5
            ]
          ]
        ]
      }
    },
    {
      "type": "Feature",
      "properties": {
        "cell_id": "CEG2000_f4_r0018_c0112",
        "region_id": "福建"
      },
      "geometry": {
        "type": "Polygon",
        "coordinates": [
          [
            [
              118.4,
              25.5
            ],
            [
              118.8,
              25.5
            ],
            [
              118.8,
              25.900000000000002
            ],
            [
              118.4,
              25.900000000000002
            ],
            [
              118.4,
              25.5
            ]
          ]
        ]
      }
    },
    {
      "type": "Feature",
      "properties": {
        "cell_id": "CEG2000_f4_r0018_c0113",
        "region_id": "福建"
      },
      "geometry": {
        "type": "Polygon",
        "coordinates": [
          [
            [
              118.800006,
              25.5
            ],
            [
              119.199994,
              25.5
            ],
            [
              119.199994,
              25.900000000000002
            ],
            [
              118.800006,
              25.900000000000002
            ],
            [
              118.800006,
              25.5
            ]
          ]
        ]
      }
    },
    {
      "type": "Feature",
      "properties": {
        "cell_id": "CEG2000_f4_r0018_c0114",
        "region_id": "福建"
      },
      "geometry": {
        "type": "Polygon",
        "coordinates": [
          [
            [
              119.2,
              25.5
            ],
            [
              119.6,
              25.5
            ],
            [
              119.6,
              25.900000000000002
            ],
            [
              119.2,
              25.900000000000002
            ],
            [
              119.2,
              25.5
            ]
          ]
        ]
      }
    },
    {
      "type": "Feature",
      "properties": {
        "cell_id": "CEG2000_f4_r0019_c0107",
        "region_id": "福建"
      },
      "geometry": {
        "type": "Polygon",
        "coordinates": [
          [
            [
              116.4,
              25.9
            ],
            [
              116.8,
              25.9
            ],
            [
              116.8,
              26.3
            ],
            [
              116.4,
              26.3
            ],
            [
              116.4,
              25.9
            ]
          ]
        ]
      }
    },
    {
      "type": "Feature",
      "properties": {
        "cell_id": "CEG2000_f4_r0019_c0108",
        "region_id": "福建"
      },
      "geometry": {
        "type": "Polygon",
        "coordinates": [
          [
            [
              116.800006,
              25.9
            ],
            [
              117.199994,
              25.9
            ],
            [
              117.199994,
              26.3
            ],
            [
              116.800006,
              26.3
            ],
            [
              116.800006,
              25.9
            ]
          ]
        ]
      }
    },
    {
      "type": "Feature",
      "properties": {
        "cell_id": "CEG2000_f4_r0019_c0109",
        "region_id": "福建"
      },
      "geometry": {
        "type": "Polygon",
        "coordinates": [
          [
            [
              117.2,
              25.9
            ],
            [
              117.6,
              25.9
            ],
            [
              117.6,
              26.3
            ],
            [
              117.2,
              26.3
            ],
            [
              117.2,
              25.9
            ]
          ]
        ]
      }
    },
    {
      "type": "Feature",
      "properties": {
        "cell_id": "CEG2000_f4_r0019_c0110",
        "region_id": "福建"
      },
      "geometry": {
        "type": "Polygon",
        "coordinates": [
          [
            [
              117.59999400000001,
              25.9
            ],
            [
              118.0,
              25.9
            ],
            [
              118.0,
              26.3
            ],
            [
              117.59999400000001,
              26.3
            ],
            [
              117.59999400000001,
              25.9
            ]
          ]
        ]
      }
    },
    {
      "type": "Feature",
      "properties": {
        "cell_id": "CEG2000_f4_r0019_c0111",
        "region_id": "福建"
      },
      "geometry": {
        "type": "Polygon",
        "coordinates": [
          [
            [
              118.0,
              25.9
            ],
            [
              118.40000599999999,
              25.9
            ],
            [
              118.40000599999999,
              26.3
            ],
            [
              118.0,
              26.3
            ],
            [
              118.0,
              25.9
            ]
          ]
        ]
      }
    },
    {
      "type": "Feature",
      "properties": {
        "cell_id": "CEG2000_f4_r0019_c0112",
        "region_id": "福建"
      },
      "geometry": {
        "type": "Polygon",
        "coordinates": [
          [
            [
              118.4,
              25.9
            ],
            [
              118.8,
              25.9
            ],
            [
              118.8,
              26.3
            ],
            [
              118.4,
              26.3
            ],
            [
              118.4,
              25.9
            ]
          ]
        ]
      }
    },
    {
      "type": "Feature",
      "properties": {
        "cell_id": "CEG2000_f4_r0019_c0113",
        "region_id": "福建"
      },
      "geometry": {
        "type": "Polygon",
        "coordinates": [
          [
            [
              118.800006,
              25.9
            ],
            [
              119.199994,
              25.9
            ],
            [
              119.199994,
              26.3
            ],
            [
              118.800006,
              26.3
            ],
            [
              118.800006,
              25.9
            ]
          ]
        ]
      }
    },
    {
      "type": "Feature",
      "properties": {
        "cell_id": "CEG2000_f4_r0019_c0114",
        "region_id": "福建"
      },
      "geometry": {
        "type": "Polygon",
        "coordinates": [
          [
            [
              119.2,
              25.9
            ],
            [
              119.6,
              25.9
            ],
            [
              119.6,
              26.3
            ],
            [
              119.2,
              26.3
            ],
            [
              119.2,
              25.9
            ]
          ]
        ]
      }
    },
    {
      "type": "Feature",
      "properties": {
        "cell_id": "CEG2000_f4_r0020_c0107",
        "region_id": "福建"
      },
      "geometry": {
        "type": "Polygon",
        "coordinates": [
          [
            [
              116.4,
              26.3
            ],
            [
              116.8,
              26.3
            ],
            [
              116.8,
              26.700002
            ],
            [
              116.4,
              26.700002
            ],
            [
              116.4,
              26.3
            ]
          ]
        ]
      }
    },
    {
      "type": "Feature",
      "properties": {
        "cell_id": "CEG2000_f4_r0020_c0108",
        "region_id": "福建"
      },
      "geometry": {
        "type": "Polygon",
        "coordinates": [
          [
            [
              116.800006,
              26.3
            ],
            [
              117.199994,
              26.3
            ],
            [
              117.199994,
              26.700002
            ],
            [
              116.800006,
              26.700002
            ],
            [
              116.800006,
              26.3
            ]
          ]
        ]
      }
    },
    {
      "type": "Feature",
      "properties": {
        "cell_id": "CEG2000_f4_r0020_c0109",
        "region_id": "福建"
      },
      "geometry": {
        "type": "Polygon",
        "coordinates": [
          [
            [
              117.2,
              26.3
            ],
            [
              117.6,
              26.3
            ],
            [
              117.6,
              26.700002
            ],
            [
              117.2,
              26.700002
            ],
            [
              117.2,
              26.3
            ]
          ]
        ]
      }
    },
    {
      "type": "Feature",
      "properties": {
        "cell_id": "CEG2000_f4_r0020_c0110",
        "region_id": "福建"
      },
      "geometry": {
        "type": "Polygon",
        "coordinates": [
          [
            [
              117.59999400000001,
              26.3
            ],
            [
              118.0,
              26.3
            ],
            [
              118.0,
              26.700002
            ],
            [
              117.59999400000001,
              26.700002
            ],
            [
              117.59999400000001,
              26.3
            ]
          ]
        ]
      }
    },
    {
      "type": "Feature",
      "properties": {
        "cell_id": "CEG2000_f4_r0020_c0111",
        "region_id": "福建"
      },
      "geometry": {
        "type": "Polygon",
        "coordinates": [
          [
            [
              118.0,
              26.3
            ],
            [
              118.40000599999999,
              26.3
            ],
            [
              118.40000599999999,
              26.700002
            ],
            [
              118.0,
              26.700002
            ],
            [
              118.0,
              26.3
            ]
          ]
        ]
      }
    },
    {
      "type": "Feature",
      "properties": {
        "cell_id": "CEG2000_f4_r0020_c0112",
        "region_id": "福建"
      },
      "geometry": {
        "type": "Polygon",
        "coordinates": [
          [
            [
              118.4,
              26.3
            ],
            [
              118.8,
              26.3
            ],
            [
              118.8,
              26.700002
            ],
            [
              118.4,
              26.700002
            ],
            [
              118.4,
              26.3
            ]
          ]
        ]
      }
    },
    {
      "type": "Feature",
      "properties": {
        "cell_id": "CEG2000_f4_r0020_c0113",
        "region_id": "福建"
      },
      "geometry": {
        "type": "Polygon",
        "coordinates": [
          [
            [
              118.800006,
              26.3
            ],
            [
              119.199994,
              26.3
            ],
            [
              119.199994,
              26.700002
            ],
            [
              118.800006,
              26.700002
            ],
            [
              118.800006,
              26.3
            ]
          ]
        ]
      }
    },
    {
      "type": "Feature",
      "properties": {
        "cell_id": "CEG2000_f4_r0020_c0114",
        "region_id": "福建"
      },
      "geometry": {
        "type": "Polygon",
        "coordinates": [
          [
            [
              119.2,
              26.3
            ],
            [
              119.6,
              26.3
            ],
            [
              119.6,
              26.700002
            ],
            [
              119.2,
              26.700002
            ],
            [
              119.2,
              26.3
            ]
          ]
        ]
      }
    },
    {
      "type": "Feature",
      "properties": {
        "cell_id": "CEG2000_f4_r0021_c0107",
        "region_id": "福建"
      },
      "geometry": {
        "type": "Polygon",
        "coordinates": [
          [
            [
              116.4,
              26.7
            ],
            [
              116.8,
              26.7
            ],
            [
              116.8,
              27.1
            ],
            [
              116.4,
              27.1
            ],
            [
              116.4,
              26.7
            ]
          ]
        ]
      }
    },
    {
      "type": "Feature",
      "properties": {
        "cell_id": "CEG2000_f4_r0021_c0108",
        "region_id": "福建"
      },
      "geometry": {
        "type": "Polygon",
        "coordinates": [
          [
            [
              116.800006,
              26.7
            ],
            [
              117.199994,
              26.7
            ],
            [
              117.199994,
              27.1
            ],
            [
              116.800006,
              27.1
            ],
            [
              116.800006,
              26.7
            ]
          ]
        ]
      }
    },
    {
      "type": "Feature",
      "properties": {
        "cell_id": "CEG2000_f4_r0021_c0109",
        "region_id": "福建"
      },
      "geometry": {
        "type": "Polygon",
        "coordinates": [
          [
            [
              117.2,
              26.7
            ],
            [
              117.6,
              26.7
            ],
            [
              117.6,
              27.1
            ],
            [
              117.2,
              27.1
            ],
            [
              117.2,
              26.7
            ]
          ]
        ]
      }
    },
    {
      "type": "Feature",
      "properties": {
        "cell_id": "CEG2000_f4_r0021_c0110",
        "region_id": "福建"
      },
      "geometry": {
        "type": "Polygon",
        "coordinates": [
          [
            [
              117.59999400000001,
              26.7
            ],
            [
              118.0,
              26.7
            ],
            [
              118.0,
              27.1
            ],
            [
              117.59999400000001,
              27.1
            ],
            [
              117.59999400000001,
              26.7
            ]
          ]
        ]
      }
    },
    {
      "type": "Feature",
      "properties": {
        "cell_id": "CEG2000_f4_r0021_c0111",
        "region_id": "福建"
      },
      "geometry": {
        "type": "Polygon",
        "coordinates": [
          [
            [
              118.0,
              26.7
            ],
            [
              118.40000599999999,
              26.7
            ],
            [
              118.40000599999999,
              27.1
            ],
            [
              118.0,
              27.1
            ],
            [
              118.0,
              26.7
            ]
          ]
        ]
      }
    },
    {
      "type": "Feature",
      "properties": {
        "cell_id": "CEG2000_f4_r0021_c0112",
        "region_id": "福建"
      },
      "geometry": {
        "type": "Polygon",
        "coordinates": [
          [
            [
              118.4,
              26.7
            ],
            [
              118.8,
              26.7
            ],
            [
              118.8,
              27.1
            ],
            [
              118.4,
              27.1
            ],
            [
              118.4,
              26.7
            ]
          ]
        ]
      }
    },
    {
      "type": "Feature",
      "properties": {
        "cell_id": "CEG2000_f4_r0021_c0113",
        "region_id": "福建"
      },
      "geometry": {
        "type": "Polygon",
        "coordinates": [
          [
            [
              118.800006,
              26.7
            ],
            [
              119.199994,
              26.7
            ],
            [
              119.199994,
              27.1
            ],
            [
              118.800006,
              27.1
            ],
            [
              118.800006,
              26.7
            ]
          ]
        ]
      }
    },
    {
      "type": "Feature",
      "properties": {
        "cell_id": "CEG2000_f4_r0021_c0114",
        "region_id": "福建"
      },
      "geometry": {
        "type": "Polygon",
        "coordinates": [
          [
            [
              119.2,
              26.7
            ],
            [
              119.6,
              26.7
            ],
            [
              119.6,
              27.1
            ],
            [
              119.2,
              27.1
            ],
            [
              119.2,
              26.7
            ]
          ]
        ]
      }
    },
    {
      "type": "Feature",
      "properties": {
        "cell_id": "CEG2000_f4_r0021_c0115",
        "region_id": "福建"
      },
      "geometry": {
        "type": "Polygon",
        "coordinates": [
          [
            [
              119.59999400000001,
              26.7
            ],
            [
              120.0,
              26.7
            ],
            [
              120.0,
              27.1
            ],
            [
              119.59999400000001,
              27.1
            ],
            [
              119.59999400000001,
              26.7
            ]
          ]
        ]
      }
    },
    {
      "type": "Feature",
      "properties": {
        "cell_id": "CEG2000_f4_r0022_c0108",
        "region_id": "福建"
      },
      "geometry": {
        "type": "Polygon",
        "coordinates": [
          [
            [
              116.800006,
              27.100002
            ],
            [
              117.199994,
              27.100002
            ],
            [
              117.199994,
              27.5
            ],
            [
              116.800006,
              27.5
            ],
            [
              116.800006,
              27.100002
            ]
          ]
        ]
      }
    },
    {
      "type": "Feature",
      "properties": {
        "cell_id": "CEG2000_f4_r0022_c0109",
        "region_id": "福建"
      },
      "geometry": {
        "type": "Polygon",
        "coordinates": [
          [
            [
              117.2,
              27.100002
            ],
            [
              117.6,
              27.100002
            ],
            [
              117.6,
              27.5
            ],
            [
              117.2,
              27.5
            ],
            [
              117.2,
              27.100002
            ]
          ]
        ]
      }
    },
    {
      "type": "Feature",
      "properties": {
        "cell_id": "CEG2000_f4_r0022_c0110",
        "region_id": "福建"
      },
      "geometry": {
        "type": "Polygon",
        "coordinates": [
          [
            [
              117.59999400000001,
              27.100002
            ],
            [
              118.0,
              27.100002
            ],
            [
              118.0,
              27.5
            ],
            [
              117.59999400000001,
              27.5
            ],
            [
              117.59999400000001,
              27.100002
            ]
          ]
        ]
      }
    },
    {
      "type": "Feature",
      "properties": {
        "cell_id": "CEG2000_f4_r0022_c0111",
        "region_id": "福建"
      },
      "geometry": {
        "type": "Polygon",
        "coordinates": [
          [
            [
              118.0,
              27.100002
            ],
            [
              118.40000599999999,
              27.100002
            ],
            [
              118.40000599999999,
              27.5
            ],
            [
              118.0,
              27.5
            ],
            [
              118.0,
              27.100002
            ]
          ]
        ]
      }
    },
    {
      "type": "Feature",
      "properties": {
        "cell_id": "CEG2000_f4_r0022_c0112",
        "region_id": "福建"
      },
      "geometry": {
        "type": "Polygon",
        "coordinates": [
          [
            [
              118.4,
              27.100002
            ],
            [
              118.8,
              27.100002
            ],
            [
              118.8,
              27.5
            ],
            [
              118.4,
              27.5
            ],
            [
              118.4,
              27.100002
            ]
          ]
        ]
      }
    },
    {
      "type": "Feature",
      "properties": {
        "cell_id": "CEG2000_f4_r0022_c0113",
        "region_id": "福建"
      },
      "geometry": {
        "type": "Polygon",
        "coordinates": [
          [
            [
              118.800006,
              27.100002
            ],
            [
              119.199994,
              27.100002
            ],
            [
              119.199994,
              27.5
            ],
            [
              118.800006,
              27.5
            ],
            [
              118.800006,
              27.100002
            ]
          ]
        ]
      }
    },
    {
      "type": "Feature",
      "properties": {
        "cell_id": "CEG2000_f4_r0022_c0114",
        "region_id": "福建"
      },
      "geometry": {
        "type": "Polygon",
        "coordinates": [
          [
            [
              119.2,
              27.100002
            ],
            [
              119.6,
              27.100002
            ],
            [
              119.6,
              27.5
            ],
            [
              119.2,
              27.5
            ],
            [
              119.2,
              27.100002
            ]
          ]
        ]
      }
    },
    {
      "type": "Feature",
      "properties": {
        "cell_id": "CEG2000_f4_r0022_c0115",
        "region_id": "福建"
      },
      "geometry": {
        "type": "Polygon",
        "coordinates": [
          [
            [
              119.59999400000001,
              27.100002
            ],
            [
              120.0,
              27.100002
            ],
            [
              120.0,
              27.5
            ],
            [
              119.59999400000001,
              27.5
            ],
            [
              119.59999400000001,
              27.100002
            ]
          ]
        ]
      }
    },
    {
      "type": "Feature",
      "properties": {
        "cell_id": "CEG2000_f4_r0022_c0116",
        "region_id": "福建"
      },
      "geometry": {
        "type": "Polygon",
        "coordinates": [
          [
            [
              120.0,
              27.100002
            ],
            [
              120.40000599999999,
              27.100002
            ],
            [
              120.40000599999999,
              27.5
            ],
            [
              120.0,
              27.5
            ],
            [
              120.0,
              27.100002
            ]
          ]
        ]
      }
    },
    {
      "type": "Feature",
      "properties": {
        "cell_id": "CEG2000_f4_r0023_c0108",
        "region_id": "福建"
      },
      "geometry": {
        "type": "Polygon",
        "coordinates": [
          [
            [
              116.800006,
              27.5
            ],
            [
              117.199994,
              27.5
            ],
            [
              117.199994,
              27.900000000000002
            ],
            [
              116.800006,
              27.900000000000002
            ],
            [
              116.800006,
              27.5
            ]
          ]
        ]
      }
    },
    {
      "type": "Feature",
      "properties": {
        "cell_id": "CEG2000_f4_r0023_c0109",
        "region_id": "福建"
      },
      "geometry": {
        "type": "Polygon",
        "coordinates": [
          [
            [
              117.2,
              27.5
            ],
            [
              117.6,
              27.5
            ],
            [
              117.6,
              27.900000000000002
            ],
            [
              117.2,
              27.900000000000002
            ],
            [
              117.2,
              27.5
            ]
          ]
        ]
      }
    },
    {
      "type": "Feature",
      "properties": {
        "cell_id": "CEG2000_f4_r0023_c0110",
        "region_id": "福建"
      },
      "geometry": {
        "type": "Polygon",
        "coordinates": [
          [
            [
              117.59999400000001,
              27.5
            ],
            [
              118.0,
              27.5
            ],
            [
              118.0,
              27.900000000000002
            ],
            [
              117.59999400000001,
              27.900000000000002
            ],
            [
              117.59999400000001,
              27.5
            ]
          ]
        ]
      }
    },
    {
      "type": "Feature",
      "properties": {
        "cell_id": "CEG2000_f4_r0023_c0111",
        "region_id": "福建"
      },
      "geometry": {
        "type": "Polygon",
        "coordinates": [
          [
            [
              118.0,
              27.5
            ],
            [
              118.40000599999999,
              27.5
            ],
            [
              118.40000599999999,
              27.900000000000002
            ],
            [
              118.0,
              27.900000000000002
            ],
            [
              118.0,
              27.5
            ]
          ]
        ]
      }
    },
    {
      "type": "Feature",
      "properties": {
        "cell_id": "CEG2000_f4_r0023_c0112",
        "region_id": "福建"
      },
      "geometry": {
        "type": "Polygon",
        "coordinates": [
          [
            [
              118.4,
              27.5
            ],
            [
              118.8,
              27.5
            ],
            [
              118.8,
              27.900000000000002
            ],
            [
              118.4,
              27.900000000000002
            ],
            [
              118.4,
              27.5
            ]
          ]
        ]
      }
    },
    {
      "type": "Feature",
      "properties": {
        "cell_id": "CEG2000_f4_r0024_c0111",
        "region_id": "福建"
      },
      "geometry": {
        "type": "Polygon",
        "coordinates": [
          [
            [
              118.0,
              27.9
            ],
            [
              118.40000599999999,
              27.9
            ],
            [
              118.40000599999999,
              28.3
            ],
            [
              118.0,
              28.3
            ],
            [
              118.0,
              27.9
            ]
          ]
        ]
      }
    },
    {
      "type": "Feature",
      "properties": {
        "cell_id": "CEG2000_f4_r0024_c0112",
        "region_id": "福建"
      },
      "geometry": {
        "type": "Polygon",
        "coordinates": [
          [
            [
              118.4,
              27.9
            ],
            [
              118.8,
              27.9
            ],
            [
              118.8,
              28.3
            ],
            [
              118.4,
              28.3
            ],
            [
              118.4,
              27.9
            ]
          ]
        ]
      }
    }
  ]
}