{
  "type": "FeatureCollection",
  "features": [
    {
      "type": "Feature",
      "properties": {
        "cell_id": "CEG2000_f4_r0008_c0085",
        "region_id": "广西"
      },
      "geometry": {
        "type": "Polygon",
        "coordinates": [
          [
            [
              107.60000000000001,
              21.5
            ],
            [
              108.0,
              21.5
            ],
            [
              108.0,
              21.900000000000002
            ],
            [
              107.60000000000001,
              21.900000000000002
            ],
            [
              107.60000000000001,
              21.5
            ]
          ]
        ]
      }
    },
    {
      "type": "Feature",
      "properties": {
        "cell_id": "CEG2000_f4_r0008_c0086",
        "region_id": "广西"
      },
      "geometry": {
        "type": "Polygon",
        "coordinates": [
          [
            [
              108.0,
              21.5
            ],
            [
              108.39999999999999,
              21.5
            ],
            [
              108.39999999999999,
              21.900000000000002
            ],
            [
              108.0,
              21.900000000000002
            ],
            [
              108.0,
              21.5
            ]
          ]
        ]
      }
    },
    {
      "type": "Feature",
      "properties": {
        "cell_id": "CEG2000_f4_r0008_c0088",
        "region_id": "广西"
      },
      "geometry": {
        "type": "Polygon",
        "coordinates": [
          [
            [
              108.8,
              21.5
            ],
            [
              109.199994,
              21.5
            ],
            [
              109.199994,
              21.900000000000002
            ],
            [
              108.8,
              21.900000000000002
            ],
            [
              108.8,
              21.5
            ]
          ]
        ]
      }
    },
    {
      "type": "Feature",
      "properties": {
        "cell_id": "CEG2000_f4_r0008_c0089",
        "region_id": "广西"
      },
      "geometry": {
        "type": "Polygon",
        "coordinates": [
          [
            [
              109.2,
              21.5
            ],
            [
              109.6,
              21.5
            ],
            [
              109.6,
              21.900000000000002
            ],
            [
              109.2,
              21.900000000000002
            ],
            [
              109.2,
              21.5
            ]
          ]
        ]
      }
    },
    {
      "type": "Feature",
      "properties": {
        "cell_id": "CEG2000_f4_r0008_c0090",
        "region_id": "广西"
      },
      "geometry": {
        "type": "Polygon",
        "coordinates": [
          [
            [
              109.59999400000001,
              21.5
            ],
            [
              110.0,
              21.5
            ],
            [
              110.0,
              21.900000000000002
            ],
            [
              109.59999400000001,
              21.900000000000002
            ],
            [
              109.59999400000001,
              21.5
            ]
          ]
        ]
      }
    },
    {
      "type": "Feature",
      "properties": {
        "cell_id": "CEG2000_f4_r0009_c0083",
        "region_id": "广西"
      },
      "geometry": {
        "type": "Polygon",
        "coordinates": [
          [
            [
              106.8,
              21.9
            ],
            [
              107.2,
              21.9
            ],
            [
              107.2,
              22.3
            ],
            [
              106.8,
              22.3
            ],
            [
              106.8,
              21.9
            ]
          ]
        ]
      }
    },
    {
      "type": "Feature",
      "properties": {
        "cell_id": "CEG2000_f4_r0009_c0084",
        "region_id": "广西"
      },
      "geometry": {
        "type": "Polygon",
        "coordinates": [
          [
            [
              107.2,
              21.9
            ],
            [
              107.6,
              21.9
            ],
            [
              107.6,
              22.3
            ],
            [
              107.2,
              22.3
            ],
            [
              107.2,
              21.9
            ]
          ]
        ]
      }
    },
    {
      "type": "Feature",
      "properties": {
        "cell_id": "CEG2000_f4_r0009_c0085",
        "region_id": "广西"
      },
      "geometry": {
        "type": "Polygon",
        "coordinates": [
          [
            [
              107.60000000000001,
              21.9
            ],
            [
              108.0,
              21.9
            ],
            [
              108.0,
              22.3
            ],
            [
              107.60000000000001,
              22.3
            ],
            [
              107.60000000000001,
              21.9
            ]
          ]
        ]
      }
    },
    {
      "type": "Feature",
      "properties": {
        "cell_id": "CEG2000_f4_r0009_c0086",
        "region_id": "广西"
      },
      "geometry": {
        "type": "Polygon",
        "coordinates": [
          [
            [
              108.0,
              21.9
            ],
            [
              108.39999999999999,
              21.9
            ],
            [
              108.39999999999999,
              22.3
            ],
            [
              108.0,
              22.3
            ],
            [
              108.0,
              21.9
            ]
          ]
        ]
      }
    },
    {
      "type": "Feature",
      "properties": {
        "cell_id": "CEG2000_f4_r0009_c0087",
        "region_id": "广西"
      },
      "geometry": {
        "type": "Polygon",
        "coordinates": [
          [
            [
              108.4,
              21.9
            ],
            [
              108.8,
              21.9
            ],
            [
              108.8,
              22.3
            ],
            [
              108.4,
              22.3
            ],
            [
              108.4,
              21.9
            ]
          ]
        ]
      }
    },
    {
      "type": "Feature",
      "properties": {
        "cell_id": "CEG2000_f4_r0009_c0088",
        "region_id": "广西"
      },
      "geometry": {
        "type": "Polygon",
        "coordinates": [
          [
            [
              108.8,
              21.9
            ],
            [
              109.199994,
              21.9
            ],
            [
              109.199994,
              22.3
            ],
            [
              108.8,
              22.3
            ],
            [
              108.8,
              21.9
            ]
          ]
        ]
      }
    },
    {
      "type": "Feature",
      "properties": {
        "cell_id": "CEG2000_f4_r0009_c0089",
        "region_id": "广西"
      },
      "geometry": {
        "type": "Polygon",
        "coordinates": [
          [
            [
              109.2,
              21.9
            ],
            [
              109.6,
              21.9
            ],
            [
              109.6,
              22.3
            ],
            [
              109.2,
              22.3
            ],
            [
              109.2,
              21.9
            ]
          ]
        ]
      }
    },
    {
      "type": "Feature",
      "properties": {
        "cell_id": "CEG2000_f4_r0009_c0090",
        "region_id": "广西"
      },
      "geometry": {
        "type": "Polygon",
        "coordinates": [
          [
            [
              109.59999400000001,
              21.9
            ],
            [
              110.0,
              21.9
            ],
            [
              110.0,
              22.3
            ],
            [
              109.59999400000001,
              22.3
            ],
            [
              109.59999400000001,
              21.9
            ]
          ]
        ]
      }
    },
    {
      "type": "Feature",
      "properties": {
        "cell_id": "CEG2000_f4_r0009_c0091",
        "region_id": "广西"
      },
      "geometry": {
        "type": "Polygon",
        "coordinates": [
          [
            [
              110.0,
              21.9
            ],
            [
              110.40000599999999,
              21.9
            ],
            [
              110.40000599999999,
              22.3
            ],
            [
              110.0,
              22.3
            ],
            [
              110.0,
              21.9
            ]
          ]
        ]
      }
    },
    {
      "type": "Feature",
      "properties": {
        "cell_id": "CEG2000_f4_r0009_c0092",
        "region_id": "广西"
      },
      "geometry": {
        "type": "Polygon",
        "coordinates": [
          [
            [
              110.4,
              21.9
            ],
            [
              110.8,
              21.9
            ],
            [
              110.8,
              22.3
            ],
            [
              110.4,
              22.3
            ],
            [
              110.4,
              21.9
            ]
          ]
        ]
      }
    },
    {
      "type": "Feature",
      "properties": {
        "cell_id": "CEG2000_f4_r0010_c0083",
        "region_id": "广西"
      },
      "geometry": {
        "type": "Polygon",
        "coordinates": [
          [
            [
              106.8,
              22.3
            ],
            [
              107.2,
              22.3
            ],
            [
              107.2,
              22.7
            ],
            [
              106.8,
              22.7
            ],
            [
              106.8,
              22.3
            ]
          ]
        ]
      }
    },
    {
      "type": "Feature",
      "properties": {
        "cell_id": "CEG2000_f4_r0010_c0084",
        "region_id": "广西"
      },
      "geometry": {
        "type": "Polygon",
        "coordinates": [
          [
            [
              107.2,
              22.3
            ],
            [
              107.6,
              22.3
            ],
            [
              107.6,
              22.7
            ],
            [
              107.2,
              22.7
            ],
            [
              107.2,
              22.3
            ]
          ]
        ]
      }
    },
    {
      "type": "Feature",
      "properties": {
        "cell_id": "CEG2000_f4_r0010_c0085",
        "region_id": "广西"
      },
      "geometry": {
        "type": "Polygon",
        "coordinates": [
          [
            [
              107.60000000000001,
              22.3
            ],
            [
              108.0,
              22.3
            ],
            [
              108.0,
              22.7
            ],
            [
              107.60000000000001,
              22.7
            ],
            [
              107.60000000000001,
              22.3
            ]
          ]
        ]
      }
    },
    {
      "type": "Feature",
      "properties": {
        "cell_id": "CEG2000_f4_r0010_c0086",
        "region_id": "广西"
      },
      "geometry": {
        "type": "Polygon",
        "coordinates": [
          [
            [
              108.0,
              22.3
            ],
            [
              108.39999999999999,
              22.3
            ],
            [
              108.39999999999999,
              22.7
            ],
            [
              108.0,
              22.7
            ],
            [
              108.0,
              22.3
            ]
          ]
        ]
      }
    },
    {
      "type": "Feature",
      "properties": {
        "cell_id": "CEG2000_f4_r0010_c0087",
        "region_id": "广西"
      },
      "geometry": {
        "type": "Polygon",
        "coordinates": [
          [
            [
              108.4,
              22.3
            ],
            [
              108.8,
              22.3
            ],
            [
              108.8,
              22.7
            ],
            [
              108.4,
              22.7
            ],
            [
              108.4,
              22.3
            ]
          ]
        ]
      }
    },
    {
      "type": "Feature",
      "properties": {
        "cell_id": "CEG2000_f4_r0010_c0088",
        "region_id": "广西"
      },
      "geometry": {
        "type": "Polygon",
        "coordinates": [
          [
            [
              108.8,
              22.3
            ],
            [
              109.199994,
              22.3
            ],
            [
              109.199994,
              22.7
            ],
            [
              108.8,
              22.7
            ],
            [
              108.8,
              22.3
            ]
          ]
        ]
      }
    },
    {
      "type": "Feature",
      "properties": {
        "cell_id": "CEG2000_f4_r0010_c0089",
        "region_id": "广西"
      },
      "geometry": {
        "type": "Polygon",
        "coordinates": [
          [
            [
              109.2,
              22.3
            ],
            [
              109.6,
              22.3
            ],
            [
              109.6,
              22.7
            ],
            [
              109.2,
              22.7
            ],
            [
              109.2,
              22.3
            ]
          ]
        ]
      }
    },
    {
      "type": "Feature",
      "properties": {
        "cell_id": "CEG2000_f4_r0010_c0090",
        "region_id": "广西"
      },
      "geometry": {
        "type": "Polygon",
        "coordinates": [
          [
            [
              109.59999400000001,
              22.3
            ],
            [
              110.0,
              22.3
            ],
            [
              110.0,
              22.7
            ],
            [
              109.59999400000001,
              22.7
            ],
            [
              109.59999400000001,
              22.3
            ]
          ]
        ]
      }
    },
    {
      "type": "Feature",
      "properties": {
        "cell_id": "CEG2000_f4_r0010_c0091",
        "region_id": "广西"
      },
      "geometry": {
        "type": "Polygon",
        "coordinates": [
          [
            [
              110.0,
              22.3
            ],
            [
              110.40000599999999,
              22.3
            ],
            [
              110.40000599999999,
              22.7
            ],
            [
              110.0,
              22.7
            ],
            [
              110.0,
              22.3
            ]
          ]
        ]
      }
    },
    {
      "type": "Feature",
      "properties": {
        "cell_id": "CEG2000_f4_r0010_c0092",
        "region_id": "广西"
      },
      "geometry": {
        "type": "Polygon",
        "coordinates": [
          [
            [
              110.4,
              22.3
            ],
            [
              110.8,
              22.3
            ],
            [
              110.8,
              22.7
            ],
            [
              110.4,
              22.7
            ],
            [
              110.4,
              22.3
            ]
          ]
        ]
      }
    },
    {
      "type": "Feature",
      "properties": {
        "cell_id": "CEG2000_f4_r0011_c0081",
        "region_id": "广西"
      },
      "geometry": {
        "type": "Polygon",
        "coordinates": [
          [
            [
              106.0,
              22.7
            ],
            [
              106.39999999999999,
              22.7
            ],
            [
              106.39999999999999,
              23.1
            ],
            [
              106.0,
              23.1
            ],
            [
              106.0,
              22.7
            ]
          ]
        ]
      }
    },
    {
      "type": "Feature",
      "properties": {
        "cell_id": "CEG2000_f4_r0011_c0082",
        "region_id": "广西"
      },
      "geometry": {
        "type": "Polygon",
        "coordinates": [
          [
            [
              106.4,
              22.7
            ],
            [
              106.8,
              22.7
            ],
            [
              106.8,
              23.1
            ],
            [
              106.4,
              23.1
            ],
            [
              106.4,
              22.7
            ]
          ]
        ]
      }
    },
    {
      "type": "Feature",
      "properties": {
        "cell_id": "CEG2000_f4_r0011_c0083",
        "region_id": "广西"
      },
      "geometry": {
        "type": "Polygon",
        "coordinates": [
          [
            [
              106.8,
              22.7
            ],
            [
              107.2,
              22.7
            ],
            [
              107.2,
              23.1
            ],
            [
              106.8,
              23.1
            ],
            [
              106.8,
              22.7
            ]
          ]
        ]
      }
    },
    {
      "type": "Feature",
      "properties": {
        "cell_id": "CEG2000_f4_r0011_c0084",
        "region_id": "广西"
      },
      "geometry": {
        "type": "Polygon",
        "coordinates": [
          [
            [
              107.2,
              22.7
            ],
            [
              107.6,
              22.7
            ],
            [
              107.6,
              23.1
            ],
            [
              107.2,
              23.1
            ],
            [
              107.2,
              22.7
            ]
          ]
        ]
      }
    },
    {
      "type": "Feature",
      "properties": {
        "cell_id": "CEG2000_f4_r0011_c0085",
        "region_id": "广西"
      },
      "geometry": {
        "type": "Polygon",
        "coordinates": [
          [
            [
              107.60000000000001,
              22.7
            ],
            [
              108.0,
              22.7
            ],
            [
              108.0,
              23.1
            ],
            [
              107.60000000000001,
              23.1
            ],
            [
              107.60000000000001,
              22.7
            ]
          ]
        ]
      }
    },
    {
      "type": "Feature",
      "properties": {
        "cell_id": "CEG2000_f4_r0011_c0086",
        "region_id": "广西"
      },
      "geometry": {
        "type": "Polygon",
        "coordinates": [
          [
            [
              108.0,
              22.7
            ],
            [
              108.39999999999999,
              22.7
            ],
            [
              108.39999999999999,
              23.1
            ],
            [
              108.0,
              23.1
            ],
            [
              108.0,
              22.7
            ]
          ]
        ]
      }
    },
    {
      "type": "Feature",
      "properties": {
        "cell_id": "CEG2000_f4_r0011_c0087",
        "region_id": "广西"
      },
      "geometry": {
        "type": "Polygon",
        "coordinates": [
          [
            [
              108.4,
              22.7
            ],
            [
              108.8,
              22.7
            ],
            [
              108.8,
              23.1
            ],
            [
              108.4,
              23.1
            ],
            [
              108.4,
              22.7
            ]
          ]
        ]
      }
    },
    {
      "type": "Feature",
      "properties": {
        "cell_id": "CEG2000_f4_r0011_c0088",
        "region_id": "广西"
      },
      "geometry": {
        "type": "Polygon",
        "coordinates": [
          [
            [
              108.8,
              22.7
            ],
            [
              109.199994,
              22.7
            ],
            [
              109.199994,
              23.1
            ],
            [
              108.8,
              23.1
            ],
            [
              108.8,
              22.7
            ]
          ]
        ]
      }
    },
    {
      "type": "Feature",
      "properties": {
        "cell_id": "CEG2000_f4_r0011_c0089",
        "region_id": "广西"
      },
      "geometry": {
        "type": "Polygon",
        "coordinates": [
          [
            [
              109.2,
              22.7
            ],
            [
              109.6,
              22.7
            ],
            [
              109.6,
              23.1
            ],
            [
              109.2,
              23.1
            ],
            [
              109.2,
              22.7
            ]
          ]
        ]
      }
    },
    {
      "type": "Feature",
      "properties": {
        "cell_id": "CEG2000_f4_r0011_c0090",
        "region_id": "广西"
      },
      "geometry": {
        "type": "Polygon",
        "coordinates": [
          [
            [
              109.59999400000001,
              22.7
            ],
            [
              110.0,
              22.7
            ],
            [
              110.0,
              23.1
            ],
            [
              109.59999400000001,
              23.1
            ],
            [
              109.59999400000001,
              22.7
            ]
          ]
        ]
      }
    },
    {
      "type": "Feature",
      "properties": {
        "cell_id": "CEG2000_f4_r0011_c0091",
        "region_id": "广西"
      },
      "geometry": {
        "type": "Polygon",
        "coordinates": [
          [
            [
              110.0,
              22.7
            ],
            [
              110.40000599999999,
              22.7
            ],
            [
              110.40000599999999,
              23.1
            ],
            [
              110.0,
              23.1
            ],
            [
              110.0,
              22.7
            ]
          ]
        ]
      }
    },
    {
      "type": "Feature",
      "properties": {
        "cell_id": "CEG2000_f4_r0011_c0092",
        "region_id": "广西"
      },
      "geometry": {
        "type": "Polygon",
        "coordinates": [
          [
            [
              110.4,
              22.7
            ],
            [
              110.8,
              22.7
            ],
            [
              110.8,
              23.1
            ],
            [
              110.4,
              23.1
            ],
            [
              110.4,
              22.7
            ]
          ]
        ]
      }
    },
    {
      "type": "Feature",
      "properties": {
        "cell_id": "CEG2000_f4_r0011_c0093",
        "region_id": "广西"
      },
      "geometry": {
        "type": "Polygon",
        "coordinates": [
          [
            [
              110.800006,
              22.7
            ],
            [
              111.199994,
              22.7
            ],
            [
              111.199994,
              23.1
            ],
            [
              110.800006,
              23.1
            ],
            [
              110.800006,
              22.7
            ]
          ]
        ]
      }
    },
    {
      "type": "Feature",
      "properties": {
        "cell_id": "CEG2000_f4_r0011_c0094",
        "region_id": "广西"
      },
      "geometry": {
        "type": "Polygon",
        "coordinates": [
          [
            [
              111.2,
              22.7
            ],
            [
              111.6,
              22.7
            ],
            [
              111.6,
              23.1
            ],
            [
              111.2,
              23.1
            ],
            [
              111.2,
              22.7
            ]
          ]
        ]
      }
    },
    {
      "type": "Feature",
      "properties": {
        "cell_id": "CEG2000_f4_r0012_c0080",
        "region_id": "广西"
      },
      "geometry": {
        "type": "Polygon",
        "coordinates": [
          [
            [
              105.60000000000001,
              23.100002
            ],
            [
              106.0,
              23.100002
            ],
            [
              106.0,
              23.5
            ],
            [
              105.60000000000001,
              23.5
            ],
            [
              105.60000000000001,
              23.100002
            ]
          ]
        ]
      }
    },
    {
      "type": "Feature",
      "properties": {
        "cell_id": "CEG2000_f4_r0012_c0081",
        "region_id": "广西"
      },
      "geometry": {
        "type": "Polygon",
        "coordinates": [
          [
            [
              106.0,
              23.100002
            ],
            [
              106.39999999999999,
              23.100002
            ],
            [
              106.39999999999999,
              23.5
            ],
            [
              106.0,
              23.5
            ],
            [
              106.0,
              23.100002
            ]
          ]
        ]
      }
    },
    {
      "type": "Feature",
      "properties": {
        "cell_id": "CEG2000_f4_r0012_c0082",
        "region_id": "广西"
      },
      "geometry": {
        "type": "Polygon",
        "coordinates": [
          [
            [
              106.4,
              23.100002
            ],
            [
              106.8,
              23.100002
            ],
            [
              106.8,
              23.5
            ],
            [
              106.4,
              23.5
            ],
            [
              106.4,
              23.100002
            ]
          ]
        ]
      }
    },
    {
      "type": "Feature",
      "properties": {
        "cell_id": "CEG2000_f4_r0012_c0083",
        "region_id": "广西"
      },
      "geometry": {
        "type": "Polygon",
        "coordinates": [
          [
            [
              106.8,
              23.100002
            ],
            [
              107.2,
              23.100002
            ],
            [
              107.2,
              23.5
            ],
            [
              106.8,
              23.5
            ],
            [
              106.8,
              23.100002
            ]
          ]
        ]
      }
    },
    {
      "type": "Feature",
      "properties": {
        "cell_id": "CEG2000_f4_r0012_c0084",
        "region_id": "广西"
      },
      "geometry": {
        "type": "Polygon",
        "coordinates": [
          [
            [
              107.2,
              23.100002
            ],
            [
              107.6,
              23.100002
            ],
            [
              107.6,
              23.5
            ],
            [
              107.2,
              23.5
            ],
            [
              107.2,
              23.100002
            ]
          ]
        ]
      }
    },
    {
      "type": "Feature",
      "properties": {
        "cell_id": "CEG2000_f4_r0012_c0085",
        "region_id": "广西"
      },
      "geometry": {
        "type": "Polygon",
        "coordinates": [
          [
            [
              107.60000000000001,
              23.100002
            ],
            [
              108.0,
              23.100002
            ],
            [
              108.0,
              23.5
            ],
            [
              107.60000000000001,
              23.5
            ],
            [
              107.60000000000001,
              23.100002
            ]
          ]
        ]
      }
    },
    {
      "type": "Feature",
      "properties": {
        "cell_id": "CEG2000_f4_r0012_c0086",
        "region_id": "广西"
      },
      "geometry": {
        "type": "Polygon",
        "coordinates": [
          [
            [
              108.0,
              23.100002
            ],
            [
              108.39999999999999,
              23.100002
            ],
            [
              108.39999999999999,
              23.5
            ],
            [
              108.0,
              23.5
            ],
            [
              108.0,
              23.100002
            ]
          ]
        ]
      }
    },
    {
      "type": "Feature",
      "properties": {
        "cell_id": "CEG2000_f4_r0012_c0087",
        "region_id": "广西"
      },
      "geometry": {
        "type": "Polygon",
        "coordinates": [
          [
            [
              108.4,
              23.100002
            ],
            [
              108.8,
              23.100002
            ],
            [
              108.8,
              23.5
            ],
            [
              108.4,
              23.5
            ],
            [
              108.4,
              23.100002
            ]
          ]
        ]
      }
    },
    {
      "type": "Feature",
      "properties": {
        "cell_id": "CEG2000_f4_r0012_c0088",
        "region_id": "广西"
      },
      "geometry": {
        "type": "Polygon",
        "coordinates": [
          [
            [
              108.8,
              23.100002
            ],
            [
              109.199994,
              23.100002
            ],
            [
              109.199994,
              23.5
            ],
            [
              108.8,
              23.5
            ],
            [
              108.8,
              23.100002
            ]
          ]
        ]
      }
    },
    {
      "type": "Feature",
      "properties": {
        "cell_id": "CEG2000_f4_r0012_c0089",
        "region_id": "广西"
      },
      "geometry": {
        "type": "Polygon",
        "coordinates": [
          [
            [
              109.2,
              23.100002
            ],
            [
              109.6,
              23.100002
            ],
            [
              109.6,
              23.5
            ],
            [
              109.2,
              23.5
            ],
            [
              109.2,
              23.100002
            ]
          ]
        ]
      }
    },
    {
      "type": "Feature",
      "properties": {
        "cell_id": "CEG2000_f4_r0012_c0090",
        "region_id": "广西"
      },
      "geometry": {
        "type": "Polygon",
        "coordinates": [
          [
            [
              109.59999400000001,
              23.100002
            ],
            [
              110.0,
              23.100002
            ],
            [
              110.0,
              23.5
            ],
            [
              109.59999400000001,
              23.5
            ],
            [
              109.59999400000001,
              23.100002
            ]
          ]
        ]
      }
    },
    {
      "type": "Feature",
      "properties": {
        "cell_id": "CEG2000_f4_r0012_c0091",
        "region_id": "广西"
      },
      "geometry": {
        "type": "Polygon",
        "coordinates": [
          [
            [
              110.0,
              23.100002
            ],
            [
              110.40000599999999,
              23.100002
            ],
            [
              110.40000599999999,
              23.5
            ],
            [
              110.0,
              23.5
            ],
            [
              110.0,
              23.100002
            ]
          ]
        ]
      }
    },
    {
      "type": "Feature",
      "properties": {
        "cell_id": "CEG2000_f4_r0012_c0092",
        "region_id": "广西"
      },
      "geometry": {
        "type": "Polygon",
        "coordinates": [
          [
            [
              110.4,
              23.100002
            ],
            [
              110.8,
              23.100002
            ],
            [
              110.8,
              23.5
            ],
            [
              110.4,
              23.5
            ],
            [
              110.4,
              23.100002
            ]
          ]
        ]
      }
    },
    {
      "type": "Feature",
      "properties": {
        "cell_id": "CEG2000_f4_r0012_c0093",
        "region_id": "广西"
      },
      "geometry": {
        "type": "Polygon",
        "coordinates": [
          [
            [
              110.800006,
              23.100002
            ],
            [
              111.199994,
              23.100002
            ],
            [
              111.199994,
              23.5
            ],
            [
              110.800006,
              23.5
            ],
            [
              110.800006,
              23.100002
            ]
          ]
        ]
      }
    },
    {
      "type": "Feature",
      "properties": {
        "cell_id": "CEG2000_f4_r0012_c0094",
        "region_id": "广西"
      },
      "geometry": {
        "type": "Polygon",
        "coordinates": [
          [
            [
              111.2,
              23.100002
            ],
            [
              111.6,
              23.100002
            ],
            [
              111.6,
              23.5
            ],
            [
              111.2,
              23.5
            ],
            [
              111.2,
              23.100002
            ]
          ]
        ]
      }
    },
    {
      "type": "Feature",
      "properties": {
        "cell_id": "CEG2000_f4_r0013_c0081",
        "region_id": "广西"
      },
      "geometry": {
        "type": "Polygon",
        "coordinates": [
          [
            [
              106.0,
              23.5
            ],
            [
              106.39999999999999,
              23.5
            ],
            [
              106.39999999999999,
              23.900000000000002
            ],
            [
              106.0,
              23.900000000000002
            ],
            [
              106.0,
              23.5
            ]
          ]
        ]
      }
    },
    {
      "type": "Feature",
      "properties": {
        "cell_id": "CEG2000_f4_r0013_c0082",
        "region_id": "广西"
      },
      "geometry": {
        "type": "Polygon",
        "coordinates": [
          [
            [
              106.4,
              23.5
            ],
            [
              106.8,
              23.5
            ],
            [
              106.8,
              23.900000000000002
            ],
            [
              106.4,
              23.900000000000002
            ],
            [
              106.4,
              23.5
            ]
          ]
        ]
      }
    },
    {
      "type": "Feature",
      "properties": {
        "cell_id": "CEG2000_f4_r0013_c0083",
        "region_id": "广西"
      },
      "geometry": {
        "type": "Polygon",
        "coordinates": [
          [
            [
              106.8,
              23.5
            ],
            [
              107.2,
              23.5
            ],
            [
              107.2,
              23.900000000000002
            ],
            [
              106.8,
              23.900000000000002
            ],
            [
              106.8,
              23.5
            ]
          ]
        ]
      }
    },
    {
      "type": "Feature",
      "properties": {
        "cell_id": "CEG2000_f4_r0013_c0084",
        "region_id": "广西"
      },
      "geometry": {
        "type": "Polygon",
        "coordinates": [
          [
            [
              107.2,
              23.5
            ],
            [
              107.6,
              23.5
            ],
            [
              107.6,
              23.900000000000002
            ],
            [
              107.2,
              23.900000000000002
            ],
            [
              107.2,
              23.5
            ]
          ]
        ]
      }
    },
    {
      "type": "Feature",
      "properties": {
        "cell_id": "CEG2000_f4_r0013_c0085",
        "region_id": "广西"
      },
      "geometry": {
        "type": "Polygon",
        "coordinates": [
          [
            [
              107.60000000000001,
              23.5
            ],
            [
              108.0,
              23.5
            ],
            [
              108.0,
              23.900000000000002
            ],
            [
              107.60000000000001,
              23.900000000000002
            ],
            [
              107.60000000000001,
              23.5
            ]
          ]
        ]
      }
    },
    {
      "type": "Feature",
      "properties": {
        "cell_id": "CEG2000_f4_r0013_c0086",
        "region_id": "广西"
      },
      "geometry": {
        "type": "Polygon",
        "coordinates": [
          [
            [
              108.0,
              23.5
            ],
            [
              108.39999999999999,
              23.5
            ],
            [
              108.39999999999999,
              23.900000000000002
            ],
            [
              108.0,
              23.900000000000002
            ],
            [
              108.0,
              23.5
            ]
          ]
        ]
      }
    },
    {
      "type": "Feature",
      "properties": {
        "cell_id": "CEG2000_f4_r0013_c0087",
        "region_id": "广西"
      },
      "geometry": {
        "type": "Polygon",
        "coordinates": [
          [
            [
              108.4,
              23.5
            ],
            [
              108.8,
              23.5
            ],
            [
              108.8,
              23.900000000000002
            ],
            [
              108.4,
              23.900000000000002
            ],
            [
              108.4,
              23.5
            ]
          ]
        ]
      }
    },
    {
      "type": "Feature",
      "properties": {
        "cell_id": "CEG2000_f4_r0013_c0088",
        "region_id": "广西"
      },
      "geometry": {
        "type": "Polygon",
        "coordinates": [
          [
            [
              108.8,
              23.5
            ],
            [
              109.199994,
              23.5
            ],
            [
              109.199994,
              23.900000000000002
            ],
            [
              108.8,
              23.900000000000002
            ],
            [
              108.8,
              23.5
            ]
          ]
        ]
      }
    },
    {
      "type": "Feature",
      "properties": {
        "cell_id": "CEG2000_f4_r0013_c0089",
        "region_id": "广西"
      },
      "geometry": {
        "type": "Polygon",
        "coordinates": [
          [
            [
              109.2,
              23.5
            ],
            [
              109.6,
              23.5
            ],
            [
              109.6,
              23.900000000000002
            ],
            [
              109.2,
              23.900000000000002
            ],
            [
              109.2,
              23.5
            ]
          ]
        ]
      }
    },
    {
      "type": "Feature",
      "properties": {
        "cell_id": "CEG2000_f4_r0013_c0090",
        "region_id": "广西"
      },
      "geometry": {
        "type": "Polygon",
        "coordinates": [
          [
            [
              109.59999400000001,
              23.5
            ],
            [
              110.0,
              23.5
            ],
            [
              110.0,
              23.900000000000002
            ],
            [
              109.59999400000001,
              23.900000000000002
            ],
            [
              109.59999400000001,
              23.5
            ]
          ]
        ]
      }
    },
    {
      "type": "Feature",
      "properties": {
        "cell_id": "CEG2000_f4_r0013_c0091",
        "region_id": "广西"
      },
      "geometry": {
        "type": "Polygon",
        "coordinates": [
          [
            [
              110.0,
              23.5
            ],
            [
              110.40000599999999,
              23.5
            ],
            [
              110.40000599999999,
              23.900000000000002
            ],
            [
              110.0,
              23.900000000000002
            ],
            [
              110.0,
              23.5
            ]
          ]
        ]
      }
    },
    {
      "type": "Feature",
      "properties": {
        "cell_id": "CEG2000_f4_r0013_c0092",
        "region_id": "广西"
      },
      "geometry": {
        "type": "Polygon",
        "coordinates": [
          [
            [
              110.4,
              23.5
            ],
            [
              110.8,
              23.5
            ],
            [
              110.8,
              23.900000000000002
            ],
            [
              110.4,
              23.900000000000002
            ],
            [
              110.4,
              23.5
            ]
          ]
        ]
      }
    },
    {
      "type": "Feature",
      "properties": {
        "cell_id": "CEG2000_f4_r0013_c0093",
        "region_id": "广西"
      },
      "geometry": {
        "type": "Polygon",
        "coordinates": [
          [
            [
              110.800006,
              23.5
            ],
            [
              111.199994,
              23.5
            ],
            [
              111.199994,
              23.900000000000002
            ],
            [
              110.800006,
              23.900000000000002
            ],
            [
              110.800006,
              23.5
            ]
          ]
        ]
      }
    },
    {
      "type": "Feature",
      "properties": {
        "cell_id": "CEG2000_f4_r0013_c0094",
        "region_id": "广西"
      },
      "geometry": {
        "type": "Polygon",
        "coordinates": [
          [
            [
              111.2,
              23.5
            ],
            [
              111.6,
              23.5
            ],
            [
              111.6,
              23.900000000000002
            ],
            [
              111.2,
              23.900000000000002
            ],
            [
              111.2,
              23.5
            ]
          ]
        ]
      }
    },
    {
      "type": "Feature",
      "properties": {
        "cell_id": "CEG2000_f4_r0014_c0079",
        "region_id": "广西"
      },
      "geometry": {
        "type": "Polygon",
        "coordinates": [
          [
            [
              105.2,
              23.9
            ],
            [
              105.6,
              23.9
            ],
            [
              105.6,
              24.3
            ],
            [
              105.2,
              24.3
            ],
            [
              105.2,
              23.9
            ]
          ]
        ]
      }
    },
    {
      "type": "Feature",
      "properties": {
        "cell_id": "CEG2000_f4_r0014_c0080",
        "region_id": "广西"
      },
      "geometry": {
        "type": "Polygon",
        "coordinates": [
          [
            [
              105.60000000000001,
              23.9
            ],
            [
              106.0,
              23.9
            ],
            [
              106.0,
              24.3
            ],
            [
              105.60000000000001,
              24.3
            ],
            [
              105.60000000000001,
              23.9
            ]
          ]
        ]
      }
    },
    {
      "type": "Feature",
      "properties": {
        "cell_id": "CEG2000_f4_r0014_c0081",
        "region_id": "广西"
      },
      "geometry": {
        "type": "Polygon",
        "coordinates": [
          [
            [
              106.0,
              23.9
            ],
            [
              106.39999999999999,
              23.9
            ],
            [
              106.39999999999999,
              24.3
            ],
            [
              106.0,
              24.3
            ],
            [
              106.0,
              23.9
            ]
          ]
        ]
      }
    },
    {
      "type": "Feature",
      "properties": {
        "cell_id": "CEG2000_f4_r0014_c0082",
        "region_id": "广西"
      },
      "geometry": {
        "type": "Polygon",
        "coordinates": [
          [
            [
              106.4,
              23.9
            ],
            [
              106.8,
              23.9
            ],
            [
              106.8,
              24.3
            ],
            [
              106.4,
              24.3
            ],
            [
              106.4,
              23.9
            ]
          ]
        ]
      }
    },
    {
      "type": "Feature",
      "properties": {
        "cell_id": "CEG2000_f4_r0014_c0083",
        "region_id": "广西"
      },
      "geometry": {
        "type": "Polygon",
        "coordinates": [
          [
            [
              106.8,
              23.9
            ],
            [
              107.2,
              23.9
            ],
            [
              107.2,
              24.3
            ],
            [
              106.8,
              24.3
            ],
            [
              106.8,
              23.9
            ]
          ]
        ]
      }
    },
    {
      "type": "Feature",
      "properties": {
        "cell_id": "CEG2000_f4_r0014_c0084",
        "region_id": "广西"
      },
      "geometry": {
        "type": "Polygon",
        "coordinates": [
          [
            [
              107.2,
              23.9
            ],
            [
              107.6,
              23.9
            ],
            [
              107.6,
              24.3
            ],
            [
              107.2,
              24.3
            ],
            [
              107.2,
              23.9
            ]
          ]
        ]
      }
    },
    {
      "type": "Feature",
      "properties": {
        "cell_id": "CEG2000_f4_r0014_c0085",
        "region_id": "广西"
      },
      "geometry": {
        "type": "Polygon",
        "coordinates": [
          [
            [
              107.60000000000001,
              23.9
            ],
            [
              108.0,
              23.9
            ],
            [
              108.0,
              24.3
            ],
            [
              107.60000000000001,
              24.3
            ],
            [
              107.60000000000001,
              23.9
            ]
          ]
        ]
      }
    },
    {
      "type": "Feature",
      "properties": {
        "cell_id": "CEG2000_f4_r0014_c0086",
        "region_id": "广西"
      },
      "geometry": {
        "type": "Polygon",
        "coordinates": [
          [
            [
              108.0,
              23.9
            ],
            [
              108.39999999999999,
              23.9
            ],
            [
              108.39999999999999,
              24.3
            ],
            [
              108.0,
              24.3
            ],
            [
              108.0,
              23.9
            ]
          ]
        ]
      }
    },
    {
      "type": "Feature",
      "properties": {
        "cell_id": "CEG2000_f4_r0014_c0087",
        "region_id": "广西"
      },
      "geometry": {
        "type": "Polygon",
        "coordinates": [
          [
            [
              108.4,
              23.9
            ],
            [
              108.8,
              23.9
            ],
            [
              108.8,
              24.3
            ],
            [
              108.4,
              24.3
            ],
            [
              108.4,
              23.9
            ]
          ]
        ]
      }
    },
    {
      "type": "Feature",
      "properties": {
        "cell_id": "CEG2000_f4_r0014_c0088",
        "region_id": "广西"
      },
      "geometry": {
        "type": "Polygon",
        "coordinates": [
          [
            [
              108.8,
              23.9
            ],
            [
              109.199994,
              23.9
            ],
            [
              109.199994,
              24.3
            ],
            [
              108.8,
              24.3
            ],
            [
              108.8,
              23.9
            ]
          ]
        ]
      }
    },
    {
      "type": "Feature",
      "properties": {
        "cell_id": "CEG2000_f4_r0014_c0089",
        "region_id": "广西"
      },
      "geometry": {
        "type": "Polygon",
        "coordinates": [
          [
            [
              109.2,
              23.9
            ],
            [
              109.6,
              23.9
            ],
            [
              109.6,
              24.3
            ],
            [
              109.2,
              24.3
            ],
            [
              109.2,
              23.9
            ]
          ]
        ]
      }
    },
    {
      "type": "Feature",
      "properties": {
        "cell_id": "CEG2000_f4_r0014_c0090",
        "region_id": "广西"
      },
      "geometry": {
        "type": "Polygon",
        "coordinates": [
          [
            [
              109.59999400000001,
              23.9
            ],
            [
              110.0,
              23.9
            ],
            [
              110.0,
              24.3
            ],
            [
              109.59999400000001,
              24.3
            ],
            [
              109.59999400000001,
              23.9
            ]
          ]
        ]
      }
    },
    {
      "type": "Feature",
      "properties": {
        "cell_id": "CEG2000_f4_r0014_c0091",
        "region_id": "广西"
      },
      "geometry": {
        "type": "Polygon",
        "coordinates": [
          [
            [
              110.0,
              23.9
            ],
            [
              110.40000599999999,
              23.9
            ],
            [
              110.40000599999999,
              24.3
            ],
            [
              110.0,
              24.3
            ],
            [
              110.0,
              23.9
            ]
          ]
        ]
      }
    },
    {
      "type": "Feature",
      "properties": {
        "cell_id": "CEG2000_f4_r0014_c0092",
        "region_id": "广西"
      },
      "geometry": {
        "type": "Polygon",
        "coordinates": [
          [
            [
              110.4,
              23.9
            ],
            [
              110.8,
              23.9
            ],
            [
              110.8,
              24.3
            ],
            [
              110.4,
              24.3
            ],
            [
              110.4,
              23.9
            ]
          ]
        ]
      }
    },
    {
      "type": "Feature",
      "properties": {
        "cell_id": "CEG2000_f4_r0014_c0093",
        "region_id": "广西"
      },
      "geometry": {
        "type": "Polygon",
        "coordinates": [
          [
            [
              110.800006,
              23.9
            ],
            [
              111.199994,
              23.9
            ],
            [
              111.199994,
              24.3
            ],
            [
              110.800006,
              24.3
            ],
            [
              110.800006,
              23.9
            ]
          ]
        ]
      }
    },
    {
      "type": "Feature",
      "properties": {
        "cell_id": "CEG2000_f4_r0014_c0094",
        "region_id": "广西"
      },
      "geometry": {
        "type": "Polygon",
        "coordinates": [
          [
            [
              111.2,
              23.9
            ],
            [
              111.6,
              23.9
            ],
            [
              111.6,
              24.3
            ],
            [
              111.2,
              24.3
            ],
            [
              111.2,
              23.9
            ]
          ]
        ]
      }
    },
    {
      "type": "Feature",
      "properties": {
        "cell_id": "CEG2000_f4_r0014_c0095",
        "region_id": "广西"
      },
      "geometry": {
        "type": "Polygon",
        "coordinates": [
          [
            [
              111.59999400000001,
              23.9
            ],
            [
              112.0,
              23.9
            ],
            [
              112.0,
              24.3
            ],
            [
              111.59999400000001,
              24.3
            ],
            [
              111.59999400000001,
              23.9
            ]
          ]
        ]
      }
    },
    {
      "type": "Feature",
      "properties": {
        "cell_id": "CEG2000_f4_r0015_c0077",
        "region_id": "广西"
      },
      "geometry": {
        "type": "Polygon",
        "coordinates": [
          [
            [
              104.4,
              24.3
            ],
            [
              104.8,
              24.3
            ],
            [
              104.8,
              24.700002
            ],
            [
              104.4,
              24.700002
            ],
            [
              104.4,
              24.3
            ]
          ]
        ]
      }
    },
    {
      "type": "Feature",
      "properties": {
        "cell_id": "CEG2000_f4_r0015_c0078",
        "region_id": "广西"
      },
      "geometry": {
        "type": "Polygon",
        "coordinates": [
          [
            [
              104.8,
              24.3
            ],
            [
              105.2,
              24.3
            ],
            [
              105.2,
              24.700002
            ],
            [
              104.8,
              24.700002
            ],
            [
              104.8,
              24.3
            ]
          ]
        ]
      }
    },
    {
      "type": "Feature",
      "properties": {
        "cell_id": "CEG2000_f4_r0015_c0079",
        "region_id": "广西"
      },
      "geometry": {
        "type": "Polygon",
        "coordinates": [
          [
            [
              105.2,
              24.3
            ],
            [
              105.6,
              24.3
            ],
            [
              105.6,
              24.700002
            ],
            [
              105.2,
              24.700002
            ],
            [
              105.2,
              24.3
            ]
          ]
        ]
      }
    },
    {
      "type": "Feature",
      "properties": {
        "cell_id": "CEG2000_f4_r0015_c0080",
        "region_id": "广西"
      },
      "geometry": {
        "type": "Polygon",
        "coordinates": [
          [
            [
              105.60000000000001,
              24.3
            ],
            [
              106.0,
              24.3
            ],
            [
              106.0,
              24.700002
            ],
            [
              105.60000000000001,
              24.700002
            ],
            [
              105.60000000000001,
              24.3
            ]
          ]
        ]
      }
    },
    {
      "type": "Feature",
      "properties": {
        "cell_id": "CEG2000_f4_r0015_c0081",
        "region_id": "广西"
      },
      "geometry": {
        "type": "Polygon",
        "coordinates": [
          [
            [
              106.0,
              24.3
            ],
            [
              106.39999999999999,
              24.3
            ],
            [
              106.39999999999999,
              24.700002
            ],
            [
              106.0,
              24.700002
            ],
            [
              106.0,
              24.3
            ]
          ]
        ]
      }
    },
    {
      "type": "Feature",
      "properties": {
        "cell_id": "CEG2000_f4_r0015_c0082",
        "region_id": "广西"
      },
      "geometry": {
        "type": "Polygon",
        "coordinates": [
          [
            [
              106.4,
              24.3
            ],
            [
              106.8,
              24.3
            ],
            [
              106.8,
              24.700002
            ],
            [
              106.4,
              24.700002
            ],
            [
              106.4,
              24.3
            ]
          ]
        ]
      }
    },
    {
      "type": "Feature",
      "properties": {
        "cell_id": "CEG2000_f4_r0015_c0083",
        "region_id": "广西"
      },
      "geometry": {
        "type": "Polygon",
        "coordinates": [
          [
            [
              106.8,
              24.3
            ],
            [
              107.2,
              24.3
            ],
            [
              107.2,
              24.700002
            ],
            [
              106.8,
              24.700002
            ],
            [
              106.8,
              24.3
            ]
          ]
        ]
      }
    },
    {
      "type": "Feature",
      "properties": {
        "cell_id": "CEG2000_f4_r0015_c0084",
        "region_id": "广西"
      },
      "geometry": {
        "type": "Polygon",
        "coordinates": [
          [
            [
              107.2,
              24.3
            ],
            [
              107.6,
              24.3
            ],
            [
              107.6,
              24.700002
            ],
            [
              107.2,
              24.700002
            ],
            [
              107.2,
              24.3
            ]
          ]
        ]
      }
    },
    {
      "type": "Feature",
      "properties": {
        "cell_id": "CEG2000_f4_r0015_c0085",
        "region_id": "广西"
      },
      "geometry": {
        "type": "Polygon",
        "coordinates": [
          [
            [
              107.60000000000001,
              24.3
            ],
            [
              108.0,
              24.3
            ],
            [
              108.0,
              24.700002
            ],
            [
              107.60000000000001,
              24.700002
            ],
            [
              107.60000000000001,
              24.3
            ]
          ]
        ]
      }
    },
    {
      "type": "Feature",
      "properties": {
        "cell_id": "CEG2000_f4_r0015_c0086",
        "region_id": "广西"
      },
      "geometry": {
        "type": "Polygon",
        "coordinates": [
          [
            [
              108.0,
              24.3
            ],
            [
              108.39999999999999,
              24.3
            ],
            [
              108.39999999999999,
              24.700002
            ],
            [
              108.0,
              24.700002
            ],
            [
              108.0,
              24.3
            ]
          ]
        ]
      }
    },
    {
      "type": "Feature",
      "properties": {
        "cell_id": "CEG2000_f4_r0015_c0087",
        "region_id": "广西"
      },
      "geometry": {
        "type": "Polygon",
        "coordinates": [
          [
            [
              108.4,
              24.3
            ],
            [
              108.8,
              24.3
            ],
            [
              108.8,
              24.700002
            ],
            [
              108.4,
              24.700002
            ],
            [
              108.4,
              24.3
            ]
          ]
        ]
      }
    },
    {
      "type": "Feature",
      "properties": {
        "cell_id": "CEG2000_f4_r0015_c0088",
        "region_id": "广西"
      },
      "geometry": {
        "type": "Polygon",
        "coordinates": [
          [
            [
              108.8,
              24.3
            ],
            [
              109.199994,
              24.3
            ],
            [
              109.199994,
              24.700002
            ],
            [
              108.8,
              24.700002
            ],
            [
              108.8,
              24.3
            ]
          ]
        ]
      }
    },
    {
      "type": "Feature",
      "properties": {
        "cell_id": "CEG2000_f4_r0015_c0089",
        "region_id": "广西"
      },
      "geometry": {
        "type": "Polygon",
        "coordinates": [
          [
            [
              109.2,
              24.3
            ],
            [
              109.6,
              24.3
            ],
            [
              109.6,
              24.700002
            ],
            [
              109.2,
              24.700002
            ],
            [
              109.2,
              24.3
            ]
          ]
        ]
      }
    },
    {
      "type": "Feature",
      "properties": {
        "cell_id": "CEG2000_f4_r0015_c0090",
        "region_id": "广西"
      },
      "geometry": {
        "type": "Polygon",
        "coordinates": [
          [
            [
              109.59999400000001,
              24.3
            ],
            [
              110.0,
              24.3
            ],
            [
              110.0,
              24.700002
            ],
            [
              109.59999400000001,
              24.700002
            ],
            [
              109.59999400000001,
              24.3
            ]
          ]
        ]
      }
    },
    {
      "type": "Feature",
      "properties": {
        "cell_id": "CEG2000_f4_r0015_c0091",
        "region_id": "广西"
      },
      "geometry": {
        "type": "Polygon",
        "coordinates": [
          [
            [
              110.0,
              24.3
            ],
            [
              110.40000599999999,
              24.3
            ],
            [
              110.40000599999999,
              24.700002
            ],
            [
              110.0,
              24.700002
            ],
            [
              110.0,
              24.3
            ]
          ]
        ]
      }
    },
    {
      "type": "Feature",
      "properties": {
        "cell_id": "CEG2000_f4_r0015_c0092",
        "region_id": "广西"
      },
      "geometry": {
        "type": "Polygon",
        "coordinates": [
          [
            [
              110.4,
              24.3
            ],
            [
              110.8,
              24.3
            ],
            [
              110.8,
              24.700002
            ],
            [
              110.4,
              24.700002
            ],
            [
              110.4,
              24.3
            ]
          ]
        ]
      }
    },
    {
      "type": "Feature",
      "properties": {
        "cell_id": "CEG2000_f4_r0015_c0093",
        "region_id": "广西"
      },
      "geometry": {
        "type": "Polygon",
        "coordinates": [
          [
            [
              110.800006,
              24.3
            ],
            [
              111.199994,
              24.3
            ],
            [
              111.199994,
              24.700002
            ],
            [
              110.800006,
              24.700002
            ],
            [
              110.800006,
              24.3
            ]
          ]
        ]
      }
    },
    {
      "type": "Feature",
      "properties": {
        "cell_id": "CEG2000_f4_r0015_c0094",
        "region_id": "广西"
      },
      "geometry": {
        "type": "Polygon",
        "coordinates": [
          [
            [
              111.2,
              24.3
            ],
            [
              111.6,
              24.3
            ],
            [
              111.6,
              24.700002
            ],
            [
              111.2,
              24.700002
            ],
            [
              111.2,
              24.3
            ]
          ]
        ]
      }
    },
    {
      "type": "Feature",
      "properties": {
        "cell_id": "CEG2000_f4_r0015_c0095",
        "region_id": "广西"
      },
      "geometry": {
        "type": "Polygon",
        "coordinates": [
          [
            [
              111.59999400000001,
              24.3
            ],
            [
              112.0,
              24.3
            ],
            [
              112.0,
              24.700002
            ],
            [
              111.59999400000001,
              24.700002
            ],
            [
              111.59999400000001,
              24.3
            ]
          ]
        ]
      }
    },
    {
      "type": "Feature",
      "properties": {
        "cell_id": "CEG2000_f4_r0016_c0078",
        "region_id": "广西"
      },
      "geometry": {
        "type": "Polygon",
        "coordinates": [
          [
            [
              104.8,
              24.7
            ],
            [
              105.2,
              24.7
            ],
            [
              105.2,
              25.1
            ],
            [
              104.8,
              25.1
            ],
            [
              104.8,
              24.7
            ]
          ]
        ]
      }
    },
    {
      "type": "Feature",
      "properties": {
        "cell_id": "CEG2000_f4_r0016_c0079",
        "region_id": "广西"
      },
      "geometry": {
        "type": "Polygon",
        "coordinates": [
          [
            [
              105.2,
              24.7
            ],
            [
              105.6,
              24.7
            ],
            [
              105.6,
              25.1
            ],
            [
              105.2,
              25.1
            ],
            [
              105.2,
              24.7
            ]
          ]
        ]
      }
    },
    {
      "type": "Feature",
      "properties": {
        "cell_id": "CEG2000_f4_r0016_c0081",
        "region_id": "广西"
      },
      "geometry": {
        "type": "Polygon",
        "coordinates": [
          [
            [
              106.0,
              24.7
            ],
            [
              106.39999999999999,
              24.7
            ],
            [
              106.39999999999999,
              25.1
            ],
            [
              106.0,
              25.1
            ],
            [
              106.0,
              24.7
            ]
          ]
        ]
      }
    },
    {
      "type": "Feature",
      "properties": {
        "cell_id": "CEG2000_f4_r0016_c0082",
        "region_id": "广西"
      },
      "geometry": {
        "type": "Polygon",
        "coordinates": [
          [
            [
              106.4,
              24.7
            ],
            [
              106.8,
              24.7
            ],
            [
              106.8,
              25.1
            ],
            [
              106.4,
              25.1
            ],
            [
              106.4,
              24.7
            ]
          ]
        ]
      }
    },
    {
      "type": "Feature",
      "properties": {
        "cell_id": "CEG2000_f4_r0016_c0083",
        "region_id": "广西"
      },
      "geometry": {
        "type": "Polygon",
        "coordinates": [
          [
            [
              106.8,
              24.7
            ],
            [
              107.2,
              24.7
            ],
            [
              107.2,
              25.1
            ],
            [
              106.8,
              25.1
            ],
            [
              106.8,
              24.7
            ]
          ]
        ]
      }
    },
    {
      "type": "Feature",
      "properties": {
        "cell_id": "CEG2000_f4_r0016_c0084",
        "region_id": "广西"
      },
      "geometry": {
        "type": "Polygon",
        "coordinates": [
          [
            [
              107.2,
              24.7
            ],
            [
              107.6,
              24.7
            ],
            [
              107.6,
              25.1
            ],
            [
              107.2,
              25.1
            ],
            [
              107.2,
              24.7
            ]
          ]
        ]
      }
    },
    {
      "type": "Feature",
      "properties": {
        "cell_id": "CEG2000_f4_r0016_c0085",
        "region_id": "广西"
      },
      "geometry": {
        "type": "Polygon",
        "coordinates": [
          [
            [
              107.60000000000001,
              24.7
            ],
            [
              108.0,
              24.7
            ],
            [
              108.0,
              25.1
            ],
            [
              107.60000000000001,
              25.1
            ],
            [
              107.60000000000001,
              24.7
            ]
          ]
        ]
      }
    },
    {
      "type": "Feature",
      "properties": {
        "cell_id": "CEG2000_f4_r0016_c0086",
        "region_id": "广西"
      },
      "geometry": {
        "type": "Polygon",
        "coordinates": [
          [
            [
              108.0,
              24.7
            ],
            [
              108.39999999999999,
              24.7
            ],
            [
              108.39999999999999,
              25.1
            ],
            [
              108.0,
              25.1
            ],
            [
              108.0,
              24.7
            ]
          ]
        ]
      }
    },
    {
      "type": "Feature",
      "properties": {
        "cell_id": "CEG2000_f4_r0016_c0087",
        "region_id": "广西"
      },
      "geometry": {
        "type": "Polygon",
        "coordinates": [
          [
            [
              108.4,
              24.7
            ],
            [
              108.8,
              24.7
            ],
            [
              108.8,
              25.1
            ],
            [
              108.4,
              25.1
            ],
            [
              108.4,
              24.7
            ]
          ]
        ]
      }
    },
    {
      "type": "Feature",
      "properties": {
        "cell_id": "CEG2000_f4_r0016_c0088",
        "region_id": "广西"
      },
      "geometry": {
        "type": "Polygon",
        "coordinates": [
          [
            [
              108.8,
              24.7
            ],
            [
              109.199994,
              24.7
            ],
            [
              109.199994,
              25.1
            ],
            [
              108.8,
              25.1
            ],
            [
              108.8,
              24.7
            ]
          ]
        ]
      }
    },
    {
      "type": "Feature",
      "properties": {
        "cell_id": "CEG2000_f4_r0016_c0089",
        "region_id": "广西"
      },
      "geometry": {
        "type": "Polygon",
        "coordinates": [
          [
            [
              109.2,
              24.7
            ],
            [
              109.6,
              24.7
            ],
            [
              109.6,
              25.1
            ],
            [
              109.2,
              25.1
            ],
            [
              109.2,
              24.7
            ]
          ]
        ]
      }
    },
    {
      "type": "Feature",
      "properties": {
        "cell_id": "CEG2000_f4_r0016_c0090",
        "region_id": "广西"
      },
      "geometry": {
        "type": "Polygon",
        "coordinates": [
          [
            [
              109.59999400000001,
              24.7
            ],
            [
              110.0,
              24.7
            ],
            [
              110.0,
              25.1
            ],
            [
              109.59999400000001,
              25.1
            ],
            [
              109.59999400000001,
              24.7
            ]
          ]
        ]
      }
    },
    {
      "type": "Feature",
      "properties": {
        "cell_id": "CEG2000_f4_r0016_c0091",
        "region_id": "广西"
      },
      "geometry": {
        "type": "Polygon",
        "coordinates": [
          [
            [
              110.0,
              24.7
            ],
            [
              110.40000599999999,
              24.7
            ],
            [
              110.40000599999999,
              25.1
            ],
            [
              110.0,
              25.1
            ],
            [
              110.0,
              24.7
            ]
          ]
        ]
      }
    },
    {
      "type": "Feature",
      "properties": {
        "cell_id": "CEG2000_f4_r0016_c0092",
        "region_id": "广西"
      },
      "geometry": {
        "type": "Polygon",
        "coordinates": [
          [
            [
              110.4,
              24.7
            ],
            [
              110.8,
              24.7
            ],
            [
              110.8,
              25.1
            ],
            [
              110.4,
              25.1
            ],
            [
              110.4,
              24.7
            ]
          ]
        ]
      }
    },
    {
      "type": "Feature",
      "properties": {
        "cell_id": "CEG2000_f4_r0016_c0093",
        "region_id": "广西"
      },
      "geometry": {
        "type": "Polygon",
        "coordinates": [
          [
            [
              110.800006,
              24.7
            ],
            [
              111.199994,
              24.7
            ],
            [
              111.199994,
              25.1
            ],
            [
              110.800006,
              25.1
            ],
            [
              110.800006,
              24.7
            ]
          ]
        ]
      }
    },
    {
      "type": "Feature",
      "properties": {
        "cell_id": "CEG2000_f4_r0016_c0094",
        "region_id": "广西"
      },
      "geometry": {
        "type": "Polygon",
        "coordinates": [
          [
            [
              111.2,
              24.7
            ],
            [
              111.6,
              24.7
            ],
            [
              111.6,
              25.1
            ],
            [
              111.2,
              25.1
            ],
            [
              111.2,
              24.7
            ]
          ]
        ]
      }
    },
    {
      "type": "Feature",
      "properties": {
        "cell_id": "CEG2000_f4_r0017_c0083",
        "region_id": "广西"
      },
      "geometry": {
        "type": "Polygon",
        "coordinates": [
          [
            [
              106.8,
              25.100002
            ],
            [
              107.2,
              25.100002
            ],
            [
              107.2,
              25.5
            ],
            [
              106.8,
              25.5
            ],
            [
              106.8,
              25.100002
            ]
          ]
        ]
      }
    },
    {
      "type": "Feature",
      "properties": {
        "cell_id": "CEG2000_f4_r0017_c0084",
        "region_id": "广西"
      },
      "geometry": {
        "type": "Polygon",
        "coordinates": [
          [
            [
              107.2,
              25.100002
            ],
            [
              107.6,
              25.100002
            ],
            [
              107.6,
              25.5
            ],
            [
              107.2,
              25.5
            ],
            [
              107.2,
              25.100002
            ]
          ]
        ]
      }
    },
    {
      "type": "Feature",
      "properties": {
        "cell_id": "CEG2000_f4_r0017_c0086",
        "region_id": "广西"
      },
      "geometry": {
        "type": "Polygon",
        "coordinates": [
          [
            [
              108.0,
              25.100002
            ],
            [
              108.39999999999999,
              25.100002
            ],
            [
              108.39999999999999,
              25.5
            ],
            [
              108.0,
              25.5
            ],
            [
              108.0,
              25.100002
            ]
          ]
        ]
      }
    },
    {
      "type": "Feature",
      "properties": {
        "cell_id": "CEG2000_f4_r0017_c0087",
        "region_id": "广西"
      },
      "geometry": {
        "type": "Polygon",
        "coordinates": [
          [
            [
              108.4,
              25.100002
            ],
            [
              108.8,
              25.100002
            ],
            [
              108.8,
              25.5
            ],
            [
              108.4,
              25.5
            ],
            [
              108.4,
              25.100002
            ]
          ]
        ]
      }
    },
    {
      "type": "Feature",
      "properties": {
        "cell_id": "CEG2000_f4_r0017_c0088",
        "region_id": "广西"
      },
      "geometry": {
        "type": "Polygon",
        "coordinates": [
          [
            [
              108.8,
              25.100002
            ],
            [
              109.199994,
              25.100002
            ],
            [
              109.199994,
              25.5
            ],
            [
              108.8,
              25.5
            ],
            [
              108.8,
              25.100002
            ]
          ]
        ]
      }
    },
    {
      "type": "Feature",
      "properties": {
        "cell_id": "CEG2000_f4_r0017_c0089",
        "region_id": "广西"
      },
      "geometry": {
        "type": "Polygon",
        "coordinates": [
          [
            [
              109.2,
              25.100002
            ],
            [
              109.6,
              25.100002
            ],
            [
              109.6,
              25.5
            ],
            [
              109.2,
              25.5
            ],
            [
              109.2,
              25.100002
            ]
          ]
        ]
      }
    },
    {
      "type": "Feature",
      "properties": {
        "cell_id": "CEG2000_f4_r0017_c0090",
        "region_id": "广西"
      },
      "geometry": {
        "type": "Polygon",
        "coordinates": [
          [
            [
              109.59999400000001,
              25.100002
            ],
            [
              110.0,
              25.100002
            ],
            [
              110.0,
              25.5
            ],
            [
              109.59999400000001,
              25.5
            ],
            [
              109.59999400000001,
              25.100002
            ]
          ]
        ]
      }
    },
    {
      "type": "Feature",
      "properties": {
        "cell_id": "CEG2000_f4_r0017_c0091",
        "region_id": "广西"
      },
      "geometry": {
        "type": "Polygon",
        "coordinates": [
          [
            [
              110.0,
              25.100002
            ],
            [
              110.40000599999999,
              25.100002
            ],
            [
              110.40000599999999,
              25.5
            ],
            [
              110.0,
              25.5
            ],
            [
              110.0,
              25.100002
            ]
          ]
        ]
      }
    },
    {
      "type": "Feature",
      "properties": {
        "cell_id": "CEG2000_f4_r0017_c0092",
        "region_id": "广西"
      },
      "geometry": {
        "type": "Polygon",
        "coordinates": [
          [
            [
              110.4,
              25.100002
            ],
            [
              110.8,
              25.100002
            ],
            [
              110.8,
              25.5
            ],
            [
              110.4,
              25.5
            ],
            [
              110.4,
              25.100002
            ]
          ]
        ]
      }
    },
    {
      "type": "Feature",
      "properties": {
        "cell_id": "CEG2000_f4_r0017_c0093",
        "region_id": "广西"
      },
      "geometry": {
        "type": "Polygon",
        "coordinates": [
          [
            [
              110.800006,
              25.100002
            ],
            [
              111.199994,
              25.100002
            ],
            [
              111.199994,
              25.5
            ],
            [
              110.800006,
              25.5
            ],
            [
              110.800006,
              25.100002
            ]
          ]
        ]
      }
    },
    {
      "type": "Feature",
      "properties": {
        "cell_id": "CEG2000_f4_r0018_c0088",
        "region_id": "广西"
      },
      "geometry": {
        "type": "Polygon",
        "coordinates": [
          [
            [
              108.8,
              25.5
            ],
            [
              109.199994,
              25.5
            ],
            [
              109.199994,
              25.900000000000002
            ],
            [
              108.8,
              25.900000000000002
            ],
            [
              108.8,
              25.5
            ]
          ]
        ]
      }
    },
    {
      "type": "Feature",
      "properties": {
        "cell_id": "CEG2000_f4_r0018_c0089",
        "region_id": "广西"
      },
      "geometry": {
        "type": "Polygon",
        "coordinates": [
          [
            [
              109.2,
              25.5
            ],
            [
              109.6,
              25.5
            ],
            [
              109.6,
              25.900000000000002
            ],
            [
              109.2,
              25.900000000000002
            ],
            [
              109.2,
              25.5
            ]
          ]
        ]
      }
    },
    {
      "type": "Feature",
      "properties": {
        "cell_id": "CEG2000_f4_r0018_c0090",
        "region_id": "广西"
      },
      "geometry": {
        "type": "Polygon",
        "coordinates": [
          [
            [
              109.59999400000001,
              25.5
            ],
            [
              110.0,
              25.5
            ],
            [
              110.0,
              25.900000000000002
            ],
            [
              109.59999400000001,
              25.900000000000002
            ],
            [
              109.59999400000001,
              25.5
            ]
          ]
        ]
      }
    },
    {
      "type": "Feature",
      "properties": {
        "cell_id": "CEG2000_f4_r0018_c0091",
        "region_id": "广西"
      },
      "geometry": {
        "type": "Polygon",
        "coordinates": [
          [
            [
              110.0,
              25.5
            ],
            [
              110.40000599999999,
              25.5
            ],
            [
              110.40000599999999,
              25.900000000000002
            ],
            [
              110.0,
              25.900000000000002
            ],
            [
              110.0,
              25.5
            ]
          ]
        ]
      }
    },
    {
      "type": "Feature",
      "properties": {
        "cell_id": "CEG2000_f4_r0018_c0092",
        "region_id": "广西"
      },
      "geometry": {
        "type": "Polygon",
        "coordinates": [
          [
            [
              110.4,
              25.5
            ],
            [
              110.8,
              25.5
            ],
            [
              110.8,
              25.900000000000002
            ],
            [
              110.4,
              25.900000000000002
            ],
            [
              110.4,
              25.5
            ]
          ]
        ]
      }
    },
    {
      "type": "Feature",
      "properties": {
        "cell_id": "CEG2000_f4_r0018_c0093",
        "region_id": "广西"
      },
      "geometry": {
        "type": "Polygon",
        "coordinates": [
          [
            [
              110.800006,
              25.5
            ],
            [
              111.199994,
              25.5
            ],
            [
              111.199994,
              25.900000000000002
            ],
            [
              110.800006,
              25.900000000000002
            ],
            [
              110.800006,
              25.5
            ]
          ]
        ]
      }
    },
    {
      "type": "Feature",
      "properties": {
        "cell_id": "CEG2000_f4_r0018_c0094",
        "region_id": "广西"
      },
      "geometry": {
        "type": "Polygon",
        "coordinates": [
          [
            [
              111.2,
              25.5
            ],
            [
              111.6,
              25.5
            ],
            [
              111.6,
              25.900000000000002
            ],
            [
              111.2,
              25.900000000000002
            ],
            [
              111.2,
              25.5
            ]
          ]
        ]
      }
    },
    {
      "type": "Feature",
      "properties": {
        "cell_id": "CEG2000_f4_r0019_c0090",
        "region_id": "广西"
      },
      "geometry": {
        "type": "Polygon",
        "coordinates": [
          [
            [
              109.59999400000001,
              25.9
            ],
            [
              110.0,
              25.9
            ],
            [
              110.0,
              26.3
            ],
            [
              109.59999400000001,
              26.3
            ],
            [
              109.59999400000001,
              25.9
            ]
          ]
        ]
      }
    },
    {
      "type": "Feature",
      "properties": {
        "cell_id": "CEG2000_f4_r0019_c0091",
        "region_id": "广西"
      },
      "geometry": {
        "type": "Polygon",
        "coordinates": [
          [
            [
              110.0,
              25.9
            ],
            [
              110.40000599999999,
              25.9
            ],
            [
              110.40000599999999,
              26.3
            ],
            [
              110.0,
              26.3
            ],
            [
              110.0,
              25.9
            ]
          ]
        ]
      }
    },
    {
      "type": "Feature",
      "properties": {
        "cell_id": "CEG2000_f4_r0019_c0092",
        "region_id": "广西"
      },
      "geometry": {
        "type": "Polygon",
        "coordinates": [
          [
            [
              110.4,
              25.9
            ],
            [
              110.8,
              25.9
            ],
            [
              110.8,
              26.3
            ],
            [
              110.4,
              26.3
            ],
            [
              110.4,
              25.9
            ]
          ]
        ]
      }
    },
    {
      "type": "Feature",
      "properties": {
        "cell_id": "CEG2000_f4_r0019_c0093",
        "region_id": "广西"
      },
      "geometry": {
        "type": "Polygon",
        "coordinates": [
          [
            [
              110.800006,
              25.9
            ],
            [
              111.199994,
              25.9
            ],
            [
              111.199994,
              26.3
            ],
            [
              110.800006,
              26.3
            ],
            [
              110.800006,
              25.9
            ]
          ]
        ]
      }
    },
    {
      "type": "Feature",
      "properties": {
        "cell_id": "CEG2000_f4_r0019_c0094",
        "region_id": "广西"
      },
      "geometry": {
        "type": "Polygon",
        "coordinates": [
          [
            [
              111.2,
              25.9
            ],
            [
              111.6,
              25.9
            ],
            [
              111.6,
              26.3
            ],
            [
              111.2,
              26.3
            ],
            [
              111.2,
              25.9
            ]
          ]
        ]
      }
    }
  ]
}