{
  "type": "FeatureCollection",
  "features": [
    {
      "type": "Feature",
      "properties": {
        "cell_id": "CEG2000_f4_r0016_c0094",
        "region_id": "湖南"
      },
      "geometry": {
        "type": "Polygon",
        "coordinates": [
          [
            [
              111.2,
              24.7
            ],
            [
              111.6,
              24.7
            ],
            [
              111.6,
              25.1
            ],
            [
              111.2,
              25.1
            ],
            [
              111.2,
              24.7
            ]
          ]
        ]
      }
    },
    {
      "type": "Feature",
      "properties": {
        "cell_id": "CEG2000_f4_r0016_c0095",
        "region_id": "湖南"
      },
      "geometry": {
        "type": "Polygon",
        "coordinates": [
          [
            [
              111.59999400000001,
              24.7
            ],
            [
              112.0,
              24.7
            ],
            [
              112.0,
              25.1
            ],
            [
              111.59999400000001,
              25.1
            ],
            [
              111.59999400000001,
              24.7
            ]
          ]
        ]
      }
    },
    {
      "type": "Feature",
      "properties": {
        "cell_id": "CEG2000_f4_r0016_c0096",
        "region_id": "湖南"
      },
      "geometry": {
        "type": "Polygon",
        "coordinates": [
          [
            [
              112.0,
              24.7
            ],
            [
              112.40000599999999,
              24.7
            ],
            [
              112.40000599999999,
              25.1
            ],
            [
              112.0,
              25.1
            ],
            [
              112.0,
              24.7
            ]
          ]
        ]
      }
    },
    {
      "type": "Feature",
      "properties": {
        "cell_id": "CEG2000_f4_r0016_c0098",
        "region_id": "湖南"
      },
      "geometry": {
        "type": "Polygon",
        "coordinates": [
          [
            [
              112.800006,
              24.7
            ],
            [
              113.199994,
              24.7
            ],
            [
              113.199994,
              25.1
            ],
            [
              112.800006,
              25.1
            ],
            [
              112.800006,
              24.7
            ]
          ]
        ]
      }
    },
    {
      "type": "Feature",
      "properties": {
        "cell_id": "CEG2000_f4_r0017_c0094",
        "region_id": "湖南"
      },
      "geometry": {
        "type": "Polygon",
        "coordinates": [
          [
            [
              111.2,
              25.100002
            ],
            [
              111.6,
              25.100002
            ],
            [
              111.6,
              25.5
            ],
            [
              111.2,
              25.5
            ],
            [
              111.2,
              25.100002
            ]
          ]
        ]
      }
    },
    {
      "type": "Feature",
      "properties": {
        "cell_id": "CEG2000_f4_r0017_c0095",
        "region_id": "湖南"
      },
      "geometry": {
        "type": "Polygon",
        "coordinates": [
          [
            [
              111.59999400000001,
              25.100002
            ],
            [
              112.0,
              25.100002
            ],
            [
              112.0,
              25.5
            ],
            [
              111.59999400000001,
              25.5
            ],
            [
              111.59999400000001,
              25.100002
            ]
          ]
        ]
      }
    },
    {
      "type": "Feature",
      "properties": {
        "cell_id": "CEG2000_f4_r0017_c0096",
        "region_id": "湖南"
      },
      "geometry": {
        "type": "Polygon",
        "coordinates": [
          [
            [
              112.0,
              25.100002
            ],
            [
              112.40000599999999,
              25.100002
            ],
            [
              112.40000599999999,
              25.5
            ],
            [
              112.0,
              25.5
            ],
            [
              112.0,
              25.100002
            ]
          ]
        ]
      }
    },
    {
      "type": "Feature",
      "properties": {
        "cell_id": "CEG2000_f4_r0017_c0097",
        "region_id": "湖南"
      },
      "geometry": {
        "type": "Polygon",
        "coordinates": [
          [
            [
              112.4,
              25.100002
            ],
            [
              112.8,
              25.100002
            ],
            [
              112.8,
              25.5
            ],
            [
              112.4,
              25.5
            ],
            [
              112.4,
              25.100002
            ]
          ]
        ]
      }
    },
    {
      "type": "Feature",
      "properties": {
        "cell_id": "CEG2000_f4_r0017_c0098",
        "region_id": "湖南"
      },
      "geometry": {
        "type": "Polygon",
        "coordinates": [
          [
            [
              112.800006,
              25.100002
            ],
            [
              113.199994,
              25.100002
            ],
            [
              113.199994,
              25.5
            ],
            [
              112.800006,
              25.5
            ],
            [
              112.800006,
              25.100002
            ]
          ]
        ]
      }
    },
    {
      "type": "Feature",
      "properties": {
        "cell_id": "CEG2000_f4_r0017_c0100",
        "region_id": "湖南"
      },
      "geometry": {
        "type": "Polygon",
        "coordinates": [
          [
            [
              113.59999400000001,
              25.100002
            ],
            [
              114.0,
              25.100002
            ],
            [
              114.0,
              25.5
            ],
            [
              113.59999400000001,
              25.5
            ],
            [
              113.59999400000001,
              25.100002
            ]
          ]
        ]
      }
    },
    {
      "type": "Feature",
      "properties": {
        "cell_id": "CEG2000_f4_r0018_c0094",
        "region_id": "湖南"
      },
      "geometry": {
        "type": "Polygon",
        "coordinates": [
          [
            [
              111.2,
              25.5
            ],
            [
              111.6,
              25.5
            ],
            [
              111.6,
              25.900000000000002
            ],
            [
              111.2,
              25.900000000000002
            ],
            [
              111.2,
              25.5
            ]
          ]
        ]
      }
    },
    {
      "type": "Feature",
      "properties": {
        "cell_id": "CEG2000_f4_r0018_c0095",
        "region_id": "湖南"
      },
      "geometry": {
        "type": "Polygon",
        "coordinates": [
          [
            [
              111.59999400000001,
              25.5
            ],
            [
              112.0,
              25.5
            ],
            [
              112.0,
              25.900000000000002
            ],
            [
              111.59999400000001,
              25.900000000000002
            ],
            [
              111.59999400000001,
              25.5
            ]
          ]
        ]
      }
    },
    {
      "type": "Feature",
      "properties": {
        "cell_id": "CEG2000_f4_r0018_c0096",
        "region_id": "湖南"
      },
      "geometry": {
        "type": "Polygon",
        "coordinates": [
          [
            [
              112.0,
              25.5
            ],
            [
              112.40000599999999,
              25.5
            ],
            [
              112.40000599999999,
              25.900000000000002
            ],
            [
              112.0,
              25.900000000000002
            ],
            [
              112.0,
              25.5
            ]
          ]
        ]
      }
    },
    {
      "type": "Feature",
      "properties": {
        "cell_id": "CEG2000_f4_r0018_c0097",
        "region_id": "湖南"
      },
      "geometry": {
        "type": "Polygon",
        "coordinates": [
          [
            [
              112.4,
              25.5
            ],
            [
              112.8,
              25.5
            ],
            [
              112.8,
              25.900000000000002
            ],
            [
              112.4,
              25.900000000000002
            ],
            [
              112.4,
              25.5
            ]
          ]
        ]
      }
    },
    {
      "type": "Feature",
      "properties": {
        "cell_id": "CEG2000_f4_r0018_c0098",
        "region_id": "湖南"
      },
      "geometry": {
        "type": "Polygon",
        "coordinates": [
          [
            [
              112.800006,
              25.5
            ],
            [
              113.199994,
              25.5
            ],
            [
              113.199994,
              25.900000000000002
            ],
            [
              112.800006,
              25.900000000000002
            ],
            [
              112.800006,
              25.5
            ]
          ]
        ]
      }
    },
    {
      "type": "Feature",
      "properties": {
        "cell_id": "CEG2000_f4_r0018_c0099",
        "region_id": "湖南"
      },
      "geometry": {
        "type": "Polygon",
        "coordinates": [
          [
            [
              113.2,
              25.5
            ],
            [
              113.6,
              25.5
            ],
            [
              113.6,
              25.900000000000002
            ],
            [
              113.2,
              25.900000000000002
            ],
            [
              113.2,
              25.5
            ]
          ]
        ]
      }
    },
    {
      "type": "Feature",
      "properties": {
        "cell_id": "CEG2000_f4_r0018_c0100",
        "region_id": "湖南"
      },
      "geometry": {
        "type": "Polygon",
        "coordinates": [
          [
            [
              113.59999400000001,
              25.5
            ],
            [
              114.0,
              25.5
            ],
            [
              114.0,
              25.900000000000002
            ],
            [
              113.59999400000001,
              25.900000000000002
            ],
            [
              113.59999400000001,
              25.5
            ]
          ]
        ]
      }
    },
    {
      "type": "Feature",
      "properties": {
        "cell_id": "CEG2000_f4_r0019_c0089",
        "region_id": "湖南"
      },
      "geometry": {
        "type": "Polygon",
        "coordinates": [
          [
            [
              109.2,
              25.9
            ],
            [
              109.6,
              25.9
            ],
            [
              109.6,
              26.3
            ],
            [
              109.2,
              26.3
            ],
            [
              109.2,
              25.9
            ]
          ]
        ]
      }
    },
    {
      "type": "Feature",
      "properties": {
        "cell_id": "CEG2000_f4_r0019_c0090",
        "region_id": "湖南"
      },
      "geometry": {
        "type": "Polygon",
        "coordinates": [
          [
            [
              109.59999400000001,
              25.9
            ],
            [
              110.0,
              25.9
            ],
            [
              110.0,
              26.3
            ],
            [
              109.59999400000001,
              26.3
            ],
            [
              109.59999400000001,
              25.9
            ]
          ]
        ]
      }
    },
    {
      "type": "Feature",
      "properties": {
        "cell_id": "CEG2000_f4_r0019_c0091",
        "region_id": "湖南"
      },
      "geometry": {
        "type": "Polygon",
        "coordinates": [
          [
            [
              110.0,
              25.9
            ],
            [
              110.40000599999999,
              25.9
            ],
            [
              110.40000599999999,
              26.3
            ],
            [
              110.0,
              26.3
            ],
            [
              110.0,
              25.9
            ]
          ]
        ]
      }
    },
    {
      "type": "Feature",
      "properties": {
        "cell_id": "CEG2000_f4_r0019_c0094",
        "region_id": "湖南"
      },
      "geometry": {
        "type": "Polygon",
        "coordinates": [
          [
            [
              111.2,
              25.9
            ],
            [
              111.6,
              25.9
            ],
            [
              111.6,
              26.3
            ],
            [
              111.2,
              26.3
            ],
            [
              111.2,
              25.9
            ]
          ]
        ]
      }
    },
    {
      "type": "Feature",
      "properties": {
        "cell_id": "CEG2000_f4_r0019_c0095",
        "region_id": "湖南"
      },
      "geometry": {
        "type": "Polygon",
        "coordinates": [
          [
            [
              111.59999400000001,
              25.9
            ],
            [
              112.0,
              25.9
            ],
            [
              112.0,
              26.3
            ],
            [
              111.59999400000001,
              26.3
            ],
            [
              111.59999400000001,
              25.9
            ]
          ]
        ]
      }
    },
    {
      "type": "Feature",
      "properties": {
        "cell_id": "CEG2000_f4_r0019_c0096",
        "region_id": "湖南"
      },
      "geometry": {
        "type": "Polygon",
        "coordinates": [
          [
            [
              112.0,
              25.9
            ],
            [
              112.40000599999999,
              25.9
            ],
            [
              112.40000599999999,
              26.3
            ],
            [
              112.0,
              26.3
            ],
            [
              112.0,
              25.9
            ]
          ]
        ]
      }
    },
    {
      "type": "Feature",
      "properties": {
        "cell_id": "CEG2000_f4_r0019_c0097",
        "region_id": "湖南"
      },
      "geometry": {
        "type": "Polygon",
        "coordinates": [
          [
            [
              112.4,
              25.9
            ],
            [
              112.8,
              25.9
            ],
            [
              112.8,
              26.3
            ],
            [
              112.4,
              26.3
            ],
            [
              112.4,
              25.9
            ]
          ]
        ]
      }
    },
    {
      "type": "Feature",
      "properties": {
        "cell_id": "CEG2000_f4_r0019_c0098",
        "region_id": "湖南"
      },
      "geometry": {
        "type": "Polygon",
        "coordinates": [
          [
            [
              112.800006,
              25.9
            ],
            [
              113.199994,
              25.9
            ],
            [
              113.199994,
              26.3
            ],
            [
              112.800006,
              26.3
            ],
            [
              112.800006,
              25.9
            ]
          ]
        ]
      }
    },
    {
      "type": "Feature",
      "properties": {
        "cell_id": "CEG2000_f4_r0019_c0099",
        "region_id": "湖南"
      },
      "geometry": {
        "type": "Polygon",
        "coordinates": [
          [
            [
              113.2,
              25.9
            ],
            [
              113.6,
              25.9
            ],
            [
              113.6,
              26.3
            ],
            [
              113.2,
              26.3
            ],
            [
              113.2,
              25.9
            ]
          ]
        ]
      }
    },
    {
      "type": "Feature",
      "properties": {
        "cell_id": "CEG2000_f4_r0019_c0100",
        "region_id": "湖南"
      },
      "geometry": {
        "type": "Polygon",
        "coordinates": [
          [
            [
              113.59999400000001,
              25.9
            ],
            [
              114.0,
              25.9
            ],
            [
              114.0,
              26.3
            ],
            [
              113.59999400000001,
              26.3
            ],
            [
              113.59999400000001,
              25.9
            ]
          ]
        ]
      }
    },
    {
      "type": "Feature",
      "properties": {
        "cell_id": "CEG2000_f4_r0020_c0089",
        "region_id": "湖南"
      },
      "geometry": {
        "type": "Polygon",
        "coordinates": [
          [
            [
              109.2,
              26.3
            ],
            [
              109.6,
              26.3
            ],
            [
              109.6,
              26.700002
            ],
            [
              109.2,
              26.700002
            ],
            [
              109.2,
              26.3
            ]
          ]
        ]
      }
    },
    {
      "type": "Feature",
      "properties": {
        "cell_id": "CEG2000_f4_r0020_c0090",
        "region_id": "湖南"
      },
      "geometry": {
        "type": "Polygon",
        "coordinates": [
          [
            [
              109.59999400000001,
              26.3
            ],
            [
              110.0,
              26.3
            ],
            [
              110.0,
              26.700002
            ],
            [
              109.59999400000001,
              26.700002
            ],
            [
              109.59999400000001,
              26.3
            ]
          ]
        ]
      }
    },
    {
      "type": "Feature",
      "properties": {
        "cell_id": "CEG2000_f4_r0020_c0091",
        "region_id": "湖南"
      },
      "geometry": {
        "type": "Polygon",
        "coordinates": [
          [
            [
              110.0,
              26.3
            ],
            [
              110.40000599999999,
              26.3
            ],
            [
              110.40000599999999,
              26.700002
            ],
            [
              110.0,
              26.700002
            ],
            [
              110.0,
              26.3
            ]
          ]
        ]
      }
    },
    {
      "type": "Feature",
      "properties": {
        "cell_id": "CEG2000_f4_r0020_c0092",
        "region_id": "湖南"
      },
      "geometry": {
        "type": "Polygon",
        "coordinates": [
          [
            [
              110.4,
              26.3
            ],
            [
              110.8,
              26.3
            ],
            [
              110.8,
              26.700002
            ],
            [
              110.4,
              26.700002
            ],
            [
              110.4,
              26.3
            ]
          ]
        ]
      }
    },
    {
      "type": "Feature",
      "properties": {
        "cell_id": "CEG2000_f4_r0020_c0093",
        "region_id": "湖南"
      },
      "geometry": {
        "type": "Polygon",
        "coordinates": [
          [
            [
              110.800006,
              26.3
            ],
            [
              111.199994,
              26.3
            ],
            [
              111.199994,
              26.700002
            ],
            [
              110.800006,
              26.700002
            ],
            [
              110.800006,
              26.3
            ]
          ]
        ]
      }
    },
    {
      "type": "Feature",
      "properties": {
        "cell_id": "CEG2000_f4_r0020_c0094",
        "region_id": "湖南"
      },
      "geometry": {
        "type": "Polygon",
        "coordinates": [
          [
            [
              111.2,
              26.3
            ],
            [
              111.6,
              26.3
            ],
            [
              111.6,
              26.700002
            ],
            [
              111.2,
              26.700002
            ],
            [
              111.2,
              26.3
            ]
          ]
        ]
      }
    },
    {
      "type": "Feature",
      "properties": {
        "cell_id": "CEG2000_f4_r0020_c0095",
        "region_id": "湖南"
      },
      "geometry": {
        "type": "Polygon",
        "coordinates": [
          [
            [
              111.59999400000001,
              26.3
            ],
            [
              112.0,
              26.3
            ],
            [
              112.0,
              26.700002
            ],
            [
              111.59999400000001,
              26.700002
            ],
            [
              111.59999400000001,
              26.3
            ]
          ]
        ]
      }
    },
    {
      "type": "Feature",
      "properties": {
        "cell_id": "CEG2000_f4_r0020_c0096",
        "region_id": "湖南"
      },
      "geometry": {
        "type": "Polygon",
        "coordinates": [
          [
            [
              112.0,
              26.3
            ],
            [
              112.40000599999999,
              26.3
            ],
            [
              112.40000599999999,
              26.700002
            ],
            [
              112.0,
              26.700002
            ],
            [
              112.0,
              26.3
            ]
          ]
        ]
      }
    },
    {
      "type": "Feature",
      "properties": {
        "cell_id": "CEG2000_f4_r0020_c0097",
        "region_id": "湖南"
      },
      "geometry": {
        "type": "Polygon",
        "coordinates": [
          [
            [
              112.4,
              26.3
            ],
            [
              112.8,
              26.3
            ],
            [
              112.8,
              26.700002
            ],
            [
              112.4,
              26.700002
            ],
            [
              112.4,
              26.3
            ]
          ]
        ]
      }
    },
    {
      "type": "Feature",
      "properties": {
        "cell_id": "CEG2000_f4_r0020_c0098",
        "region_id": "湖南"
      },
      "geometry": {
        "type": "Polygon",
        "coordinates": [
          [
            [
              112.800006,
              26.3
            ],
            [
              113.199994,
              26.3
            ],
            [
              113.199994,
              26.700002
            ],
            [
              112.800006,
              26.700002
            ],
            [
              112.800006,
              26.3
            ]
          ]
        ]
      }
    },
    {
      "type": "Feature",
      "properties": {
        "cell_id": "CEG2000_f4_r0020_c0099",
        "region_id": "湖南"
      },
      "geometry": {
        "type": "Polygon",
        "coordinates": [
          [
            [
              113.2,
              26.3
            ],
            [
              113.6,
              26.3
            ],
            [
              113.6,
              26.700002
            ],
            [
              113.2,
              26.700002
            ],
            [
              113.2,
              26.3
            ]
          ]
        ]
      }
    },
    {
      "type": "Feature",
      "properties": {
        "cell_id": "CEG2000_f4_r0020_c0100",
        "region_id": "湖南"
      },
      "geometry": {
        "type": "Polygon",
        "coordinates": [
          [
            [
              113.59999400000001,
              26.3
            ],
            [
              114.0,
              26.3
            ],
            [
              114.0,
              26.700002
            ],
            [
              113.59999400000001,
              26.700002
            ],
            [
              113.59999400000001,
              26.3
            ]
          ]
        ]
      }
    },
    {
      "type": "Feature",
      "properties": {
        "cell_id": "CEG2000_f4_r0021_c0089",
        "region_id": "湖南"
      },
      "geometry": {
        "type": "Polygon",
        "coordinates": [
          [
            [
              109.2,
              26.7
            ],
            [
              109.6,
              26.7
            ],
            [
              109.6,
              27.1
            ],
            [
              109.2,
              27.1
            ],
            [
              109.2,
              26.7
            ]
          ]
        ]
      }
    },
    {
      "type": "Feature",
      "properties": {
        "cell_id": "CEG2000_f4_r0021_c0090",
        "region_id": "湖南"
      },
      "geometry": {
        "type": "Polygon",
        "coordinates": [
          [
            [
              109.59999400000001,
              26.7
            ],
            [
              110.0,
              26.7
            ],
            [
              110.0,
              27.1
            ],
            [
              109.59999400000001,
              27.1
            ],
            [
              109.59999400000001,
              26.7
            ]
          ]
        ]
      }
    },
    {
      "type": "Feature",
      "properties": {
        "cell_id": "CEG2000_f4_r0021_c0091",
        "region_id": "湖南"
      },
      "geometry": {
        "type": "Polygon",
        "coordinates": [
          [
            [
              110.0,
              26.7
            ],
            [
              110.40000599999999,
              26.7
            ],
            [
              110.40000599999999,
              27.1
            ],
            [
              110.0,
              27.1
            ],
            [
              110.0,
              26.7
            ]
          ]
        ]
      }
    },
    {
      "type": "Feature",
      "properties": {
        "cell_id": "CEG2000_f4_r0021_c0092",
        "region_id": "湖南"
      },
      "geometry": {
        "type": "Polygon",
        "coordinates": [
          [
            [
              110.4,
              26.7
            ],
            [
              110.8,
              26.7
            ],
            [
              110.8,
              27.1
            ],
            [
              110.4,
              27.1
            ],
            [
              110.4,
              26.7
            ]
          ]
        ]
      }
    },
    {
      "type": "Feature",
      "properties": {
        "cell_id": "CEG2000_f4_r0021_c0093",
        "region_id": "湖南"
      },
      "geometry": {
        "type": "Polygon",
        "coordinates": [
          [
            [
              110.800006,
              26.7
            ],
            [
              111.199994,
              26.7
            ],
            [
              111.199994,
              27.1
            ],
            [
              110.800006,
              27.1
            ],
            [
              110.800006,
              26.7
            ]
          ]
        ]
      }
    },
    {
      "type": "Feature",
      "properties": {
        "cell_id": "CEG2000_f4_r0021_c0094",
        "region_id": "湖南"
      },
      "geometry": {
        "type": "Polygon",
        "coordinates": [
          [
            [
              111.2,
              26.7
            ],
            [
              111.6,
              26.7
            ],
            [
              111.6,
              27.1
            ],
            [
              111.2,
              27.1
            ],
            [
              111.2,
              26.7
            ]
          ]
        ]
      }
    },
    {
      "type": "Feature",
      "properties": {
        "cell_id": "CEG2000_f4_r0021_c0095",
        "region_id": "湖南"
      },
      "geometry": {
        "type": "Polygon",
        "coordinates": [
          [
            [
              111.59999400000001,
              26.7
            ],
            [
              112.0,
              26.7
            ],
            [
              112.0,
              27.1
            ],
            [
              111.59999400000001,
              27.1
            ],
            [
              111.59999400000001,
              26.7
            ]
          ]
        ]
      }
    },
    {
      "type": "Feature",
      "properties": {
        "cell_id": "CEG2000_f4_r0021_c0096",
        "region_id": "湖南"
      },
      "geometry": {
        "type": "Polygon",
        "coordinates": [
          [
            [
              112.0,
              26.7
            ],
            [
              112.40000599999999,
              26.7
            ],
            [
              112.40000599999999,
              27.1
            ],
            [
              112.0,
              27.1
            ],
            [
              112.0,
              26.7
            ]
          ]
        ]
      }
    },
    {
      "type": "Feature",
      "properties": {
        "cell_id": "CEG2000_f4_r0021_c0097",
        "region_id": "湖南"
      },
      "geometry": {
        "type": "Polygon",
        "coordinates": [
          [
            [
              112.4,
              26.7
            ],
            [
              112.8,
              26.7
            ],
            [
              112.8,
              27.1
            ],
            [
              112.4,
              27.1
            ],
            [
              112.4,
              26.7
            ]
          ]
        ]
      }
    },
    {
      "type": "Feature",
      "properties": {
        "cell_id": "CEG2000_f4_r0021_c0098",
        "region_id": "湖南"
      },
      "geometry": {
        "type": "Polygon",
        "coordinates": [
          [
            [
              112.800006,
              26.7
            ],
            [
              113.199994,
              26.7
            ],
            [
              113.199994,
              27.1
            ],
            [
              112.800006,
              27.1
            ],
            [
              112.800006,
              26.7
            ]
          ]
        ]
      }
    },
    {
      "type": "Feature",
      "properties": {
        "cell_id": "CEG2000_f4_r0021_c0099",
        "region_id": "湖南"
      },
      "geometry": {
        "type": "Polygon",
        "coordinates": [
          [
            [
              113.2,
              26.7
            ],
            [
              113.6,
              26.7
            ],
            [
              113.6,
              27.1
            ],
            [
              113.2,
              27.1
            ],
            [
              113.2,
              26.7
            ]
          ]
        ]
      }
    },
    {
      "type": "Feature",
      "properties": {
        "cell_id": "CEG2000_f4_r0021_c0100",
        "region_id": "湖南"
      },
      "geometry": {
        "type": "Polygon",
        "coordinates": [
          [
            [
              113.59999400000001,
              26.7
            ],
            [
              114.0,
              26.7
            ],
            [
              114.0,
              27.1
            ],
            [
              113.59999400000001,
              27.1
            ],
            [
              113.59999400000001,
              26.7
            ]
          ]
        ]
      }
    },
    {
      "type": "Feature",
      "properties": {
        "cell_id": "CEG2000_f4_r0022_c0088",
        "region_id": "湖南"
      },
      "geometry": {
        "type": "Polygon",
        "coordinates": [
          [
            [
              108.8,
              27.100002
            ],
            [
              109.199994,
              27.100002
            ],
            [
              109.199994,
              27.5
            ],
            [
              108.8,
              27.5
            ],
            [
              108.8,
              27.100002
            ]
          ]
        ]
      }
    },
    {
      "type": "Feature",
      "properties": {
        "cell_id": "CEG2000_f4_r0022_c0089",
        "region_id": "湖南"
      },
      "geometry": {
        "type": "Polygon",
        "coordinates": [
          [
            [
              109.2,
              27.100002
            ],
            [
              109.6,
              27.100002
            ],
            [
              109.6,
              27.5
            ],
            [
              109.2,
              27.5
            ],
            [
              109.2,
              27.100002
            ]
          ]
        ]
      }
    },
    {
      "type": "Feature",
      "properties": {
        "cell_id": "CEG2000_f4_r0022_c0090",
        "region_id": "湖南"
      },
      "geometry": {
        "type": "Polygon",
        "coordinates": [
          [
            [
              109.59999400000001,
              27.100002
            ],
            [
              110.0,
              27.100002
            ],
            [
              110.0,
              27.5
            ],
            [
              109.59999400000001,
              27.5
            ],
            [
              109.59999400000001,
              27.100002
            ]
          ]
        ]
      }
    },
    {
      "type": "Feature",
      "properties": {
        "cell_id": "CEG2000_f4_r0022_c0091",
        "region_id": "湖南"
      },
      "geometry": {
        "type": "Polygon",
        "coordinates": [
          [
            [
              110.0,
              27.100002
            ],
            [
              110.40000599999999,
              27.100002
            ],
            [
              110.40000599999999,
              27.5
            ],
            [
              110.0,
              27.5
            ],
            [
              110.0,
              27.100002
            ]
          ]
        ]
      }
    },
    {
      "type": "Feature",
      "properties": {
        "cell_id": "CEG2000_f4_r0022_c0092",
        "region_id": "湖南"
      },
      "geometry": {
        "type": "Polygon",
        "coordinates": [
          [
            [
              110.4,
              27.100002
            ],
            [
              110.8,
              27.100002
            ],
            [
              110.8,
              27.5
            ],
            [
              110.4,
              27.5
            ],
            [
              110.4,
              27.100002
            ]
          ]
        ]
      }
    },
    {
      "type": "Feature",
      "properties": {
        "cell_id": "CEG2000_f4_r0022_c0093",
        "region_id": "湖南"
      },
      "geometry": {
        "type": "Polygon",
        "coordinates": [
          [
            [
              110.800006,
              27.100002
            ],
            [
              111.199994,
              27.100002
            ],
            [
              111.199994,
              27.5
            ],
            [
              110.800006,
              27.5
            ],
            [
              110.800006,
              27.100002
            ]
          ]
        ]
      }
    },
    {
      "type": "Feature",
      "properties": {
        "cell_id": "CEG2000_f4_r0022_c0094",
        "region_id": "湖南"
      },
      "geometry": {
        "type": "Polygon",
        "coordinates": [
          [
            [
              111.2,
              27.100002
            ],
            [
              111.6,
              27.100002
            ],
            [
              111.6,
              27.5
            ],
            [
              111.2,
              27.5
            ],
            [
              111.2,
              27.100002
            ]
          ]
        ]
      }
    },
    {
      "type": "Feature",
      "properties": {
        "cell_id": "CEG2000_f4_r0022_c0095",
        "region_id": "湖南"
      },
      "geometry": {
        "type": "Polygon",
        "coordinates": [
          [
            [
              111.59999400000001,
              27.100002
            ],
            [
              112.0,
              27.100002
            ],
            [
              112.0,
              27.5
            ],
            [
              111.59999400000001,
              27.5
            ],
            [
              111.59999400000001,
              27.100002
            ]
          ]
        ]
      }
    },
    {
      "type": "Feature",
      "properties": {
        "cell_id": "CEG2000_f4_r0022_c0096",
        "region_id": "湖南"
      },
      "geometry": {
        "type": "Polygon",
        "coordinates": [
          [
            [
              112.0,
              27.100002
            ],
            [
              112.40000599999999,
              27.100002
            ],
            [
              112.40000599999999,
              27.5
            ],
            [
              112.0,
              27.5
            ],
            [
              112.0,
              27.100002
            ]
          ]
        ]
      }
    },
    {
      "type": "Feature",
      "properties": {
        "cell_id": "CEG2000_f4_r0022_c0097",
        "region_id": "湖南"
      },
      "geometry": {
        "type": "Polygon",
        "coordinates": [
          [
            [
              112.4,
              27.100002
            ],
            [
              112.8,
              27.100002
            ],
            [
              112.8,
              27.5
            ],
            [
              112.4,
              27.5
            ],
            [
              112.4,
              27.100002
            ]
          ]
        ]
      }
    },
    {
      "type": "Feature",
      "properties": {
        "cell_id": "CEG2000_f4_r0022_c0098",
        "region_id": "湖南"
      },
      "geometry": {
        "type": "Polygon",
        "coordinates": [
          [
            [
              112.800006,
              27.100002
            ],
            [
              113.199994,
              27.100002
            ],
            [
              113.199994,
              27.5
            ],
            [
              112.800006,
              27.5
            ],
            [
              112.800006,
              27.100002
            ]
          ]
        ]
      }
    },
    {
      "type": "Feature",
      "properties": {
        "cell_id": "CEG2000_f4_r0022_c0099",
        "region_id": "湖南"
      },
      "geometry": {
        "type": "Polygon",
        "coordinates": [
          [
            [
              113.2,
              27.100002
            ],
            [
              113.6,
              27.100002
            ],
            [
              113.6,
              27.5
            ],
            [
              113.2,
              27.5
            ],
            [
              113.2,
              27.100002
            ]
          ]
        ]
      }
    },
    {
      "type": "Feature",
      "properties": {
        "cell_id": "CEG2000_f4_r0022_c0100",
        "region_id": "湖南"
      },
      "geometry": {
        "type": "Polygon",
        "coordinates": [
          [
            [
              113.59999400000001,
              27.100002
            ],
            [
              114.0,
              27.100002
            ],
            [
              114.0,
              27.5
            ],
            [
              113.59999400000001,
              27.5
            ],
            [
              113.59999400000001,
              27.100002
            ]
          ]
        ]
      }
    },
    {
      "type": "Feature",
      "properties": {
        "cell_id": "CEG2000_f4_r0023_c0089",
        "region_id": "湖南"
      },
      "geometry": {
        "type": "Polygon",
        "coordinates": [
          [
            [
              109.2,
              27.5
            ],
            [
              109.6,
              27.5
            ],
            [
              109.6,
              27.900000000000002
            ],
            [
              109.2,
              27.900000000000002
            ],
            [
              109.2,
              27.5
            ]
          ]
        ]
      }
    },
    {
      "type": "Feature",
      "properties": {
        "cell_id": "CEG2000_f4_r0023_c0090",
        "region_id": "湖南"
      },
      "geometry": {
        "type": "Polygon",
        "coordinates": [
          [
            [
              109.59999400000001,
              27.5
            ],
            [
              110.0,
              27.5
            ],
            [
              110.0,
              27.900000000000002
            ],
            [
              109.59999400000001,
              27.900000000000002
            ],
            [
              109.59999400000001,
              27.5
            ]
          ]
        ]
      }
    },
    {
      "type": "Feature",
      "properties": {
        "cell_id": "CEG2000_f4_r0023_c0091",
        "region_id": "湖南"
      },
      "geometry": {
        "type": "Polygon",
        "coordinates": [
          [
            [
              110.0,
              27.5
            ],
            [
              110.40000599999999,
              27.5
            ],
            [
              110.40000599999999,
              27.900000000000002
            ],
            [
              110.0,
              27.900000000000002
            ],
            [
              110.0,
              27.5
            ]
          ]
        ]
      }
    },
    {
      "type": "Feature",
      "properties": {
        "cell_id": "CEG2000_f4_r0023_c0092",
        "region_id": "湖南"
      },
      "geometry": {
        "type": "Polygon",
        "coordinates": [
          [
            [
              110.4,
              27.5
            ],
            [
              110.8,
              27.5
            ],
            [
              110.8,
              27.900000000000002
            ],
            [
              110.4,
              27.900000000000002
            ],
            [
              110.4,
              27.5
            ]
          ]
        ]
      }
    },
    {
      "type": "Feature",
      "properties": {
        "cell_id": "CEG2000_f4_r0023_c0093",
        "region_id": "湖南"
      },
      "geometry": {
        "type": "Polygon",
        "coordinates": [
          [
            [
              110.800006,
              27.5
            ],
            [
              111.199994,
              27.5
            ],
            [
              111.199994,
              27.900000000000002
            ],
            [
              110.800006,
              27.900000000000002
            ],
            [
              110.800006,
              27.5
            ]
          ]
        ]
      }
    },
    {
      "type": "Feature",
      "properties": {
        "cell_id": "CEG2000_f4_r0023_c0094",
        "region_id": "湖南"
      },
      "geometry": {
        "type": "Polygon",
        "coordinates": [
          [
            [
              111.2,
              27.5
            ],
            [
              111.6,
              27.5
            ],
            [
              111.6,
              27.900000000000002
            ],
            [
              111.2,
              27.900000000000002
            ],
            [
              111.2,
              27.5
            ]
          ]
        ]
      }
    },
    {
      "type": "Feature",
      "properties": {
        "cell_id": "CEG2000_f4_r0023_c0095",
        "region_id": "湖南"
      },
      "geometry": {
        "type": "Polygon",
        "coordinates": [
          [
            [
              111.59999400000001,
              27.5
            ],
            [
              112.0,
              27.5
            ],
            [
              112.0,
              27.900000000000002
            ],
            [
              111.59999400000001,
              27.900000000000002
            ],
            [
              111.59999400000001,
              27.5
            ]
          ]
        ]
      }
    },
    {
      "type": "Feature",
      "properties": {
        "cell_id": "CEG2000_f4_r0023_c0096",
        "region_id": "湖南"
      },
      "geometry": {
        "type": "Polygon",
        "coordinates": [
          [
            [
              112.0,
              27.5
            ],
            [
              112.40000599999999,
              27.5
            ],
            [
              112.40000599999999,
              27.900000000000002
            ],
            [
              112.0,
              27.900000000000002
            ],
            [
              112.0,
              27.5
            ]
          ]
        ]
      }
    },
    {
      "type": "Feature",
      "properties": {
        "cell_id": "CEG2000_f4_r0023_c0097",
        "region_id": "湖南"
      },
      "geometry": {
        "type": "Polygon",
        "coordinates": [
          [
            [
              112.4,
              27.5
            ],
            [
              112.8,
              27.5
            ],
            [
              112.8,
              27.900000000000002
            ],
            [
              112.4,
              27.900000000000002
            ],
            [
              112.4,
              27.5
            ]
          ]
        ]
      }
    },
    {
      "type": "Feature",
      "properties": {
        "cell_id": "CEG2000_f4_r0023_c0098",
        "region_id": "湖南"
      },
      "geometry": {
        "type": "Polygon",
        "coordinates": [
          [
            [
              112.800006,
              27.5
            ],
            [
              113.199994,
              27.5
            ],
            [
              113.199994,
              27.900000000000002
            ],
            [
              112.800006,
              27.900000000000002
            ],
            [
              112.800006,
              27.5
            ]
          ]
        ]
      }
    },
    {
      "type": "Feature",
      "properties": {
        "cell_id": "CEG2000_f4_r0023_c0099",
        "region_id": "湖南"
      },
      "geometry": {
        "type": "Polygon",
        "coordinates": [
          [
            [
              113.2,
              27.5
            ],
            [
              113.6,
              27.5
            ],
            [
              113.6,
              27.900000000000002
            ],
            [
              113.2,
              27.900000000000002
            ],
            [
              113.2,
              27.5
            ]
          ]
        ]
      }
    },
    {
      "type": "Feature",
      "properties": {
        "cell_id": "CEG2000_f4_r0024_c0089",
        "region_id": "湖南"
      },
      "geometry": {
        "type": "Polygon",
        "coordinates": [
          [
            [
              109.2,
              27.9
            ],
            [
              109.6,
              27.9
            ],
            [
              109.6,
              28.3
            ],
            [
              109.2,
              28.3
            ],
            [
              109.2,
              27.9
            ]
          ]
        ]
      }
    },
    {
      "type": "Feature",
      "properties": {
        "cell_id": "CEG2000_f4_r0024_c0090",
        "region_id": "湖南"
      },
      "geometry": {
        "type": "Polygon",
        "coordinates": [
          [
            [
              109.59999400000001,
              27.9
            ],
            [
              110.0,
              27.9
            ],
            [
              110.0,
              28.3
            ],
            [
              109.59999400000001,
              28.3
            ],
            [
              109.59999400000001,
              27.9
            ]
          ]
        ]
      }
    },
    {
      "type": "Feature",
      "properties": {
        "cell_id": "CEG2000_f4_r0024_c0091",
        "region_id": "湖南"
      },
      "geometry": {
        "type": "Polygon",
        "coordinates": [
          [
            [
              110.0,
              27.9
            ],
            [
              110.40000599999999,
              27.9
            ],
            [
              110.40000599999999,
              28.3
            ],
            [
              110.0,
              28.3
            ],
            [
              110.0,
              27.9
            ]
          ]
        ]
      }
    },
    {
      "type": "Feature",
      "properties": {
        "cell_id": "CEG2000_f4_r0024_c0092",
        "region_id": "湖南"
      },
      "geometry": {
        "type": "Polygon",
        "coordinates": [
          [
            [
              110.4,
              27.9
            ],
            [
              110.8,
              27.9
            ],
            [
              110.8,
              28.3
            ],
            [
              110.4,
              28.3
            ],
            [
              110.4,
              27.9
            ]
          ]
        ]
      }
    },
    {
      "type": "Feature",
      "properties": {
        "cell_id": "CEG2000_f4_r0024_c0093",
        "region_id": "湖南"
      },
      "geometry": {
        "type": "Polygon",
        "coordinates": [
          [
            [
              110.800006,
              27.9
            ],
            [
              111.199994,
              27.9
            ],
            [
              111.199994,
              28.3
            ],
            [
              110.800006,
              28.3
            ],
            [
              110.800006,
              27.9
            ]
          ]
        ]
      }
    },
    {
      "type": "Feature",
      "properties": {
        "cell_id": "CEG2000_f4_r0024_c0094",
        "region_id": "湖南"
      },
      "geometry": {
        "type": "Polygon",
        "coordinates": [
          [
            [
              111.2,
              27.9
            ],
            [
              111.6,
              27.9
            ],
            [
              111.6,
              28.3
            ],
            [
              111.2,
              28.3
            ],
            [
              111.2,
              27.9
            ]
          ]
        ]
      }
    },
    {
      "type": "Feature",
      "properties": {
        "cell_id": "CEG2000_f4_r0024_c0095",
        "region_id": "湖南"
      },
      "geometry": {
        "type": "Polygon",
        "coordinates": [
          [
            [
              111.59999400000001,
              27.9
            ],
            [
              112.0,
              27.9
            ],
            [
              112.0,
              28.3
            ],
            [
              111.59999400000001,
              28.3
            ],
            [
              111.59999400000001,
              27.9
            ]
          ]
        ]
      }
    },
    {
      "type": "Feature",
      "properties": {
        "cell_id": "CEG2000_f4_r0024_c0096",
        "region_id": "湖南"
      },
      "geometry": {
        "type": "Polygon",
        "coordinates": [
          [
            [
              112.0,
              27.9
            ],
            [
              112.40000599999999,
              27.9
            ],
            [
              112.40000599999999,
              28.3
            ],
            [
              112.0,
              28.3
            ],
            [
              112.0,
              27.9
            ]
          ]
        ]
      }
    },
    {
      "type": "Feature",
      "properties": {
        "cell_id": "CEG2000_f4_r0024_c0097",
        "region_id": "湖南"
      },
      "geometry": {
        "type": "Polygon",
        "coordinates": [
          [
            [
              112.4,
              27.9
            ],
            [
              112.8,
              27.9
            ],
            [
              112.8,
              28.3
            ],
            [
              112.4,
              28.3
            ],
            [
              112.4,
              27.9
            ]
          ]
        ]
      }
    },
    {
      "type": "Feature",
      "properties": {
        "cell_id": "CEG2000_f4_r0024_c0098",
        "region_id": "湖南"
      },
      "geometry": {
        "type": "Polygon",
        "coordinates": [
          [
            [
              112.800006,
              27.9
            ],
            [
              113.199994,
              27.9
            ],
            [
              113.199994,
              28.3
            ],
            [
              112.800006,
              28.3
            ],
            [
              112.800006,
              27.9
            ]
          ]
        ]
      }
    },
    {
      "type": "Feature",
      "properties": {
        "cell_id": "CEG2000_f4_r0024_c0099",
        "region_id": "湖南"
      },
      "geometry": {
        "type": "Polygon",
        "coordinates": [
          [
            [
              113.2,
              27.9
            ],
            [
              113.6,
              27.9
            ],
            [
              113.6,
              28.3
            ],
            [
              113.2,
              28.3
            ],
            [
              113.2,
              27.9
            ]
          ]
        ]
      }
    },
    {
      "type": "Feature",
      "properties": {
        "cell_id": "CEG2000_f4_r0024_c0100",
        "region_id": "湖南"
      },
      "geometry": {
        "type": "Polygon",
        "coordinates": [
          [
            [
              113.59999400000001,
              27.9
            ],
            [
              114.0,
              27.9
            ],
            [
              114.0,
              28.3
            ],
            [
              113.59999400000001,
              28.3
            ],
            [
              113.59999400000001,
              27.9
            ]
          ]
        ]
      }
    },
    {
      "type": "Feature",
      "properties": {
        "cell_id": "CEG2000_f4_r0025_c0089",
        "region_id": "湖南"
      },
      "geometry": {
        "type": "Polygon",
        "coordinates": [
          [
            [
              109.2,
              28.3
            ],
            [
              109.6,
              28.3
            ],
            [
              109.6,
              28.700002
            ],
            [
              109.2,
              28.700002
            ],
            [
              109.2,
              28.3
            ]
          ]
        ]
      }
    },
    {
      "type": "Feature",
      "properties": {
        "cell_id": "CEG2000_f4_r0025_c0090",
        "region_id": "湖南"
      },
      "geometry": {
        "type": "Polygon",
        "coordinates": [
          [
            [
              109.59999400000001,
              28.3
            ],
            [
              110.0,
              28.3
            ],
            [
              110.0,
              28.700002
            ],
            [
              109.59999400000001,
              28.700002
            ],
            [
              109.59999400000001,
              28.3
            ]
          ]
        ]
      }
    },
    {
      "type": "Feature",
      "properties": {
        "cell_id": "CEG2000_f4_r0025_c0091",
        "region_id": "湖南"
      },
      "geometry": {
        "type": "Polygon",
        "coordinates": [
          [
            [
              110.0,
              28.3
            ],
            [
              110.40000599999999,
              28.3
            ],
            [
              110.40000599999999,
              28.700002
            ],
            [
              110.0,
              28.700002
            ],
            [
              110.0,
              28.3
            ]
          ]
        ]
      }
    },
    {
      "type": "Feature",
      "properties": {
        "cell_id": "CEG2000_f4_r0025_c0092",
        "region_id": "湖南"
      },
      "geometry": {
        "type": "Polygon",
        "coordinates": [
          [
            [
              110.4,
              28.3
            ],
            [
              110.8,
              28.3
            ],
            [
              110.8,
              28.700002
            ],
            [
              110.4,
              28.700002
            ],
            [
              110.4,
              28.3
            ]
          ]
        ]
      }
    },
    {
      "type": "Feature",
      "properties": {
        "cell_id": "CEG2000_f4_r0025_c0093",
        "region_id": "湖南"
      },
      "geometry": {
        "type": "Polygon",
        "coordinates": [
          [
            [
              110.800006,
              28.3
            ],
            [
              111.199994,
              28.3
            ],
            [
              111.199994,
              28.700002
            ],
            [
              110.800006,
              28.700002
            ],
            [
              110.800006,
              28.3
            ]
          ]
        ]
      }
    },
    {
      "type": "Feature",
      "properties": {
        "cell_id": "CEG2000_f4_r0025_c0094",
        "region_id": "湖南"
      },
      "geometry": {
        "type": "Polygon",
        "coordinates": [
          [
            [
              111.2,
              28.3
            ],
            [
              111.6,
              28.3
            ],
            [
              111.6,
              28.700002
            ],
            [
              111.2,
              28.700002
            ],
            [
              111.2,
              28.3
            ]
          ]
        ]
      }
    },
    {
      "type": "Feature",
      "properties": {
        "cell_id": "CEG2000_f4_r0025_c0095",
        "region_id": "湖南"
      },
      "geometry": {
        "type": "Polygon",
        "coordinates": [
          [
            [
              111.59999400000001,
              28.3
            ],
            [
              112.0,
              28.3
            ],
            [
              112.0,
              28.700002
            ],
            [
              111.59999400000001,
              28.700002
            ],
            [
              111.59999400000001,
              28.3
            ]
          ]
        ]
      }
    },
    {
      "type": "Feature",
      "properties": {
        "cell_id": "CEG2000_f4_r0025_c0096",
        "region_id": "湖南"
      },
      "geometry": {
        "type": "Polygon",
        "coordinates": [
          [
            [
              112.0,
              28.3
            ],
            [
              112.40000599999999,
              28.3
            ],
            [
              112.40000599999999,
              28.700002
            ],
            [
              112.0,
              28.700002
            ],
            [
              112.0,
              28.3
            ]
          ]
        ]
      }
    },
    {
      "type": "Feature",
      "properties": {
        "cell_id": "CEG2000_f4_r0025_c0097",
        "region_id": "湖南"
      },
      "geometry": {
        "type": "Polygon",
        "coordinates": [
          [
            [
              112.4,
              28.3
            ],
            [
              112.8,
              28.3
            ],
            [
              112.8,
              28.700002
            ],
            [
              112.4,
              28.700002
            ],
            [
              112.4,
              28.3
            ]
          ]
        ]
      }
    },
    {
      "type": "Feature",
      "properties": {
        "cell_id": "CEG2000_f4_r0025_c0098",
        "region_id": "湖南"
      },
      "geometry": {
        "type": "Polygon",
        "coordinates": [
          [
            [
              112.800006,
              28.3
            ],
            [
              113.199994,
              28.3
            ],
            [
              113.199994,
              28.700002
            ],
            [
              112.800006,
              28.700002
            ],
            [
              112.800006,
              28.3
            ]
          ]
        ]
      }
    },
    {
      "type": "Feature",
      "properties": {
        "cell_id": "CEG2000_f4_r0025_c0099",
        "region_id": "湖南"
      },
      "geometry": {
        "type": "Polygon",
        "coordinates": [
          [
            [
              113.2,
              28.3
            ],
            [
              113.6,
              28.3
            ],
            [
              113.6,
              28.700002
            ],
            [
              113.2,
              28.700002
            ],
            [
              113.2,
              28.3
            ]
          ]
        ]
      }
    },
    {
      "type": "Feature",
      "properties": {
        "cell_id": "CEG2000_f4_r0025_c0100",
        "region_id": "湖南"
      },
      "geometry": {
        "type": "Polygon",
        "coordinates": [
          [
            [
              113.59999400000001,
              28.3
            ],
            [
              114.0,
              28.3
            ],
            [
              114.0,
              28.700002
            ],
            [
              113.59999400000001,
              28.700002
            ],
            [
              113.59999400000001,
              28.3
            ]
          ]
        ]
      }
    },
    {
      "type": "Feature",
      "properties": {
        "cell_id": "CEG2000_f4_r0025_c0101",
        "region_id": "湖南"
      },
      "geometry": {
        "type": "Polygon",
        "coordinates": [
          [
            [
              114.0,
              28.3
            ],
            [
              114.40000599999999,
              28.3
            ],
            [
              114.40000599999999,
              28.700002
            ],
            [
              114.0,
              28.700002
            ],
            [
              114.0,
              28.3
            ]
          ]
        ]
      }
    },
    {
      "type": "Feature",
      "properties": {
        "cell_id": "CEG2000_f4_r0026_c0089",
        "region_id": "湖南"
      },
      "geometry": {
        "type": "Polygon",
        "coordinates": [
          [
            [
              109.2,
              28.7
            ],
            [
              109.6,
              28.7
            ],
            [
              109.6,
              29.1
            ],
            [
              109.2,
              29.1
            ],
            [
              109.2,
              28.7
            ]
          ]
        ]
      }
    },
    {
      "type": "Feature",
      "properties": {
        "cell_id": "CEG2000_f4_r0026_c0090",
        "region_id": "湖南"
      },
      "geometry": {
        "type": "Polygon",
        "coordinates": [
          [
            [
              109.59999400000001,
              28.7
            ],
            [
              110.0,
              28.7
            ],
            [
              110.0,
              29.1
            ],
            [
              109.59999400000001,
              29.1
            ],
            [
              109.59999400000001,
              28.7
            ]
          ]
        ]
      }
    },
    {
      "type": "Feature",
      "properties": {
        "cell_id": "CEG2000_f4_r0026_c0091",
        "region_id": "湖南"
      },
      "geometry": {
        "type": "Polygon",
        "coordinates": [
          [
            [
              110.0,
              28.7
            ],
            [
              110.40000599999999,
              28.7
            ],
            [
              110.40000599999999,
              29.1
            ],
            [
              110.0,
              29.1
            ],
            [
              110.0,
              28.7
            ]
          ]
        ]
      }
    },
    {
      "type": "Feature",
      "properties": {
        "cell_id": "CEG2000_f4_r0026_c0092",
        "region_id": "湖南"
      },
      "geometry": {
        "type": "Polygon",
        "coordinates": [
          [
            [
              110.4,
              28.7
            ],
            [
              110.8,
              28.7
            ],
            [
              110.8,
              29.1
            ],
            [
              110.4,
              29.1
            ],
            [
              110.4,
              28.7
            ]
          ]
        ]
      }
    },
    {
      "type": "Feature",
      "properties": {
        "cell_id": "CEG2000_f4_r0026_c0093",
        "region_id": "湖南"
      },
      "geometry": {
        "type": "Polygon",
        "coordinates": [
          [
            [
              110.800006,
              28.7
            ],
            [
              111.199994,
              28.7
            ],
            [
              111.199994,
              29.1
            ],
            [
              110.800006,
              29.1
            ],
            [
              110.800006,
              28.7
            ]
          ]
        ]
      }
    },
    {
      "type": "Feature",
      "properties": {
        "cell_id": "CEG2000_f4_r0026_c0094",
        "region_id": "湖南"
      },
      "geometry": {
        "type": "Polygon",
        "coordinates": [
          [
            [
              111.2,
              28.7
            ],
            [
              111.6,
              28.7
            ],
            [
              111.6,
              29.1
            ],
            [
              111.2,
              29.1
            ],
            [
              111.2,
              28.7
            ]
          ]
        ]
      }
    },
    {
      "type": "Feature",
      "properties": {
        "cell_id": "CEG2000_f4_r0026_c0095",
        "region_id": "湖南"
      },
      "geometry": {
        "type": "Polygon",
        "coordinates": [
          [
            [
              111.59999400000001,
              28.7
            ],
            [
              112.0,
              28.7
            ],
            [
              112.0,
              29.1
            ],
            [
              111.59999400000001,
              29.1
            ],
            [
              111.59999400000001,
              28.7
            ]
          ]
        ]
      }
    },
    {
      "type": "Feature",
      "properties": {
        "cell_id": "CEG2000_f4_r0026_c0096",
        "region_id": "湖南"
      },
      "geometry": {
        "type": "Polygon",
        "coordinates": [
          [
            [
              112.0,
              28.7
            ],
            [
              112.40000599999999,
              28.7
            ],
            [
              112.40000599999999,
              29.1
            ],
            [
              112.0,
              29.1
            ],
            [
              112.0,
              28.7
            ]
          ]
        ]
      }
    },
    {
      "type": "Feature",
      "properties": {
        "cell_id": "CEG2000_f4_r0026_c0097",
        "region_id": "湖南"
      },
      "geometry": {
        "type": "Polygon",
        "coordinates": [
          [
            [
              112.4,
              28.7
            ],
            [
              112.8,
              28.7
            ],
            [
              112.8,
              29.1
            ],
            [
              112.4,
              29.1
            ],
            [
              112.4,
              28.7
            ]
          ]
        ]
      }
    },
    {
      "type": "Feature",
      "properties": {
        "cell_id": "CEG2000_f4_r0026_c0098",
        "region_id": "湖南"
      },
      "geometry": {
        "type": "Polygon",
        "coordinates": [
          [
            [
              112.800006,
              28.7
            ],
            [
              113.199994,
              28.7
            ],
            [
              113.199994,
              29.1
            ],
            [
              112.800006,
              29.1
            ],
            [
              112.800006,
              28.7
            ]
          ]
        ]
      }
    },
    {
      "type": "Feature",
      "properties": {
        "cell_id": "CEG2000_f4_r0026_c0099",
        "region_id": "湖南"
      },
      "geometry": {
        "type": "Polygon",
        "coordinates": [
          [
            [
              113.2,
              28.7
            ],
            [
              113.6,
              28.7
            ],
            [
              113.6,
              29.1
            ],
            [
              113.2,
              29.1
            ],
            [
              113.2,
              28.7
            ]
          ]
        ]
      }
    },
    {
      "type": "Feature",
      "properties": {
        "cell_id": "CEG2000_f4_r0026_c0100",
        "region_id": "湖南"
      },
      "geometry": {
        "type": "Polygon",
        "coordinates": [
          [
            [
              113.59999400000001,
              28.7
            ],
            [
              114.0,
              28.7
            ],
            [
              114.0,
              29.1
            ],
            [
              113.59999400000001,
              29.1
            ],
            [
              113.59999400000001,
              28.7
            ]
          ]
        ]
      }
    },
    {
      "type": "Feature",
      "properties": {
        "cell_id": "CEG2000_f4_r0027_c0089",
        "region_id": "湖南"
      },
      "geometry": {
        "type": "Polygon",
        "coordinates": [
          [
            [
              109.2,
              29.100002
            ],
            [
              109.6,
              29.100002
            ],
            [
              109.6,
              29.5
            ],
            [
              109.2,
              29.5
            ],
            [
              109.2,
              29.100002
            ]
          ]
        ]
      }
    },
    {
      "type": "Feature",
      "properties": {
        "cell_id": "CEG2000_f4_r0027_c0090",
        "region_id": "湖南"
      },
      "geometry": {
        "type": "Polygon",
        "coordinates": [
          [
            [
              109.59999400000001,
              29.100002
            ],
            [
              110.0,
              29.100002
            ],
            [
              110.0,
              29.5
            ],
            [
              109.59999400000001,
              29.5
            ],
            [
              109.59999400000001,
              29.100002
            ]
          ]
        ]
      }
    },
    {
      "type": "Feature",
      "properties": {
        "cell_id": "CEG2000_f4_r0027_c0091",
        "region_id": "湖南"
      },
      "geometry": {
        "type": "Polygon",
        "coordinates": [
          [
            [
              110.0,
              29.100002
            ],
            [
              110.40000599999999,
              29.100002
            ],
            [
              110.40000599999999,
              29.5
            ],
            [
              110.0,
              29.5
            ],
            [
              110.0,
              29.100002
            ]
          ]
        ]
      }
    },
    {
      "type": "Feature",
      "properties": {
        "cell_id": "CEG2000_f4_r0027_c0092",
        "region_id": "湖南"
      },
      "geometry": {
        "type": "Polygon",
        "coordinates": [
          [
            [
              110.4,
              29.100002
            ],
            [
              110.8,
              29.100002
            ],
            [
              110.8,
              29.5
            ],
            [
              110.4,
              29.5
            ],
            [
              110.4,
              29.100002
            ]
          ]
        ]
      }
    },
    {
      "type": "Feature",
      "properties": {
        "cell_id": "CEG2000_f4_r0027_c0093",
        "region_id": "湖南"
      },
      "geometry": {
        "type": "Polygon",
        "coordinates": [
          [
            [
              110.800006,
              29.100002
            ],
            [
              111.199994,
              29.100002
            ],
            [
              111.199994,
              29.5
            ],
            [
              110.800006,
              29.5
            ],
            [
              110.800006,
              29.100002
            ]
          ]
        ]
      }
    },
    {
      "type": "Feature",
      "properties": {
        "cell_id": "CEG2000_f4_r0027_c0094",
        "region_id": "湖南"
      },
      "geometry": {
        "type": "Polygon",
        "coordinates": [
          [
            [
              111.2,
              29.100002
            ],
            [
              111.6,
              29.100002
            ],
            [
              111.6,
              29.5
            ],
            [
              111.2,
              29.5
            ],
            [
              111.2,
              29.100002
            ]
          ]
        ]
      }
    },
    {
      "type": "Feature",
      "properties": {
        "cell_id": "CEG2000_f4_r0027_c0095",
        "region_id": "湖南"
      },
      "geometry": {
        "type": "Polygon",
        "coordinates": [
          [
            [
              111.59999400000001,
              29.100002
            ],
            [
              112.0,
              29.100002
            ],
            [
              112.0,
              29.5
            ],
            [
              111.59999400000001,
              29.5
            ],
            [
              111.59999400000001,
              29.100002
            ]
          ]
        ]
      }
    },
    {
      "type": "Feature",
      "properties": {
        "cell_id": "CEG2000_f4_r0027_c0096",
        "region_id": "湖南"
      },
      "geometry": {
        "type": "Polygon",
        "coordinates": [
          [
            [
              112.0,
              29.100002
            ],
            [
              112.40000599999999,
              29.100002
            ],
            [
              112.40000599999999,
              29.5
            ],
            [
              112.0,
              29.5
            ],
            [
              112.0,
              29.100002
            ]
          ]
        ]
      }
    },
    {
      "type": "Feature",
      "properties": {
        "cell_id": "CEG2000_f4_r0027_c0097",
        "region_id": "湖南"
      },
      "geometry": {
        "type": "Polygon",
        "coordinates": [
          [
            [
              112.4,
              29.100002
            ],
            [
              112.8,
              29.100002
            ],
            [
              112.8,
              29.5
            ],
            [
              112.4,
              29.5
            ],
            [
              112.4,
              29.100002
            ]
          ]
        ]
      }
    },
    {
      "type": "Feature",
      "properties": {
        "cell_id": "CEG2000_f4_r0027_c0098",
        "region_id": "湖南"
      },
      "geometry": {
        "type": "Polygon",
        "coordinates": [
          [
            [
              112.800006,
              29.100002
            ],
            [
              113.199994,
              29.100002
            ],
            [
              113.199994,
              29.5
            ],
            [
              112.800006,
              29.5
            ],
            [
              112.800006,
              29.100002
            ]
          ]
        ]
      }
    },
    {
      "type": "Feature",
      "properties": {
        "cell_id": "CEG2000_f4_r0027_c0099",
        "region_id": "湖南"
      },
      "geometry": {
        "type": "Polygon",
        "coordinates": [
          [
            [
              113.2,
              29.100002
            ],
            [
              113.6,
              29.100002
            ],
            [
              113.6,
              29.5
            ],
            [
              113.2,
              29.5
            ],
            [
              113.2,
              29.100002
            ]
          ]
        ]
      }
    },
    {
      "type": "Feature",
      "properties": {
        "cell_id": "CEG2000_f4_r0027_c0100",
        "region_id": "湖南"
      },
      "geometry": {
        "type": "Polygon",
        "coordinates": [
          [
            [
              113.59999400000001,
              29.100002
            ],
            [
              114.0,
              29.100002
            ],
            [
              114.0,
              29.5
            ],
            [
              113.59999400000001,
              29.5
            ],
            [
              113.59999400000001,
              29.100002
            ]
          ]
        ]
      }
    },
    {
      "type": "Feature",
      "properties": {
        "cell_id": "CEG2000_f4_r0028_c0090",
        "region_id": "湖南"
      },
      "geometry": {
        "type": "Polygon",
        "coordinates": [
          [
            [
              109.59999400000001,
              29.5
            ],
            [
              110.0,
              29.5
            ],
            [
              110.0,
              29.900000000000002
            ],
            [
              109.59999400000001,
              29.900000000000002
            ],
            [
              109.59999400000001,
              29.5
            ]
          ]
        ]
      }
    },
    {
      "type": "Feature",
      "properties": {
        "cell_id": "CEG2000_f4_r0028_c0091",
        "region_id": "湖南"
      },
      "geometry": {
        "type": "Polygon",
        "coordinates": [
          [
            [
              110.0,
              29.5
            ],
            [
              110.40000599999999,
              29.5
            ],
            [
              110.40000599999999,
              29.900000000000002
            ],
            [
              110.0,
              29.900000000000002
            ],
            [
              110.0,
              29.5
            ]
          ]
        ]
      }
    },
    {
      "type": "Feature",
      "properties": {
        "cell_id": "CEG2000_f4_r0028_c0092",
        "region_id": "湖南"
      },
      "geometry": {
        "type": "Polygon",
        "coordinates": [
          [
            [
              110.4,
              29.5
            ],
            [
              110.8,
              29.5
            ],
            [
              110.8,
              29.900000000000002
            ],
            [
              110.4,
              29.900000000000002
            ],
            [
              110.4,
              29.5
            ]
          ]
        ]
      }
    },
    {
      "type": "Feature",
      "properties": {
        "cell_id": "CEG2000_f4_r0028_c0093",
        "region_id": "湖南"
      },
      "geometry": {
        "type": "Polygon",
        "coordinates": [
          [
            [
              110.800006,
              29.5
            ],
            [
              111.199994,
              29.5
            ],
            [
              111.199994,
              29.900000000000002
            ],
            [
              110.800006,
              29.900000000000002
            ],
            [
              110.800006,
              29.5
            ]
          ]
        ]
      }
    },
    {
      "type": "Feature",
      "properties": {
        "cell_id": "CEG2000_f4_r0028_c0094",
        "region_id": "湖南"
      },
      "geometry": {
        "type": "Polygon",
        "coordinates": [
          [
            [
              111.2,
              29.5
            ],
            [
              111.6,
              29.5
            ],
            [
              111.6,
              29.900000000000002
            ],
            [
              111.2,
              29.900000000000002
            ],
            [
              111.2,
              29.5
            ]
          ]
        ]
      }
    },
    {
      "type": "Feature",
      "properties": {
        "cell_id": "CEG2000_f4_r0028_c0095",
        "region_id": "湖南"
      },
      "geometry": {
        "type": "Polygon",
        "coordinates": [
          [
            [
              111.59999400000001,
              29.5
            ],
            [
              112.0,
              29.5
            ],
            [
              112.0,
              29.900000000000002
            ],
            [
              111.59999400000001,
              29.900000000000002
            ],
            [
              111.59999400000001,
              29.5
            ]
          ]
        ]
      }
    },
    {
      "type": "Feature",
      "properties": {
        "cell_id": "CEG2000_f4_r0028_c0096",
        "region_id": "湖南"
      },
      "geometry": {
        "type": "Polygon",
        "coordinates": [
          [
            [
              112.0,
              29.5
            ],
            [
              112.40000599999999,
              29.5
            ],
            [
              112.40000599999999,
              29.900000000000002
            ],
            [
              112.0,
              29.900000000000002
            ],
            [
              112.0,
              29.5
            ]
          ]
        ]
      }
    },
    {
      "type": "Feature",
      "properties": {
        "cell_id": "CEG2000_f4_r0028_c0097",
        "region_id": "湖南"
      },
      "geometry": {
        "type": "Polygon",
        "coordinates": [
          [
            [
              112.4,
              29.5
            ],
            [
              112.8,
              29.5
            ],
            [
              112.8,
              29.900000000000002
            ],
            [
              112.4,
              29.900000000000002
            ],
            [
              112.4,
              29.5
            ]
          ]
        ]
      }
    },
    {
      "type": "Feature",
      "properties": {
        "cell_id": "CEG2000_f4_r0028_c0098",
        "region_id": "湖南"
      },
      "geometry": {
        "type": "Polygon",
        "coordinates": [
          [
            [
              112.800006,
              29.5
            ],
            [
              113.199994,
              29.5
            ],
            [
              113.199994,
              29.900000000000002
            ],
            [
              112.800006,
              29.900000000000002
            ],
            [
              112.800006,
              29.5
            ]
          ]
        ]
      }
    },
    {
      "type": "Feature",
      "properties": {
        "cell_id": "CEG2000_f4_r0028_c0099",
        "region_id": "湖南"
      },
      "geometry": {
        "type": "Polygon",
        "coordinates": [
          [
            [
              113.2,
              29.5
            ],
            [
              113.6,
              29.5
            ],
            [
              113.6,
              29.900000000000002
            ],
            [
              113.2,
              29.900000000000002
            ],
            [
              113.2,
              29.5
            ]
          ]
        ]
      }
    },
    {
      "type": "Feature",
      "properties": {
        "cell_id": "CEG2000_f4_r0029_c0092",
        "region_id": "湖南"
      },
      "geometry": {
        "type": "Polygon",
        "coordinates": [
          [
            [
              110.4,
              29.9
            ],
            [
              110.8,
              29.9
            ],
            [
              110.8,
              30.3
            ],
            [
              110.4,
              30.3
            ],
            [
              110.4,
              29.9
            ]
          ]
        ]
      }
    },
    {
      "type": "Feature",
      "properties": {
        "cell_id": "CEG2000_f4_r0029_c0093",
        "region_id": "湖南"
      },
      "geometry": {
        "type": "Polygon",
        "coordinates": [
          [
            [
              110.800006,
              29.9
            ],
            [
              111.199994,
              29.9
            ],
            [
              111.199994,
              30.3
            ],
            [
              110.800006,
              30.3
            ],
            [
              110.800006,
              29.9
            ]
          ]
        ]
      }
    },
    {
      "type": "Feature",
      "properties": {
        "cell_id": "CEG2000_f4_r0029_c0094",
        "region_id": "湖南"
      },
      "geometry": {
        "type": "Polygon",
        "coordinates": [
          [
            [
              111.2,
              29.9
            ],
            [
              111.6,
              29.9
            ],
            [
              111.6,
              30.3
            ],
            [
              111.2,
              30.3
            ],
            [
              111.2,
              29.9
            ]
          ]
        ]
      }
    }
  ]
}