{
  "type": "FeatureCollection",
  "features": [
    {
      "type": "Feature",
      "properties": {
        "cell_id": "CEG2000_f4_r0027_c0088",
        "region_id": "湖北"
      },
      "geometry": {
        "type": "Polygon",
        "coordinates": [
          [
            [
              108.8,
              29.100002
            ],
            [
              109.199994,
              29.100002
            ],
            [
              109.199994,
              29.5
            ],
            [
              108.8,
              29.5
            ],
            [
              108.8,
              29.100002
            ]
          ]
        ]
      }
    },
    {
      "type": "Feature",
      "properties": {
        "cell_id": "CEG2000_f4_r0027_c0089",
        "region_id": "湖北"
      },
      "geometry": {
        "type": "Polygon",
        "coordinates": [
          [
            [
              109.2,
              29.100002
            ],
            [
              109.6,
              29.100002
            ],
            [
              109.6,
              29.5
            ],
            [
              109.2,
              29.5
            ],
            [
              109.2,
              29.100002
            ]
          ]
        ]
      }
    },
    {
      "type": "Feature",
      "properties": {
        "cell_id": "CEG2000_f4_r0027_c0100",
        "region_id": "湖北"
      },
      "geometry": {
        "type": "Polygon",
        "coordinates": [
          [
            [
              113.59999400000001,
              29.100002
            ],
            [
              114.0,
              29.100002
            ],
            [
              114.0,
              29.5
            ],
            [
              113.59999400000001,
              29.5
            ],
            [
              113.59999400000001,
              29.100002
            ]
          ]
        ]
      }
    },
    {
      "type": "Feature",
      "properties": {
        "cell_id": "CEG2000_f4_r0027_c0101",
        "region_id": "湖北"
      },
      "geometry": {
        "type": "Polygon",
        "coordinates": [
          [
            [
              114.0,
              29.100002
            ],
            [
              114.40000599999999,
              29.100002
            ],
            [
              114.40000599999999,
              29.5
            ],
            [
              114.0,
              29.5
            ],
            [
              114.0,
              29.100002
            ]
          ]
        ]
      }
    },
    {
      "type": "Feature",
      "properties": {
        "cell_id": "CEG2000_f4_r0027_c0102",
        "region_id": "湖北"
      },
      "geometry": {
        "type": "Polygon",
        "coordinates": [
          [
            [
              114.4,
              29.100002
            ],
            [
              114.8,
              29.100002
            ],
            [
              114.8,
              29.5
            ],
            [
              114.4,
              29.5
            ],
            [
              114.4,
              29.100002
            ]
          ]
        ]
      }
    },
    {
      "type": "Feature",
      "properties": {
        "cell_id": "CEG2000_f4_r0028_c0087",
        "region_id": "湖北"
      },
      "geometry": {
        "type": "Polygon",
        "coordinates": [
          [
            [
              108.4,
              29.5
            ],
            [
              108.8,
              29.5
            ],
            [
              108.8,
              29.900000000000002
            ],
            [
              108.4,
              29.900000000000002
            ],
            [
              108.4,
              29.5
            ]
          ]
        ]
      }
    },
    {
      "type": "Feature",
      "properties": {
        "cell_id": "CEG2000_f4_r0028_c0088",
        "region_id": "湖北"
      },
      "geometry": {
        "type": "Polygon",
        "coordinates": [
          [
            [
              108.8,
              29.5
            ],
            [
              109.199994,
              29.5
            ],
            [
              109.199994,
              29.900000000000002
            ],
            [
              108.8,
              29.900000000000002
            ],
            [
              108.8,
              29.5
            ]
          ]
        ]
      }
    },
    {
      "type": "Feature",
      "properties": {
        "cell_id": "CEG2000_f4_r0028_c0089",
        "region_id": "湖北"
      },
      "geometry": {
        "type": "Polygon",
        "coordinates": [
          [
            [
              109.2,
              29.5
            ],
            [
              109.6,
              29.5
            ],
            [
              109.6,
              29.900000000000002
            ],
            [
              109.2,
              29.900000000000002
            ],
            [
              109.2,
              29.5
            ]
          ]
        ]
      }
    },
    {
      "type": "Feature",
      "properties": {
        "cell_id": "CEG2000_f4_r0028_c0090",
        "region_id": "湖北"
      },
      "geometry": {
        "type": "Polygon",
        "coordinates": [
          [
            [
              109.59999400000001,
              29.5
            ],
            [
              110.0,
              29.5
            ],
            [
              110.0,
              29.900000000000002
            ],
            [
              109.59999400000001,
              29.900000000000002
            ],
            [
              109.59999400000001,
              29.5
            ]
          ]
        ]
      }
    },
    {
      "type": "Feature",
      "properties": {
        "cell_id": "CEG2000_f4_r0028_c0091",
        "region_id": "湖北"
      },
      "geometry": {
        "type": "Polygon",
        "coordinates": [
          [
            [
              110.0,
              29.5
            ],
            [
              110.40000599999999,
              29.5
            ],
            [
              110.40000599999999,
              29.900000000000002
            ],
            [
              110.0,
              29.900000000000002
            ],
            [
              110.0,
              29.5
            ]
          ]
        ]
      }
    },
    {
      "type": "Feature",
      "properties": {
        "cell_id": "CEG2000_f4_r0028_c0092",
        "region_id": "湖北"
      },
      "geometry": {
        "type": "Polygon",
        "coordinates": [
          [
            [
              110.4,
              29.5
            ],
            [
              110.8,
              29.5
            ],
            [
              110.8,
              29.900000000000002
            ],
            [
              110.4,
              29.900000000000002
            ],
            [
              110.4,
              29.5
            ]
          ]
        ]
      }
    },
    {
      "type": "Feature",
      "properties": {
        "cell_id": "CEG2000_f4_r0028_c0096",
        "region_id": "湖北"
      },
      "geometry": {
        "type": "Polygon",
        "coordinates": [
          [
            [
              112.0,
              29.5
            ],
            [
              112.40000599999999,
              29.5
            ],
            [
              112.40000599999999,
              29.900000000000002
            ],
            [
              112.0,
              29.900000000000002
            ],
            [
              112.0,
              29.5
            ]
          ]
        ]
      }
    },
    {
      "type": "Feature",
      "properties": {
        "cell_id": "CEG2000_f4_r0028_c0097",
        "region_id": "湖北"
      },
      "geometry": {
        "type": "Polygon",
        "coordinates": [
          [
            [
              112.4,
              29.5
            ],
            [
              112.8,
              29.5
            ],
            [
              112.8,
              29.900000000000002
            ],
            [
              112.4,
              29.900000000000002
            ],
            [
              112.4,
              29.5
            ]
          ]
        ]
      }
    },
    {
      "type": "Feature",
      "properties": {
        "cell_id": "CEG2000_f4_r0028_c0098",
        "region_id": "湖北"
      },
      "geometry": {
        "type": "Polygon",
        "coordinates": [
          [
            [
              112.800006,
              29.5
            ],
            [
              113.199994,
              29.5
            ],
            [
              113.199994,
              29.900000000000002
            ],
            [
              112.800006,
              29.900000000000002
            ],
            [
              112.800006,
              29.5
            ]
          ]
        ]
      }
    },
    {
      "type": "Feature",
      "properties": {
        "cell_id": "CEG2000_f4_r0028_c0099",
        "region_id": "湖北"
      },
      "geometry": {
        "type": "Polygon",
        "coordinates": [
          [
            [
              113.2,
              29.5
            ],
            [
              113.6,
              29.5
            ],
            [
              113.6,
              29.900000000000002
            ],
            [
              113.2,
              29.900000000000002
            ],
            [
              113.2,
              29.5
            ]
          ]
        ]
      }
    },
    {
      "type": "Feature",
      "properties": {
        "cell_id": "CEG2000_f4_r0028_c0100",
        "region_id": "湖北"
      },
      "geometry": {
        "type": "Polygon",
        "coordinates": [
          [
            [
              113.59999400000001,
              29.5
            ],
            [
              114.0,
              29.5
            ],
            [
              114.0,
              29.900000000000002
            ],
            [
              113.59999400000001,
              29.900000000000002
            ],
            [
              113.59999400000001,
              29.5
            ]
          ]
        ]
      }
    },
    {
      "type": "Feature",
      "properties": {
        "cell_id": "CEG2000_f4_r0028_c0101",
        "region_id": "湖北"
      },
      "geometry": {
        "type": "Polygon",
        "coordinates": [
          [
            [
              114.0,
              29.5
            ],
            [
              114.40000599999999,
              29.5
            ],
            [
              114.40000599999999,
              29.900000000000002
            ],
            [
              114.0,
              29.900000000000002
            ],
            [
              114.0,
              29.5
            ]
          ]
        ]
      }
    },
    {
      "type": "Feature",
      "properties": {
        "cell_id": "CEG2000_f4_r0028_c0102",
        "region_id": "湖北"
      },
      "geometry": {
        "type": "Polygon",
        "coordinates": [
          [
            [
              114.4,
              29.5
            ],
            [
              114.8,
              29.5
            ],
            [
              114.8,
              29.900000000000002
            ],
            [
              114.4,
              29.900000000000002
            ],
            [
              114.4,
              29.5
            ]
          ]
        ]
      }
    },
    {
      "type": "Feature",
      "properties": {
        "cell_id": "CEG2000_f4_r0028_c0103",
        "region_id": "湖北"
      },
      "geometry": {
        "type": "Polygon",
        "coordinates": [
          [
            [
              114.800006,
              29.5
            ],
            [
              115.199994,
              29.5
            ],
            [
              115.199994,
              29.900000000000002
            ],
            [
              114.800006,
              29.900000000000002
            ],
            [
              114.800006,
              29.5
            ]
          ]
        ]
      }
    },
    {
      "type": "Feature",
      "properties": {
        "cell_id": "CEG2000_f4_r0028_c0104",
        "region_id": "湖北"
      },
      "geometry": {
        "type": "Polygon",
        "coordinates": [
          [
            [
              115.2,
              29.5
            ],
            [
              115.6,
              29.5
            ],
            [
              115.6,
              29.900000000000002
            ],
            [
              115.2,
              29.900000000000002
            ],
            [
              115.2,
              29.5
            ]
          ]
        ]
      }
    },
    {
      "type": "Feature",
      "properties": {
        "cell_id": "CEG2000_f4_r0028_c0105",
        "region_id": "湖北"
      },
      "geometry": {
        "type": "Polygon",
        "coordinates": [
          [
            [
              115.59999400000001,
              29.5
            ],
            [
              116.0,
              29.5
            ],
            [
              116.0,
              29.900000000000002
            ],
            [
              115.59999400000001,
              29.900000000000002
            ],
            [
              115.59999400000001,
              29.5
            ]
          ]
        ]
      }
    },
    {
      "type": "Feature",
      "properties": {
        "cell_id": "CEG2000_f4_r0029_c0087",
        "region_id": "湖北"
      },
      "geometry": {
        "type": "Polygon",
        "coordinates": [
          [
            [
              108.4,
              29.9
            ],
            [
              108.8,
              29.9
            ],
            [
              108.8,
              30.3
            ],
            [
              108.4,
              30.3
            ],
            [
              108.4,
              29.9
            ]
          ]
        ]
      }
    },
    {
      "type": "Feature",
      "properties": {
        "cell_id": "CEG2000_f4_r0029_c0088",
        "region_id": "湖北"
      },
      "geometry": {
        "type": "Polygon",
        "coordinates": [
          [
            [
              108.8,
              29.9
            ],
            [
              109.199994,
              29.9
            ],
            [
              109.199994,
              30.3
            ],
            [
              108.8,
              30.3
            ],
            [
              108.8,
              29.9
            ]
          ]
        ]
      }
    },
    {
      "type": "Feature",
      "properties": {
        "cell_id": "CEG2000_f4_r0029_c0089",
        "region_id": "湖北"
      },
      "geometry": {
        "type": "Polygon",
        "coordinates": [
          [
            [
              109.2,
              29.9
            ],
            [
              109.6,
              29.9
            ],
            [
              109.6,
              30.3
            ],
            [
              109.2,
              30.3
            ],
            [
              109.2,
              29.9
            ]
          ]
        ]
      }
    },
    {
      "type": "Feature",
      "properties": {
        "cell_id": "CEG2000_f4_r0029_c0090",
        "region_id": "湖北"
      },
      "geometry": {
        "type": "Polygon",
        "coordinates": [
          [
            [
              109.59999400000001,
              29.9
            ],
            [
              110.0,
              29.9
            ],
            [
              110.0,
              30.3
            ],
            [
              109.59999400000001,
              30.3
            ],
            [
              109.59999400000001,
              29.9
            ]
          ]
        ]
      }
    },
    {
      "type": "Feature",
      "properties": {
        "cell_id": "CEG2000_f4_r0029_c0091",
        "region_id": "湖北"
      },
      "geometry": {
        "type": "Polygon",
        "coordinates": [
          [
            [
              110.0,
              29.9
            ],
            [
              110.40000599999999,
              29.9
            ],
            [
              110.40000599999999,
              30.3
            ],
            [
              110.0,
              30.3
            ],
            [
              110.0,
              29.9
            ]
          ]
        ]
      }
    },
    {
      "type": "Feature",
      "properties": {
        "cell_id": "CEG2000_f4_r0029_c0092",
        "region_id": "湖北"
      },
      "geometry": {
        "type": "Polygon",
        "coordinates": [
          [
            [
              110.4,
              29.9
            ],
            [
              110.8,
              29.9
            ],
            [
              110.8,
              30.3
            ],
            [
              110.4,
              30.3
            ],
            [
              110.4,
              29.9
            ]
          ]
        ]
      }
    },
    {
      "type": "Feature",
      "properties": {
        "cell_id": "CEG2000_f4_r0029_c0093",
        "region_id": "湖北"
      },
      "geometry": {
        "type": "Polygon",
        "coordinates": [
          [
            [
              110.800006,
              29.9
            ],
            [
              111.199994,
              29.9
            ],
            [
              111.199994,
              30.3
            ],
            [
              110.800006,
              30.3
            ],
            [
              110.800006,
              29.9
            ]
          ]
        ]
      }
    },
    {
      "type": "Feature",
      "properties": {
        "cell_id": "CEG2000_f4_r0029_c0094",
        "region_id": "湖北"
      },
      "geometry": {
        "type": "Polygon",
        "coordinates": [
          [
            [
              111.2,
              29.9
            ],
            [
              111.6,
              29.9
            ],
            [
              111.6,
              30.3
            ],
            [
              111.2,
              30.3
            ],
            [
              111.2,
              29.9
            ]
          ]
        ]
      }
    },
    {
      "type": "Feature",
      "properties": {
        "cell_id": "CEG2000_f4_r0029_c0095",
        "region_id": "湖北"
      },
      "geometry": {
        "type": "Polygon",
        "coordinates": [
          [
            [
              111.59999400000001,
              29.9
            ],
            [
              112.0,
              29.9
            ],
            [
              112.0,
              30.3
            ],
            [
              111.59999400000001,
              30.3
            ],
            [
              111.59999400000001,
              29.9
            ]
          ]
        ]
      }
    },
    {
      "type": "Feature",
      "properties": {
        "cell_id": "CEG2000_f4_r0029_c0096",
        "region_id": "湖北"
      },
      "geometry": {
        "type": "Polygon",
        "coordinates": [
          [
            [
              112.0,
              29.9
            ],
            [
              112.40000599999999,
              29.9
            ],
            [
              112.40000599999999,
              30.3
            ],
            [
              112.0,
              30.3
            ],
            [
              112.0,
              29.9
            ]
          ]
        ]
      }
    },
    {
      "type": "Feature",
      "properties": {
        "cell_id": "CEG2000_f4_r0029_c0097",
        "region_id": "湖北"
      },
      "geometry": {
        "type": "Polygon",
        "coordinates": [
          [
            [
              112.4,
              29.9
            ],
            [
              112.8,
              29.9
            ],
            [
              112.8,
              30.3
            ],
            [
              112.4,
              30.3
            ],
            [
              112.4,
              29.9
            ]
          ]
        ]
      }
    },
    {
      "type": "Feature",
      "properties": {
        "cell_id": "CEG2000_f4_r0029_c0098",
        "region_id": "湖北"
      },
      "geometry": {
        "type": "Polygon",
        "coordinates": [
          [
            [
              112.800006,
              29.9
            ],
            [
              113.199994,
              29.9
            ],
            [
              113.199994,
              30.3
            ],
            [
              112.800006,
              30.3
            ],
            [
              112.800006,
              29.9
            ]
          ]
        ]
      }
    },
    {
      "type": "Feature",
      "properties": {
        "cell_id": "CEG2000_f4_r0029_c0099",
        "region_id": "湖北"
      },
      "geometry": {
        "type": "Polygon",
        "coordinates": [
          [
            [
              113.2,
              29.9
            ],
            [
              113.6,
              29.9
            ],
            [
              113.6,
              30.3
            ],
            [
              113.2,
              30.3
            ],
            [
              113.2,
              29.9
            ]
          ]
        ]
      }
    },
    {
      "type": "Feature",
      "properties": {
        "cell_id": "CEG2000_f4_r0029_c0100",
        "region_id": "湖北"
      },
      "geometry": {
        "type": "Polygon",
        "coordinates": [
          [
            [
              113.59999400000001,
              29.9
            ],
            [
              114.0,
              29.9
            ],
            [
              114.0,
              30.3
            ],
            [
              113.59999400000001,
              30.3
            ],
            [
              113.59999400000001,
              29.9
            ]
          ]
        ]
      }
    },
    {
      "type": "Feature",
      "properties": {
        "cell_id": "CEG2000_f4_r0029_c0101",
        "region_id": "湖北"
      },
      "geometry": {
        "type": "Polygon",
        "coordinates": [
          [
            [
              114.0,
              29.9
            ],
            [
              114.40000599999999,
              29.9
            ],
            [
              114.40000599999999,
              30.3
            ],
            [
              114.0,
              30.3
            ],
            [
              114.0,
              29.9
            ]
          ]
        ]
      }
    },
    {
      "type": "Feature",
      "properties": {
        "cell_id": "CEG2000_f4_r0029_c0102",
        "region_id": "湖北"
      },
      "geometry": {
        "type": "Polygon",
        "coordinates": [
          [
            [
              114.4,
              29.9
            ],
            [
              114.8,
              29.9
            ],
            [
              114.8,
              30.3
            ],
            [
              114.4,
              30.3
            ],
            [
              114.4,
              29.9
            ]
          ]
        ]
      }
    },
    {
      "type": "Feature",
      "properties": {
        "cell_id": "CEG2000_f4_r0029_c0103",
        "region_id": "湖北"
      },
      "geometry": {
        "type": "Polygon",
        "coordinates": [
          [
            [
              114.800006,
              29.9
            ],
            [
              115.199994,
              29.9
            ],
            [
              115.199994,
              30.3
            ],
            [
              114.800006,
              30.3
            ],
            [
              114.800006,
              29.9
            ]
          ]
        ]
      }
    },
    {
      "type": "Feature",
      "properties": {
        "cell_id": "CEG2000_f4_r0029_c0104",
        "region_id": "湖北"
      },
      "geometry": {
        "type": "Polygon",
        "coordinates": [
          [
            [
              115.2,
              29.9
            ],
            [
              115.6,
              29.9
            ],
            [
              115.6,
              30.3
            ],
            [
              115.2,
              30.3
            ],
            [
              115.2,
              29.9
            ]
          ]
        ]
      }
    },
    {
      "type": "Feature",
      "properties": {
        "cell_id": "CEG2000_f4_r0029_c0105",
        "region_id": "湖北"
      },
      "geometry": {
        "type": "Polygon",
        "coordinates": [
          [
            [
              115.59999400000001,
              29.9
            ],
            [
              116.0,
              29.9
            ],
            [
              116.0,
              30.3
            ],
            [
              115.59999400000001,
              30.3
            ],
            [
              115.59999400000001,
              29.9
            ]
          ]
        ]
      }
    },
    {
      "type": "Feature",
      "properties": {
        "cell_id": "CEG2000_f4_r0029_c0106",
        "region_id": "湖北"
      },
      "geometry": {
        "type": "Polygon",
        "coordinates": [
          [
            [
              116.0,
              29.9
            ],
            [
              116.40000599999999,
              29.9
            ],
            [
              116.40000599999999,
              30.3
            ],
            [
              116.0,
              30.3
            ],
            [
              116.0,
              29.9
            ]
          ]
        ]
      }
    },
    {
      "type": "Feature",
      "properties": {
        "cell_id": "CEG2000_f4_r0030_c0087",
        "region_id": "湖北"
      },
      "geometry": {
        "type": "Polygon",
        "coordinates": [
          [
            [
              108.4,
              30.3
            ],
            [
              108.8,
              30.3
            ],
            [
              108.8,
              30.700002
            ],
            [
              108.4,
              30.700002
            ],
            [
              108.4,
              30.3
            ]
          ]
        ]
      }
    },
    {
      "type": "Feature",
      "properties": {
        "cell_id": "CEG2000_f4_r0030_c0088",
        "region_id": "湖北"
      },
      "geometry": {
        "type": "Polygon",
        "coordinates": [
          [
            [
              108.8,
              30.3
            ],
            [
              109.199994,
              30.3
            ],
            [
              109.199994,
              30.700002
            ],
            [
              108.8,
              30.700002
            ],
            [
              108.8,
              30.3
            ]
          ]
        ]
      }
    },
    {
      "type": "Feature",
      "properties": {
        "cell_id": "CEG2000_f4_r0030_c0089",
        "region_id": "湖北"
      },
      "geometry": {
        "type": "Polygon",
        "coordinates": [
          [
            [
              109.2,
              30.3
            ],
            [
              109.6,
              30.3
            ],
            [
              109.6,
              30.700002
            ],
            [
              109.2,
              30.700002
            ],
            [
              109.2,
              30.3
            ]
          ]
        ]
      }
    },
    {
      "type": "Feature",
      "properties": {
        "cell_id": "CEG2000_f4_r0030_c0090",
        "region_id": "湖北"
      },
      "geometry": {
        "type": "Polygon",
        "coordinates": [
          [
            [
              109.59999400000001,
              30.3
            ],
            [
              110.0,
              30.3
            ],
            [
              110.0,
              30.700002
            ],
            [
              109.59999400000001,
              30.700002
            ],
            [
              109.59999400000001,
              30.3
            ]
          ]
        ]
      }
    },
    {
      "type": "Feature",
      "properties": {
        "cell_id": "CEG2000_f4_r0030_c0091",
        "region_id": "湖北"
      },
      "geometry": {
        "type": "Polygon",
        "coordinates": [
          [
            [
              110.0,
              30.3
            ],
            [
              110.40000599999999,
              30.3
            ],
            [
              110.40000599999999,
              30.700002
            ],
            [
              110.0,
              30.700002
            ],
            [
              110.0,
              30.3
            ]
          ]
        ]
      }
    },
    {
      "type": "Feature",
      "properties": {
        "cell_id": "CEG2000_f4_r0030_c0092",
        "region_id": "湖北"
      },
      "geometry": {
        "type": "Polygon",
        "coordinates": [
          [
            [
              110.4,
              30.3
            ],
            [
              110.8,
              30.3
            ],
            [
              110.8,
              30.700002
            ],
            [
              110.4,
              30.700002
            ],
            [
              110.4,
              30.3
            ]
          ]
        ]
      }
    },
    {
      "type": "Feature",
      "properties": {
        "cell_id": "CEG2000_f4_r0030_c0093",
        "region_id": "湖北"
      },
      "geometry": {
        "type": "Polygon",
        "coordinates": [
          [
            [
              110.800006,
              30.3
            ],
            [
              111.199994,
              30.3
            ],
            [
              111.199994,
              30.700002
            ],
            [
              110.800006,
              30.700002
            ],
            [
              110.800006,
              30.3
            ]
          ]
        ]
      }
    },
    {
      "type": "Feature",
      "properties": {
        "cell_id": "CEG2000_f4_r0030_c0094",
        "region_id": "湖北"
      },
      "geometry": {
        "type": "Polygon",
        "coordinates": [
          [
            [
              111.2,
              30.3
            ],
            [
              111.6,
              30.3
            ],
            [
              111.6,
              30.700002
            ],
            [
              111.2,
              30.700002
            ],
            [
              111.2,
              30.3
            ]
          ]
        ]
      }
    },
    {
      "type": "Feature",
      "properties": {
        "cell_id": "CEG2000_f4_r0030_c0095",
        "region_id": "湖北"
      },
      "geometry": {
        "type": "Polygon",
        "coordinates": [
          [
            [
              111.59999400000001,
              30.3
            ],
            [
              112.0,
              30.3
            ],
            [
              112.0,
              30.700002
            ],
            [
              111.59999400000001,
              30.700002
            ],
            [
              111.59999400000001,
              30.3
            ]
          ]
        ]
      }
    },
    {
      "type": "Feature",
      "properties": {
        "cell_id": "CEG2000_f4_r0030_c0096",
        "region_id": "湖北"
      },
      "geometry": {
        "type": "Polygon",
        "coordinates": [
          [
            [
              112.0,
              30.3
            ],
            [
              112.40000599999999,
              30.3
            ],
            [
              112.40000599999999,
              30.700002
            ],
            [
              112.0,
              30.700002
            ],
            [
              112.0,
              30.3
            ]
          ]
        ]
      }
    },
    {
      "type": "Feature",
      "properties": {
        "cell_id": "CEG2000_f4_r0030_c0097",
        "region_id": "湖北"
      },
      "geometry": {
        "type": "Polygon",
        "coordinates": [
          [
            [
              112.4,
              30.3
            ],
            [
              112.8,
              30.3
            ],
            [
              112.8,
              30.700002
            ],
            [
              112.4,
              30.700002
            ],
            [
              112.4,
              30.3
            ]
          ]
        ]
      }
    },
    {
      "type": "Feature",
      "properties": {
        "cell_id": "CEG2000_f4_r0030_c0098",
        "region_id": "湖北"
      },
      "geometry": {
        "type": "Polygon",
        "coordinates": [
          [
            [
              112.800006,
              30.3
            ],
            [
              113.199994,
              30.3
            ],
            [
              113.199994,
              30.700002
            ],
            [
              112.800006,
              30.700002
            ],
            [
              112.800006,
              30.3
            ]
          ]
        ]
      }
    },
    {
      "type": "Feature",
      "properties": {
        "cell_id": "CEG2000_f4_r0030_c0099",
        "region_id": "湖北"
      },
      "geometry": {
        "type": "Polygon",
        "coordinates": [
          [
            [
              113.2,
              30.3
            ],
            [
              113.6,
              30.3
            ],
            [
              113.6,
              30.700002
            ],
            [
              113.2,
              30.700002
            ],
            [
              113.2,
              30.3
            ]
          ]
        ]
      }
    },
    {
      "type": "Feature",
      "properties": {
        "cell_id": "CEG2000_f4_r0030_c0100",
        "region_id": "湖北"
      },
      "geometry": {
        "type": "Polygon",
        "coordinates": [
          [
            [
              113.59999400000001,
              30.3
            ],
            [
              114.0,
              30.3
            ],
            [
              114.0,
              30.700002
            ],
            [
              113.59999400000001,
              30.700002
            ],
            [
              113.59999400000001,
              30.3
            ]
          ]
        ]
      }
    },
    {
      "type": "Feature",
      "properties": {
        "cell_id": "CEG2000_f4_r0030_c0101",
        "region_id": "湖北"
      },
      "geometry": {
        "type": "Polygon",
        "coordinates": [
          [
            [
              114.0,
              30.3
            ],
            [
              114.40000599999999,
              30.3
            ],
            [
              114.40000599999999,
              30.700002
            ],
            [
              114.0,
              30.700002
            ],
            [
              114.0,
              30.3
            ]
          ]
        ]
      }
    },
    {
      "type": "Feature",
      "properties": {
        "cell_id": "CEG2000_f4_r0030_c0102",
        "region_id": "湖北"
      },
      "geometry": {
        "type": "Polygon",
        "coordinates": [
          [
            [
              114.4,
              30.3
            ],
            [
              114.8,
              30.3
            ],
            [
              114.8,
              30.700002
            ],
            [
              114.4,
              30.700002
            ],
            [
              114.4,
              30.3
            ]
          ]
        ]
      }
    },
    {
      "type": "Feature",
      "properties": {
        "cell_id": "CEG2000_f4_r0030_c0103",
        "region_id": "湖北"
      },
      "geometry": {
        "type": "Polygon",
        "coordinates": [
          [
            [
              114.800006,
              30.3
            ],
            [
              115.199994,
              30.3
            ],
            [
              115.199994,
              30.700002
            ],
            [
              114.800006,
              30.700002
            ],
            [
              114.800006,
              30.3
            ]
          ]
        ]
      }
    },
    {
      "type": "Feature",
      "properties": {
        "cell_id": "CEG2000_f4_r0030_c0104",
        "region_id": "湖北"
      },
      "geometry": {
        "type": "Polygon",
        "coordinates": [
          [
            [
              115.2,
              30.3
            ],
            [
              115.6,
              30.3
            ],
            [
              115.6,
              30.700002
            ],
            [
              115.2,
              30.700002
            ],
            [
              115.2,
              30.3
            ]
          ]
        ]
      }
    },
    {
      "type": "Feature",
      "properties": {
        "cell_id": "CEG2000_f4_r0030_c0105",
        "region_id": "湖北"
      },
      "geometry": {
        "type": "Polygon",
        "coordinates": [
          [
            [
              115.59999400000001,
              30.3
            ],
            [
              116.0,
              30.3
            ],
            [
              116.0,
              30.700002
            ],
            [
              115.59999400000001,
              30.700002
            ],
            [
              115.59999400000001,
              30.3
            ]
          ]
        ]
      }
    },
    {
      "type": "Feature",
      "properties": {
        "cell_id": "CEG2000_f4_r0031_c0090",
        "region_id": "湖北"
      },
      "geometry": {
        "type": "Polygon",
        "coordinates": [
          [
            [
              109.59999400000001,
              30.7
            ],
            [
              110.0,
              30.7
            ],
            [
              110.0,
              31.1
            ],
            [
              109.59999400000001,
              31.1
            ],
            [
              109.59999400000001,
              30.7
            ]
          ]
        ]
      }
    },
    {
      "type": "Feature",
      "properties": {
        "cell_id": "CEG2000_f4_r0031_c0091",
        "region_id": "湖北"
      },
      "geometry": {
        "type": "Polygon",
        "coordinates": [
          [
            [
              110.0,
              30.7
            ],
            [
              110.40000599999999,
              30.7
            ],
            [
              110.40000599999999,
              31.1
            ],
            [
              110.0,
              31.1
            ],
            [
              110.0,
              30.7
            ]
          ]
        ]
      }
    },
    {
      "type": "Feature",
      "properties": {
        "cell_id": "CEG2000_f4_r0031_c0092",
        "region_id": "湖北"
      },
      "geometry": {
        "type": "Polygon",
        "coordinates": [
          [
            [
              110.4,
              30.7
            ],
            [
              110.8,
              30.7
            ],
            [
              110.8,
              31.1
            ],
            [
              110.4,
              31.1
            ],
            [
              110.4,
              30.7
            ]
          ]
        ]
      }
    },
    {
      "type": "Feature",
      "properties": {
        "cell_id": "CEG2000_f4_r0031_c0093",
        "region_id": "湖北"
      },
      "geometry": {
        "type": "Polygon",
        "coordinates": [
          [
            [
              110.800006,
              30.7
            ],
            [
              111.199994,
              30.7
            ],
            [
              111.199994,
              31.1
            ],
            [
              110.800006,
              31.1
            ],
            [
              110.800006,
              30.7
            ]
          ]
        ]
      }
    },
    {
      "type": "Feature",
      "properties": {
        "cell_id": "CEG2000_f4_r0031_c0094",
        "region_id": "湖北"
      },
      "geometry": {
        "type": "Polygon",
        "coordinates": [
          [
            [
              111.2,
              30.7
            ],
            [
              111.6,
              30.7
            ],
            [
              111.6,
              31.1
            ],
            [
              111.2,
              31.1
            ],
            [
              111.2,
              30.7
            ]
          ]
        ]
      }
    },
    {
      "type": "Feature",
      "properties": {
        "cell_id": "CEG2000_f4_r0031_c0095",
        "region_id": "湖北"
      },
      "geometry": {
        "type": "Polygon",
        "coordinates": [
          [
            [
              111.59999400000001,
              30.7
            ],
            [
              112.0,
              30.7
            ],
            [
              112.0,
              31.1
            ],
            [
              111.59999400000001,
              31.1
            ],
            [
              111.59999400000001,
              30.7
            ]
          ]
        ]
      }
    },
    {
      "type": "Feature",
      "properties": {
        "cell_id": "CEG2000_f4_r0031_c0096",
        "region_id": "湖北"
      },
      "geometry": {
        "type": "Polygon",
        "coordinates": [
          [
            [
              112.0,
              30.7
            ],
            [
              112.40000599999999,
              30.7
            ],
            [
              112.40000599999999,
              31.1
            ],
            [
              112.0,
              31.1
            ],
            [
              112.0,
              30.7
            ]
          ]
        ]
      }
    },
    {
      "type": "Feature",
      "properties": {
        "cell_id": "CEG2000_f4_r0031_c0097",
        "region_id": "湖北"
      },
      "geometry": {
        "type": "Polygon",
        "coordinates": [
          [
            [
              112.4,
              30.7
            ],
            [
              112.8,
              30.7
            ],
            [
              112.8,
              31.1
            ],
            [
              112.4,
              31.1
            ],
            [
              112.4,
              30.7
            ]
          ]
        ]
      }
    },
    {
      "type": "Feature",
      "properties": {
        "cell_id": "CEG2000_f4_r0031_c0098",
        "region_id": "湖北"
      },
      "geometry": {
        "type": "Polygon",
        "coordinates": [
          [
            [
              112.800006,
              30.7
            ],
            [
              113.199994,
              30.7
            ],
            [
              113.199994,
              31.1
            ],
            [
              112.800006,
              31.1
            ],
            [
              112.800006,
              30.7
            ]
          ]
        ]
      }
    },
    {
      "type": "Feature",
      "properties": {
        "cell_id": "CEG2000_f4_r0031_c0099",
        "region_id": "湖北"
      },
      "geometry": {
        "type": "Polygon",
        "coordinates": [
          [
            [
              113.2,
              30.7
            ],
            [
              113.6,
              30.7
            ],
            [
              113.6,
              31.1
            ],
            [
              113.2,
              31.1
            ],
            [
              113.2,
              30.7
            ]
          ]
        ]
      }
    },
    {
      "type": "Feature",
      "properties": {
        "cell_id": "CEG2000_f4_r0031_c0100",
        "region_id": "湖北"
      },
      "geometry": {
        "type": "Polygon",
        "coordinates": [
          [
            [
              113.59999400000001,
              30.7
            ],
            [
              114.0,
              30.7
            ],
            [
              114.0,
              31.1
            ],
            [
              113.59999400000001,
              31.1
            ],
            [
              113.59999400000001,
              30.7
            ]
          ]
        ]
      }
    },
    {
      "type": "Feature",
      "properties": {
        "cell_id": "CEG2000_f4_r0031_c0101",
        "region_id": "湖北"
      },
      "geometry": {
        "type": "Polygon",
        "coordinates": [
          [
            [
              114.0,
              30.7
            ],
            [
              114.40000599999999,
              30.7
            ],
            [
              114.40000599999999,
              31.1
            ],
            [
              114.0,
              31.1
            ],
            [
              114.0,
              30.7
            ]
          ]
        ]
      }
    },
    {
      "type": "Feature",
      "properties": {
        "cell_id": "CEG2000_f4_r0031_c0102",
        "region_id": "湖北"
      },
      "geometry": {
        "type": "Polygon",
        "coordinates": [
          [
            [
              114.4,
              30.7
            ],
            [
              114.8,
              30.7
            ],
            [
              114.8,
              31.1
            ],
            [
              114.4,
              31.1
            ],
            [
              114.4,
              30.7
            ]
          ]
        ]
      }
    },
    {
      "type": "Feature",
      "properties": {
        "cell_id": "CEG2000_f4_r0031_c0103",
        "region_id": "湖北"
      },
      "geometry": {
        "type": "Polygon",
        "coordinates": [
          [
            [
              114.800006,
              30.7
            ],
            [
              115.199994,
              30.7
            ],
            [
              115.199994,
              31.1
            ],
            [
              114.800006,
              31.1
            ],
            [
              114.800006,
              30.7
            ]
          ]
        ]
      }
    },
    {
      "type": "Feature",
      "properties": {
        "cell_id": "CEG2000_f4_r0031_c0104",
        "region_id": "湖北"
      },
      "geometry": {
        "type": "Polygon",
        "coordinates": [
          [
            [
              115.2,
              30.7
            ],
            [
              115.6,
              30.7
            ],
            [
              115.6,
              31.1
            ],
            [
              115.2,
              31.1
            ],
            [
              115.2,
              30.7
            ]
          ]
        ]
      }
    },
    {
      "type": "Feature",
      "properties": {
        "cell_id": "CEG2000_f4_r0031_c0105",
        "region_id": "湖北"
      },
      "geometry": {
        "type": "Polygon",
        "coordinates": [
          [
            [
              115.59999400000001,
              30.7
            ],
            [
              116.0,
              30.7
            ],
            [
              116.0,
              31.1
            ],
            [
              115.59999400000001,
              31.1
            ],
            [
              115.59999400000001,
              30.7
            ]
          ]
        ]
      }
    },
    {
      "type": "Feature",
      "properties": {
        "cell_id": "CEG2000_f4_r0032_c0091",
        "region_id": "湖北"
      },
      "geometry": {
        "type": "Polygon",
        "coordinates": [
          [
            [
              110.0,
              31.100002
            ],
            [
              110.40000599999999,
              31.100002
            ],
            [
              110.40000599999999,
              31.5
            ],
            [
              110.0,
              31.5
            ],
            [
              110.0,
              31.100002
            ]
          ]
        ]
      }
    },
    {
      "type": "Feature",
      "properties": {
        "cell_id": "CEG2000_f4_r0032_c0092",
        "region_id": "湖北"
      },
      "geometry": {
        "type": "Polygon",
        "coordinates": [
          [
            [
              110.4,
              31.100002
            ],
            [
              110.8,
              31.100002
            ],
            [
              110.8,
              31.5
            ],
            [
              110.4,
              31.5
            ],
            [
              110.4,
              31.100002
            ]
          ]
        ]
      }
    },
    {
      "type": "Feature",
      "properties": {
        "cell_id": "CEG2000_f4_r0032_c0093",
        "region_id": "湖北"
      },
      "geometry": {
        "type": "Polygon",
        "coordinates": [
          [
            [
              110.800006,
              31.100002
            ],
            [
              111.199994,
              31.100002
            ],
            [
              111.199994,
              31.5
            ],
            [
              110.800006,
              31.5
            ],
            [
              110.800006,
              31.100002
            ]
          ]
        ]
      }
    },
    {
      "type": "Feature",
      "properties": {
        "cell_id": "CEG2000_f4_r0032_c0094",
        "region_id": "湖北"
      },
      "geometry": {
        "type": "Polygon",
        "coordinates": [
          [
            [
              111.2,
              31.100002
            ],
            [
              111.6,
              31.100002
            ],
            [
              111.6,
              31.5
            ],
            [
              111.2,
              31.5
            ],
            [
              111.2,
              31.100002
            ]
          ]
        ]
      }
    },
    {
      "type": "Feature",
      "properties": {
        "cell_id": "CEG2000_f4_r0032_c0095",
        "region_id": "湖北"
      },
      "geometry": {
        "type": "Polygon",
        "coordinates": [
          [
            [
              111.59999400000001,
              31.100002
            ],
            [
              112.0,
              31.100002
            ],
            [
              112.0,
              31.5
            ],
            [
              111.59999400000001,
              31.5
            ],
            [
              111.59999400000001,
              31.100002
            ]
          ]
        ]
      }
    },
    {
      "type": "Feature",
      "properties": {
        "cell_id": "CEG2000_f4_r0032_c0096",
        "region_id": "湖北"
      },
      "geometry": {
        "type": "Polygon",
        "coordinates": [
          [
            [
              112.0,
              31.100002
            ],
            [
              112.40000599999999,
              31.100002
            ],
            [
              112.40000599999999,
              31.5
            ],
            [
              112.0,
              31.5
            ],
            [
              112.0,
              31.100002
            ]
          ]
        ]
      }
    },
    {
      "type": "Feature",
      "properties": {
        "cell_id": "CEG2000_f4_r0032_c0097",
        "region_id": "湖北"
      },
      "geometry": {
        "type": "Polygon",
        "coordinates": [
          [
            [
              112.4,
              31.100002
            ],
            [
              112.8,
              31.100002
            ],
            [
              112.8,
              31.5
            ],
            [
              112.4,
              31.5
            ],
            [
              112.4,
              31.100002
            ]
          ]
        ]
      }
    },
    {
      "type": "Feature",
      "properties": {
        "cell_id": "CEG2000_f4_r0032_c0098",
        "region_id": "湖北"
      },
      "geometry": {
        "type": "Polygon",
        "coordinates": [
          [
            [
              112.800006,
              31.100002
            ],
            [
              113.199994,
              31.100002
            ],
            [
              113.199994,
              31.5
            ],
            [
              112.800006,
              31.5
            ],
            [
              112.800006,
              31.100002
            ]
          ]
        ]
      }
    },
    {
      "type": "Feature",
      "properties": {
        "cell_id": "CEG2000_f4_r0032_c0099",
        "region_id": "湖北"
      },
      "geometry": {
        "type": "Polygon",
        "coordinates": [
          [
            [
              113.2,
              31.100002
            ],
            [
              113.6,
              31.100002
            ],
            [
              113.6,
              31.5
            ],
            [
              113.2,
              31.5
            ],
            [
              113.2,
              31.100002
            ]
          ]
        ]
      }
    },
    {
      "type": "Feature",
      "properties": {
        "cell_id": "CEG2000_f4_r0032_c0100",
        "region_id": "湖北"
      },
      "geometry": {
        "type": "Polygon",
        "coordinates": [
          [
            [
              113.59999400000001,
              31.100002
            ],
            [
              114.0,
              31.100002
            ],
            [
              114.0,
              31.5
            ],
            [
              113.59999400000001,
              31.5
            ],
            [
              113.59999400000001,
              31.100002
            ]
          ]
        ]
      }
    },
    {
      "type": "Feature",
      "properties": {
        "cell_id": "CEG2000_f4_r0032_c0101",
        "region_id": "湖北"
      },
      "geometry": {
        "type": "Polygon",
        "coordinates": [
          [
            [
              114.0,
              31.100002
            ],
            [
              114.40000599999999,
              31.100002
            ],
            [
              114.40000599999999,
              31.5
            ],
            [
              114.0,
              31.5
            ],
            [
              114.0,
              31.100002
            ]
          ]
        ]
      }
    },
    {
      "type": "Feature",
      "properties": {
        "cell_id": "CEG2000_f4_r0032_c0102",
        "region_id": "湖北"
      },
      "geometry": {
        "type": "Polygon",
        "coordinates": [
          [
            [
              114.4,
              31.100002
            ],
            [
              114.8,
              31.100002
            ],
            [
              114.8,
              31.5
            ],
            [
              114.4,
              31.5
            ],
            [
              114.4,
              31.100002
            ]
          ]
        ]
      }
    },
    {
      "type": "Feature",
      "properties": {
        "cell_id": "CEG2000_f4_r0032_c0103",
        "region_id": "湖北"
      },
      "geometry": {
        "type": "Polygon",
        "coordinates": [
          [
            [
              114.800006,
              31.100002
            ],
            [
              115.199994,
              31.100002
            ],
            [
              115.199994,
              31.5
            ],
            [
              114.800006,
              31.5
            ],
            [
              114.800006,
              31.100002
            ]
          ]
        ]
      }
    },
    {
      "type": "Feature",
      "properties": {
        "cell_id": "CEG2000_f4_r0032_c0104",
        "region_id": "湖北"
      },
      "geometry": {
        "type": "Polygon",
        "coordinates": [
          [
            [
              115.2,
              31.100002
            ],
            [
              115.6,
              31.100002
            ],
            [
              115.6,
              31.5
            ],
            [
              115.2,
              31.5
            ],
            [
              115.2,
              31.100002
            ]
          ]
        ]
      }
    },
    {
      "type": "Feature",
      "properties": {
        "cell_id": "CEG2000_f4_r0033_c0090",
        "region_id": "湖北"
      },
      "geometry": {
        "type": "Polygon",
        "coordinates": [
          [
            [
              109.59999400000001,
              31.5
            ],
            [
              110.0,
              31.5
            ],
            [
              110.0,
              31.900002
            ],
            [
              109.59999400000001,
              31.900002
            ],
            [
              109.59999400000001,
              31.5
            ]
          ]
        ]
      }
    },
    {
      "type": "Feature",
      "properties": {
        "cell_id": "CEG2000_f4_r0033_c0091",
        "region_id": "湖北"
      },
      "geometry": {
        "type": "Polygon",
        "coordinates": [
          [
            [
              110.0,
              31.5
            ],
            [
              110.40000599999999,
              31.5
            ],
            [
              110.40000599999999,
              31.900002
            ],
            [
              110.0,
              31.900002
            ],
            [
              110.0,
              31.5
            ]
          ]
        ]
      }
    },
    {
      "type": "Feature",
      "properties": {
        "cell_id": "CEG2000_f4_r0033_c0092",
        "region_id": "湖北"
      },
      "geometry": {
        "type": "Polygon",
        "coordinates": [
          [
            [
              110.4,
              31.5
            ],
            [
              110.8,
              31.5
            ],
            [
              110.8,
              31.900002
            ],
            [
              110.4,
              31.900002
            ],
            [
              110.4,
              31.5
            ]
          ]
        ]
      }
    },
    {
      "type": "Feature",
      "properties": {
        "cell_id": "CEG2000_f4_r0033_c0093",
        "region_id": "湖北"
      },
      "geometry": {
        "type": "Polygon",
        "coordinates": [
          [
            [
              110.800006,
              31.5
            ],
            [
              111.199994,
              31.5
            ],
            [
              111.199994,
              31.900002
            ],
            [
              110.800006,
              31.900002
            ],
            [
              110.800006,
              31.5
            ]
          ]
        ]
      }
    },
    {
      "type": "Feature",
      "properties": {
        "cell_id": "CEG2000_f4_r0033_c0094",
        "region_id": "湖北"
      },
      "geometry": {
        "type": "Polygon",
        "coordinates": [
          [
            [
              111.2,
              31.5
            ],
            [
              111.6,
              31.5
            ],
            [
              111.6,
              31.900002
            ],
            [
              111.2,
              31.900002
            ],
            [
              111.2,
              31.5
            ]
          ]
        ]
      }
    },
    {
      "type": "Feature",
      "properties": {
        "cell_id": "CEG2000_f4_r0033_c0095",
        "region_id": "湖北"
      },
      "geometry": {
        "type": "Polygon",
        "coordinates": [
          [
            [
              111.59999400000001,
              31.5
            ],
            [
              112.0,
              31.5
            ],
            [
              112.0,
              31.900002
            ],
            [
              111.59999400000001,
              31.900002
            ],
            [
              111.59999400000001,
              31.5
            ]
          ]
        ]
      }
    },
    {
      "type": "Feature",
      "properties": {
        "cell_id": "CEG2000_f4_r0033_c0096",
        "region_id": "湖北"
      },
      "geometry": {
        "type": "Polygon",
        "coordinates": [
          [
            [
              112.0,
              31.5
            ],
            [
              112.40000599999999,
              31.5
            ],
            [
              112.40000599999999,
              31.900002
            ],
            [
              112.0,
              31.900002
            ],
            [
              112.0,
              31.5
            ]
          ]
        ]
      }
    },
    {
      "type": "Feature",
      "properties": {
        "cell_id": "CEG2000_f4_r0033_c0097",
        "region_id": "湖北"
      },
      "geometry": {
        "type": "Polygon",
        "coordinates": [
          [
            [
              112.4,
              31.5
            ],
            [
              112.8,
              31.5
            ],
            [
              112.8,
              31.900002
            ],
            [
              112.4,
              31.900002
            ],
            [
              112.4,
              31.5
            ]
          ]
        ]
      }
    },
    {
      "type": "Feature",
      "properties": {
        "cell_id": "CEG2000_f4_r0033_c0098",
        "region_id": "湖北"
      },
      "geometry": {
        "type": "Polygon",
        "coordinates": [
          [
            [
              112.800006,
              31.5
            ],
            [
              113.199994,
              31.5
            ],
            [
              113.199994,
              31.900002
            ],
            [
              112.800006,
              31.900002
            ],
            [
              112.800006,
              31.5
            ]
          ]
        ]
      }
    },
    {
      "type": "Feature",
      "properties": {
        "cell_id": "CEG2000_f4_r0033_c0099",
        "region_id": "湖北"
      },
      "geometry": {
        "type": "Polygon",
        "coordinates": [
          [
            [
              113.2,
              31.5
            ],
            [
              113.6,
              31.5
            ],
            [
              113.6,
              31.900002
            ],
            [
              113.2,
              31.900002
            ],
            [
              113.2,
              31.5
            ]
          ]
        ]
      }
    },
    {
      "type": "Feature",
      "properties": {
        "cell_id": "CEG2000_f4_r0033_c0100",
        "region_id": "湖北"
      },
      "geometry": {
        "type": "Polygon",
        "coordinates": [
          [
            [
              113.59999400000001,
              31.5
            ],
            [
              114.0,
              31.5
            ],
            [
              114.0,
              31.900002
            ],
            [
              113.59999400000001,
              31.900002
            ],
            [
              113.59999400000001,
              31.5
            ]
          ]
        ]
      }
    },
    {
      "type": "Feature",
      "properties": {
        "cell_id": "CEG2000_f4_r0033_c0101",
        "region_id": "湖北"
      },
      "geometry": {
        "type": "Polygon",
        "coordinates": [
          [
            [
              114.0,
              31.5
            ],
            [
              114.40000599999999,
              31.5
            ],
            [
              114.40000599999999,
              31.900002
            ],
            [
              114.0,
              31.900002
            ],
            [
              114.0,
              31.5
            ]
          ]
        ]
      }
    },
    {
      "type": "Feature",
      "properties": {
        "cell_id": "CEG2000_f4_r0033_c0102",
        "region_id": "湖北"
      },
      "geometry": {
        "type": "Polygon",
        "coordinates": [
          [
            [
              114.4,
              31.5
            ],
            [
              114.8,
              31.5
            ],
            [
              114.8,
              31.900002
            ],
            [
              114.4,
              31.900002
            ],
            [
              114.4,
              31.5
            ]
          ]
        ]
      }
    },
    {
      "type": "Feature",
      "properties": {
        "cell_id": "CEG2000_f4_r0034_c0090",
        "region_id": "湖北"
      },
      "geometry": {
        "type": "Polygon",
        "coordinates": [
          [
            [
              109.59999400000001,
              31.9
            ],
            [
              110.0,
              31.9
            ],
            [
              110.0,
              32.3
            ],
            [
              109.59999400000001,
              32.3
            ],
            [
              109.59999400000001,
              31.9
            ]
          ]
        ]
      }
    },
    {
      "type": "Feature",
      "properties": {
        "cell_id": "CEG2000_f4_r0034_c0091",
        "region_id": "湖北"
      },
      "geometry": {
        "type": "Polygon",
        "coordinates": [
          [
            [
              110.0,
              31.9
            ],
            [
              110.40000599999999,
              31.9
            ],
            [
              110.40000599999999,
              32.3
            ],
            [
              110.0,
              32.3
            ],
            [
              110.0,
              31.9
            ]
          ]
        ]
      }
    },
    {
      "type": "Feature",
      "properties": {
        "cell_id": "CEG2000_f4_r0034_c0092",
        "region_id": "湖北"
      },
      "geometry": {
        "type": "Polygon",
        "coordinates": [
          [
            [
              110.4,
              31.9
            ],
            [
              110.8,
              31.9
            ],
            [
              110.8,
              32.3
            ],
            [
              110.4,
              32.3
            ],
            [
              110.4,
              31.9
            ]
          ]
        ]
      }
    },
    {
      "type": "Feature",
      "properties": {
        "cell_id": "CEG2000_f4_r0034_c0093",
        "region_id": "湖北"
      },
      "geometry": {
        "type": "Polygon",
        "coordinates": [
          [
            [
              110.800006,
              31.9
            ],
            [
              111.199994,
              31.9
            ],
            [
              111.199994,
              32.3
            ],
            [
              110.800006,
              32.3
            ],
            [
              110.800006,
              31.9
            ]
          ]
        ]
      }
    },
    {
      "type": "Feature",
      "properties": {
        "cell_id": "CEG2000_f4_r0034_c0094",
        "region_id": "湖北"
      },
      "geometry": {
        "type": "Polygon",
        "coordinates": [
          [
            [
              111.2,
              31.9
            ],
            [
              111.6,
              31.9
            ],
            [
              111.6,
              32.3
            ],
            [
              111.2,
              32.3
            ],
            [
              111.2,
              31.9
            ]
          ]
        ]
      }
    },
    {
      "type": "Feature",
      "properties": {
        "cell_id": "CEG2000_f4_r0034_c0095",
        "region_id": "湖北"
      },
      "geometry": {
        "type": "Polygon",
        "coordinates": [
          [
            [
              111.59999400000001,
              31.9
            ],
            [
              112.0,
              31.9
            ],
            [
              112.0,
              32.3
            ],
            [
              111.59999400000001,
              32.3
            ],
            [
              111.59999400000001,
              31.9
            ]
          ]
        ]
      }
    },
    {
      "type": "Feature",
      "properties": {
        "cell_id": "CEG2000_f4_r0034_c0096",
        "region_id": "湖北"
      },
      "geometry": {
        "type": "Polygon",
        "coordinates": [
          [
            [
              112.0,
              31.9
            ],
            [
              112.40000599999999,
              31.9
            ],
            [
              112.40000599999999,
              32.3
            ],
            [
              112.0,
              32.3
            ],
            [
              112.0,
              31.9
            ]
          ]
        ]
      }
    },
    {
      "type": "Feature",
      "properties": {
        "cell_id": "CEG2000_f4_r0034_c0097",
        "region_id": "湖北"
      },
      "geometry": {
        "type": "Polygon",
        "coordinates": [
          [
            [
              112.4,
              31.9
            ],
            [
              112.8,
              31.9
            ],
            [
              112.8,
              32.3
            ],
            [
              112.4,
              32.3
            ],
            [
              112.4,
              31.9
            ]
          ]
        ]
      }
    },
    {
      "type": "Feature",
      "properties": {
        "cell_id": "CEG2000_f4_r0034_c0098",
        "region_id": "湖北"
      },
      "geometry": {
        "type": "Polygon",
        "coordinates": [
          [
            [
              112.800006,
              31.9
            ],
            [
              113.199994,
              31.9
            ],
            [
              113.199994,
              32.3
            ],
            [
              112.800006,
              32.3
            ],
            [
              112.800006,
              31.9
            ]
          ]
        ]
      }
    },
    {
      "type": "Feature",
      "properties": {
        "cell_id": "CEG2000_f4_r0034_c0099",
        "region_id": "湖北"
      },
      "geometry": {
        "type": "Polygon",
        "coordinates": [
          [
            [
              113.2,
              31.9
            ],
            [
              113.6,
              31.9
            ],
            [
              113.6,
              32.3
            ],
            [
              113.2,
              32.3
            ],
            [
              113.2,
              31.9
            ]
          ]
        ]
      }
    },
    {
      "type": "Feature",
      "properties": {
        "cell_id": "CEG2000_f4_r0034_c0100",
        "region_id": "湖北"
      },
      "geometry": {
        "type": "Polygon",
        "coordinates": [
          [
            [
              113.59999400000001,
              31.9
            ],
            [
              114.0,
              31.9
            ],
            [
              114.0,
              32.3
            ],
            [
              113.59999400000001,
              32.3
            ],
            [
              113.59999400000001,
              31.9
            ]
          ]
        ]
      }
    },
    {
      "type": "Feature",
      "properties": {
        "cell_id": "CEG2000_f4_r0035_c0090",
        "region_id": "湖北"
      },
      "geometry": {
        "type": "Polygon",
        "coordinates": [
          [
            [
              109.59999400000001,
              32.300002000000006
            ],
            [
              110.0,
              32.300002000000006
            ],
            [
              110.0,
              32.7
            ],
            [
              109.59999400000001,
              32.7
            ],
            [
              109.59999400000001,
              32.300002000000006
            ]
          ]
        ]
      }
    },
    {
      "type": "Feature",
      "properties": {
        "cell_id": "CEG2000_f4_r0035_c0091",
        "region_id": "湖北"
      },
      "geometry": {
        "type": "Polygon",
        "coordinates": [
          [
            [
              110.0,
              32.300002000000006
            ],
            [
              110.40000599999999,
              32.300002000000006
            ],
            [
              110.40000599999999,
              32.7
            ],
            [
              110.0,
              32.7
            ],
            [
              110.0,
              32.300002000000006
            ]
          ]
        ]
      }
    },
    {
      "type": "Feature",
      "properties": {
        "cell_id": "CEG2000_f4_r0035_c0092",
        "region_id": "湖北"
      },
      "geometry": {
        "type": "Polygon",
        "coordinates": [
          [
            [
              110.4,
              32.300002000000006
            ],
            [
              110.8,
              32.300002000000006
            ],
            [
              110.8,
              32.7
            ],
            [
              110.4,
              32.7
            ],
            [
              110.4,
              32.300002000000006
            ]
          ]
        ]
      }
    },
    {
      "type": "Feature",
      "properties": {
        "cell_id": "CEG2000_f4_r0035_c0093",
        "region_id": "湖北"
      },
      "geometry": {
        "type": "Polygon",
        "coordinates": [
          [
            [
              110.800006,
              32.300002000000006
            ],
            [
              111.199994,
              32.300002000000006
            ],
            [
              111.199994,
              32.7
            ],
            [
              110.800006,
              32.7
            ],
            [
              110.800006,
              32.300002000000006
            ]
          ]
        ]
      }
    },
    {
      "type": "Feature",
      "properties": {
        "cell_id": "CEG2000_f4_r0035_c0094",
        "region_id": "湖北"
      },
      "geometry": {
        "type": "Polygon",
        "coordinates": [
          [
            [
              111.2,
              32.300002000000006
            ],
            [
              111.6,
              32.300002000000006
            ],
            [
              111.6,
              32.7
            ],
            [
              111.2,
              32.7
            ],
            [
              111.2,
              32.300002000000006
            ]
          ]
        ]
      }
    },
    {
      "type": "Feature",
      "properties": {
        "cell_id": "CEG2000_f4_r0035_c0095",
        "region_id": "湖北"
      },
      "geometry": {
        "type": "Polygon",
        "coordinates": [
          [
            [
              111.59999400000001,
              32.300002000000006
            ],
            [
              112.0,
              32.300002000000006
            ],
            [
              112.0,
              32.7
            ],
            [
              111.59999400000001,
              32.7
            ],
            [
              111.59999400000001,
              32.300002000000006
            ]
          ]
        ]
      }
    },
    {
      "type": "Feature",
      "properties": {
        "cell_id": "CEG2000_f4_r0035_c0097",
        "region_id": "湖北"
      },
      "geometry": {
        "type": "Polygon",
        "coordinates": [
          [
            [
              112.4,
              32.300002000000006
            ],
            [
              112.8,
              32.300002000000006
            ],
            [
              112.8,
              32.7
            ],
            [
              112.4,
              32.7
            ],
            [
              112.4,
              32.300002000000006
            ]
          ]
        ]
      }
    },
    {
      "type": "Feature",
      "properties": {
        "cell_id": "CEG2000_f4_r0035_c0098",
        "region_id": "湖北"
      },
      "geometry": {
        "type": "Polygon",
        "coordinates": [
          [
            [
              112.800006,
              32.300002000000006
            ],
            [
              113.199994,
              32.300002000000006
            ],
            [
              113.199994,
              32.7
            ],
            [
              112.800006,
              32.7
            ],
            [
              112.800006,
              32.300002000000006
            ]
          ]
        ]
      }
    },
    {
      "type": "Feature",
      "properties": {
        "cell_id": "CEG2000_f4_r0036_c0090",
        "region_id": "湖北"
      },
      "geometry": {
        "type": "Polygon",
        "coordinates": [
          [
            [
              109.59999400000001,
              32.7
            ],
            [
              110.0,
              32.7
            ],
            [
              110.0,
              33.099999999999994
            ],
            [
              109.59999400000001,
              33.099999999999994
            ],
            [
              109.59999400000001,
              32.7
            ]
          ]
        ]
      }
    },
    {
      "type": "Feature",
      "properties": {
        "cell_id": "CEG2000_f4_r0036_c0091",
        "region_id": "湖北"
      },
      "geometry": {
        "type": "Polygon",
        "coordinates": [
          [
            [
              110.0,
              32.7
            ],
            [
              110.40000599999999,
              32.7
            ],
            [
              110.40000599999999,
              33.099999999999994
            ],
            [
              110.0,
              33.099999999999994
            ],
            [
              110.0,
              32.7
            ]
          ]
        ]
      }
    },
    {
      "type": "Feature",
      "properties": {
        "cell_id": "CEG2000_f4_r0036_c0092",
        "region_id": "湖北"
      },
      "geometry": {
        "type": "Polygon",
        "coordinates": [
          [
            [
              110.4,
              32.7
            ],
            [
              110.8,
              32.7
            ],
            [
              110.8,
              33.099999999999994
            ],
            [
              110.4,
              33.099999999999994
            ],
            [
              110.4,
              32.7
            ]
          ]
        ]
      }
    },
    {
      "type": "Feature",
      "properties": {
        "cell_id": "CEG2000_f4_r0036_c0093",
        "region_id": "湖北"
      },
      "geometry": {
        "type": "Polygon",
        "coordinates": [
          [
            [
              110.800006,
              32.7
            ],
            [
              111.199994,
              32.7
            ],
            [
              111.199994,
              33.099999999999994
            ],
            [
              110.800006,
              33.099999999999994
            ],
            [
              110.800006,
              32.7
            ]
          ]
        ]
      }
    },
    {
      "type": "Feature",
      "properties": {
        "cell_id": "CEG2000_f4_r0036_c0094",
        "region_id": "湖北"
      },
      "geometry": {
        "type": "Polygon",
        "coordinates": [
          [
            [
              111.2,
              32.7
            ],
            [
              111.6,
              32.7
            ],
            [
              111.6,
              33.099999999999994
            ],
            [
              111.2,
              33.099999999999994
            ],
            [
              111.2,
              32.7
            ]
          ]
        ]
      }
    },
    {
      "type": "Feature",
      "properties": {
        "cell_id": "CEG2000_f4_r0037_c0090",
        "region_id": "湖北"
      },
      "geometry": {
        "type": "Polygon",
        "coordinates": [
          [
            [
              109.59999400000001,
              33.099999999999994
            ],
            [
              110.0,
              33.099999999999994
            ],
            [
              110.0,
              33.5
            ],
            [
              109.59999400000001,
              33.5
            ],
            [
              109.59999400000001,
              33.099999999999994
            ]
          ]
        ]
      }
    },
    {
      "type": "Feature",
      "properties": {
        "cell_id": "CEG2000_f4_r0037_c0091",
        "region_id": "湖北"
      },
      "geometry": {
        "type": "Polygon",
        "coordinates": [
          [
            [
              110.0,
              33.099999999999994
            ],
            [
              110.40000599999999,
              33.099999999999994
            ],
            [
              110.40000599999999,
              33.5
            ],
            [
              110.0,
              33.5
            ],
            [
              110.0,
              33.099999999999994
            ]
          ]
        ]
      }
    },
    {
      "type": "Feature",
      "properties": {
        "cell_id": "CEG2000_f4_r0037_c0092",
        "region_id": "湖北"
      },
      "geometry": {
        "type": "Polygon",
        "coordinates": [
          [
            [
              110.4,
              33.099999999999994
            ],
            [
              110.8,
              33.099999999999994
            ],
            [
              110.8,
              33.5
            ],
            [
              110.4,
              33.5
            ],
            [
              110.4,
              33.099999999999994
            ]
          ]
        ]
      }
    }
  ]
}