{
  "type": "FeatureCollection",
  "features": [
    {
      "type": "Feature",
      "properties": {
        "cell_id": "CEG2000_f4_r0013_c0108",
        "method": "Direct Polar",
        "view": "disk"
      },
      "geometry": {
        "type": "Polygon",
        "coordinates": [
          [
            [
              -0.4408341418625591,
              -0.8975885802350101
            ],
            [
              -0.3288690048257075,
              -0.9443755490613619
            ],
            [
              -0.3460686232319159,
              -0.8357492346451482
            ],
            [
              -0.5042945023059083,
              -0.8635317336056829
            ],
            [
              -0.4408341418625591,
              -0.8975885802350101
            ]
          ]
        ]
      }
    },
    {
      "type": "Feature",
      "properties": {
        "cell_id": "CEG2000_f4_r0013_c0109",
        "method": "Direct Polar",
        "view": "disk"
      },
      "geometry": {
        "type": "Polygon",
        "coordinates": [
          [
            [
              -0.32886719953646165,
              -0.9443761777327111
            ],
            [
              -0.20114438276954333,
              -0.9795616046376355
            ],
            [
              -0.20820192840090515,
              -0.8527084469815858
            ],
            [
              -0.34606578337494365,
              -0.8357475205395948
            ],
            [
              -0.32886719953646165,
              -0.9443761777327111
            ]
          ]
        ]
      }
    },
    {
      "type": "Feature",
      "properties": {
        "cell_id": "CEG2000_f4_r0014_c0108",
        "method": "Direct Polar",
        "view": "disk"
      },
      "geometry": {
        "type": "Polygon",
        "coordinates": [
          [
            [
              -0.504294502305908,
              -0.8635317336056832
            ],
            [
              -0.34606862323191606,
              -0.8357492346451496
            ],
            [
              -0.37178089687137583,
              -0.7280870595898418
            ],
            [
              -0.5843853192174004,
              -0.8114763081465639
            ],
            [
              -0.504294502305908,
              -0.8635317336056832
            ]
          ]
        ]
      }
    },
    {
      "type": "Feature",
      "properties": {
        "cell_id": "CEG2000_f4_r0014_c0109",
        "method": "Direct Polar",
        "view": "disk"
      },
      "geometry": {
        "type": "Polygon",
        "coordinates": [
          [
            [
              -0.34606578337494365,
              -0.8357475205395963
            ],
            [
              -0.2082019284009053,
              -0.8527084469815873
            ],
            [
              -0.20305781772529963,
              -0.6744006980724041
            ],
            [
              -0.3717767934576795,
              -0.7280835049746853
            ],
            [
              -0.34606578337494365,
              -0.8357475205395963
            ]
          ]
        ]
      }
    },
    {
      "type": "Feature",
      "properties": {
        "cell_id": "CEG2000_f4_r0014_c0110",
        "method": "Direct Polar",
        "view": "disk"
      },
      "geometry": {
        "type": "Polygon",
        "coordinates": [
          [
            [
              -0.20820349847678393,
              -0.8527059764304878
            ],
            [
              -0.0740476842973142,
              -0.9972547018942579
            ],
            [
              -0.07961540845911504,
              -0.8695092732150613
            ],
            [
              -0.20305966860502433,
              -0.674399805571943
            ],
            [
              -0.20820349847678393,
              -0.8527059764304878
            ]
          ]
        ]
      }
    },
    {
      "type": "Feature",
      "properties": {
        "cell_id": "CEG2000_f4_r0015_c0108",
        "method": "Direct Polar",
        "view": "disk"
      },
      "geometry": {
        "type": "Polygon",
        "coordinates": [
          [
            [
              -0.5843853192174004,
              -0.8114763081465639
            ],
            [
              -0.37178089687137583,
              -0.7280870595898418
            ],
            [
              -0.4265381444943369,
              -0.6405621659054418
            ],
            [
              -0.6513552774829563,
              -0.6935881280444447
            ],
            [
              -0.5843853192174004,
              -0.8114763081465639
            ]
          ]
        ]
      }
    },
    {
      "type": "Feature",
      "properties": {
        "cell_id": "CEG2000_f4_r0015_c0109",
        "method": "Direct Polar",
        "view": "disk"
      },
      "geometry": {
        "type": "Polygon",
        "coordinates": [
          [
            [
              -0.3717767934576795,
              -0.7280835049746853
            ],
            [
              -0.20305781772529963,
              -0.6744006980724041
            ],
            [
              -0.20047910880958575,
              -0.5105926828570887
            ],
            [
              -0.4265348132445003,
              -0.6405611058416497
            ],
            [
              -0.3717767934576795,
              -0.7280835049746853
            ]
          ]
        ]
      }
    },
    {
      "type": "Feature",
      "properties": {
        "cell_id": "CEG2000_f4_r0015_c0110",
        "method": "Direct Polar",
        "view": "disk"
      },
      "geometry": {
        "type": "Polygon",
        "coordinates": [
          [
            [
              -0.20305966860502433,
              -0.674399805571943
            ],
            [
              -0.07961540845911504,
              -0.8695092732150613
            ],
            [
              -0.07808895356018447,
              -0.6539941455208691
            ],
            [
              -0.20048189786376747,
              -0.5105944563794663
            ],
            [
              -0.20305966860502433,
              -0.674399805571943
            ]
          ]
        ]
      }
    },
    {
      "type": "Feature",
      "properties": {
        "cell_id": "CEG2000_f4_r0015_c0111",
        "method": "Direct Polar",
        "view": "disk"
      },
      "geometry": {
        "type": "Polygon",
        "coordinates": [
          [
            [
              -0.07961540845911504,
              -0.8695092732150613
            ],
            [
              0.11715723367166489,
              -0.9931133785215074
            ],
            [
              0.12566841876200818,
              -0.816888987727447
            ],
            [
              -0.07808895356018447,
              -0.6539941455208691
            ],
            [
              -0.07961540845911504,
              -0.8695092732150613
            ]
          ]
        ]
      }
    },
    {
      "type": "Feature",
      "properties": {
        "cell_id": "CEG2000_f4_r0016_c0106",
        "method": "Direct Polar",
        "view": "disk"
      },
      "geometry": {
        "type": "Polygon",
        "coordinates": [
          [
            [
              -0.8295652667776455,
              -0.5584097672463598
            ],
            [
              -0.7714308482015881,
              -0.6363131669571032
            ],
            [
              -0.7063812737012855,
              -0.405503871661492
            ],
            [
              -0.8615001623295835,
              -0.4035893789436287
            ],
            [
              -0.8295652667776455,
              -0.5584097672463598
            ]
          ]
        ]
      }
    },
    {
      "type": "Feature",
      "properties": {
        "cell_id": "CEG2000_f4_r0016_c0107",
        "method": "Direct Polar",
        "view": "disk"
      },
      "geometry": {
        "type": "Polygon",
        "coordinates": [
          [
            [
              -0.7714319041465891,
              -0.6363118867856923
            ],
            [
              -0.6513584693428986,
              -0.6935895542416066
            ],
            [
              -0.6207719591181479,
              -0.4600409480411539
            ],
            [
              -0.70638287057753,
              -0.40550341748476953
            ],
            [
              -0.7714319041465891,
              -0.6363118867856923
            ]
          ]
        ]
      }
    },
    {
      "type": "Feature",
      "properties": {
        "cell_id": "CEG2000_f4_r0016_c0108",
        "method": "Direct Polar",
        "view": "disk"
      },
      "geometry": {
        "type": "Polygon",
        "coordinates": [
          [
            [
              -0.6513550908531979,
              -0.6935889837209978
            ],
            [
              -0.4265379701534078,
              -0.640562877881276
            ],
            [
              -0.4634509968433094,
              -0.4843840216238197
            ],
            [
              -0.6207691227027167,
              -0.46004085377972487
            ],
            [
              -0.6513550908531979,
              -0.6935889837209978
            ]
          ]
        ]
      }
    },
    {
      "type": "Feature",
      "properties": {
        "cell_id": "CEG2000_f4_r0016_c0109",
        "method": "Direct Polar",
        "view": "disk"
      },
      "geometry": {
        "type": "Polygon",
        "coordinates": [
          [
            [
              -0.4265346389042065,
              -0.6405618178152154
            ],
            [
              -0.20047900739441318,
              -0.5105932007800504
            ],
            [
              -0.2368647179104888,
              -0.41984445187890956
            ],
            [
              -0.46344762118890587,
              -0.4843834749195378
            ],
            [
              -0.4265346389042065,
              -0.6405618178152154
            ]
          ]
        ]
      }
    },
    {
      "type": "Feature",
      "properties": {
        "cell_id": "CEG2000_f4_r0016_c0110",
        "method": "Direct Polar",
        "view": "disk"
      },
      "geometry": {
        "type": "Polygon",
        "coordinates": [
          [
            [
              -0.2004817964471284,
              -0.5105949743040851
            ],
            [
              -0.07808896367648903,
              -0.6539952244607207
            ],
            [
              -0.06846305695318157,
              -0.3990461489297551
            ],
            [
              -0.23686906595853127,
              -0.4198477762660979
            ],
            [
              -0.2004817964471284,
              -0.5105949743040851
            ]
          ]
        ]
      }
    },
    {
      "type": "Feature",
      "properties": {
        "cell_id": "CEG2000_f4_r0016_c0111",
        "method": "Direct Polar",
        "view": "disk"
      },
      "geometry": {
        "type": "Polygon",
        "coordinates": [
          [
            [
              -0.07808896367648903,
              -0.6539952244607207
            ],
            [
              0.12566841286604666,
              -0.816890191253539
            ],
            [
              0.1322658445538504,
              -0.5983663739065649
            ],
            [
              -0.06846305695318157,
              -0.3990461489297551
            ],
            [
              -0.07808896367648903,
              -0.6539952244607207
            ]
          ]
        ]
      }
    },
    {
      "type": "Feature",
      "properties": {
        "cell_id": "CEG2000_f4_r0016_c0112",
        "method": "Direct Polar",
        "view": "disk"
      },
      "geometry": {
        "type": "Polygon",
        "coordinates": [
          [
            [
              0.12566496147779296,
              -0.8168895195810195
            ],
            [
              0.39156302960218714,
              -0.9168592898556567
            ],
            [
              0.4155896265042951,
              -0.6772478382920225
            ],
            [
              0.13226248487263578,
              -0.5983671165371222
            ],
            [
              0.12566496147779296,
              -0.8168895195810195
            ]
          ]
        ]
      }
    },
    {
      "type": "Feature",
      "properties": {
        "cell_id": "CEG2000_f4_r0017_c0106",
        "method": "Direct Polar",
        "view": "disk"
      },
      "geometry": {
        "type": "Polygon",
        "coordinates": [
          [
            [
              -0.8615002989165198,
              -0.4035885613462629
            ],
            [
              -0.7063807625015004,
              -0.40550269243734094
            ],
            [
              -0.7958692278543456,
              -0.25727919333935717
            ],
            [
              -0.9669191403074288,
              -0.25508307687328624
            ],
            [
              -0.8615002989165198,
              -0.4035885613462629
            ]
          ]
        ]
      }
    },
    {
      "type": "Feature",
      "properties": {
        "cell_id": "CEG2000_f4_r0017_c0107",
        "method": "Direct Polar",
        "view": "disk"
      },
      "geometry": {
        "type": "Polygon",
        "coordinates": [
          [
            [
              -0.706382359375915,
              -0.40550223826155235
            ],
            [
              -0.6207720227791762,
              -0.460039990323854
            ],
            [
              -0.5484977014375209,
              -0.22890028594219775
            ],
            [
              -0.7958724165861287,
              -0.25727935437625
            ],
            [
              -0.706382359375915,
              -0.40550223826155235
            ]
          ]
        ]
      }
    },
    {
      "type": "Feature",
      "properties": {
        "cell_id": "CEG2000_f4_r0017_c0108",
        "method": "Direct Polar",
        "view": "disk"
      },
      "geometry": {
        "type": "Polygon",
        "coordinates": [
          [
            [
              -0.6207691863649029,
              -0.4600398960636946
            ],
            [
              -0.46345118247559125,
              -0.4843831575711924
            ],
            [
              -0.39118440148562156,
              -0.230236747582275
            ],
            [
              -0.5484951842914338,
              -0.22890023446531857
            ],
            [
              -0.6207691863649029,
              -0.4600398960636946
            ]
          ]
        ]
      }
    },
    {
      "type": "Feature",
      "properties": {
        "cell_id": "CEG2000_f4_r0017_c0109",
        "method": "Direct Polar",
        "view": "disk"
      },
      "geometry": {
        "type": "Polygon",
        "coordinates": [
          [
            [
              -0.4634478068215483,
              -0.4843826108696759
            ],
            [
              -0.23686511038730887,
              -0.41984423045401664
            ],
            [
              -0.26367155020869676,
              -0.2631833679881128
            ],
            [
              -0.3911827833469223,
              -0.23023721233463254
            ],
            [
              -0.4634478068215483,
              -0.4843826108696759
            ]
          ]
        ]
      }
    },
    {
      "type": "Feature",
      "properties": {
        "cell_id": "CEG2000_f4_r0017_c0110",
        "method": "Direct Polar",
        "view": "disk"
      },
      "geometry": {
        "type": "Polygon",
        "coordinates": [
          [
            [
              -0.23686945844057755,
              -0.41984755483594527
            ],
            [
              -0.06846303085822984,
              -0.399045125171708
            ],
            [
              -0.061657403459723405,
              -0.20237608643187513
            ],
            [
              -0.2636718620036434,
              -0.2631809320048558
            ],
            [
              -0.23686945844057755,
              -0.41984755483594527
            ]
          ]
        ]
      }
    },
    {
      "type": "Feature",
      "properties": {
        "cell_id": "CEG2000_f4_r0017_c0111",
        "method": "Direct Polar",
        "view": "disk"
      },
      "geometry": {
        "type": "Polygon",
        "coordinates": [
          [
            [
              -0.06846303085822984,
              -0.399045125171708
            ],
            [
              0.13226583109473677,
              -0.5983650059705455
            ],
            [
              0.13864896136740046,
              -0.3532183159582994
            ],
            [
              -0.061657403459723405,
              -0.20237608643187513
            ],
            [
              -0.06846303085822984,
              -0.399045125171708
            ]
          ]
        ]
      }
    },
    {
      "type": "Feature",
      "properties": {
        "cell_id": "CEG2000_f4_r0017_c0112",
        "method": "Direct Polar",
        "view": "disk"
      },
      "geometry": {
        "type": "Polygon",
        "coordinates": [
          [
            [
              0.13226247141454786,
              -0.5983657486024985
            ],
            [
              0.4155896856267611,
              -0.677246455285132
            ],
            [
              0.39736085118560294,
              -0.36464908724534045
            ],
            [
              0.13864451385554263,
              -0.35321639600263927
            ],
            [
              0.13226247141454786,
              -0.5983657486024985
            ]
          ]
        ]
      }
    },
    {
      "type": "Feature",
      "properties": {
        "cell_id": "CEG2000_f4_r0017_c0113",
        "method": "Direct Polar",
        "view": "disk"
      },
      "geometry": {
        "type": "Polygon",
        "coordinates": [
          [
            [
              0.41559393374786824,
              -0.6772468785692815
            ],
            [
              0.6857322316796662,
              -0.6814751121159569
            ],
            [
              0.576239582731183,
              -0.3224828305797762
            ],
            [
              0.39735672210234974,
              -0.36464179864857066
            ],
            [
              0.41559393374786824,
              -0.6772468785692815
            ]
          ]
        ]
      }
    },
    {
      "type": "Feature",
      "properties": {
        "cell_id": "CEG2000_f4_r0018_c0106",
        "method": "Direct Polar",
        "view": "disk"
      },
      "geometry": {
        "type": "Polygon",
        "coordinates": [
          [
            [
              -0.9669191403074288,
              -0.25508307687328624
            ],
            [
              -0.7958692278543456,
              -0.25727919333935717
            ],
            [
              -0.8940161899228596,
              -0.06479675562748344
            ],
            [
              -0.9982553627260816,
              -0.059044312076770966
            ],
            [
              -0.9669191403074288,
              -0.25508307687328624
            ]
          ]
        ]
      }
    },
    {
      "type": "Feature",
      "properties": {
        "cell_id": "CEG2000_f4_r0018_c0107",
        "method": "Direct Polar",
        "view": "disk"
      },
      "geometry": {
        "type": "Polygon",
        "coordinates": [
          [
            [
              -0.7958724165861287,
              -0.25727935437625
            ],
            [
              -0.5484977014375209,
              -0.22890028594219775
            ],
            [
              -0.6865936350738052,
              -0.06424158118372622
            ],
            [
              -0.8940194844237016,
              -0.0647967753502147
            ],
            [
              -0.7958724165861287,
              -0.25727935437625
            ]
          ]
        ]
      }
    },
    {
      "type": "Feature",
      "properties": {
        "cell_id": "CEG2000_f4_r0018_c0108",
        "method": "Direct Polar",
        "view": "disk"
      },
      "geometry": {
        "type": "Polygon",
        "coordinates": [
          [
            [
              -0.5484951842914338,
              -0.22890023446531857
            ],
            [
              -0.39118440148562156,
              -0.230236747582275
            ],
            [
              -0.4798578283494946,
              -0.06332141662487727
            ],
            [
              -0.6865905388106105,
              -0.0642415718478894
            ],
            [
              -0.5484951842914338,
              -0.22890023446531857
            ]
          ]
        ]
      }
    },
    {
      "type": "Feature",
      "properties": {
        "cell_id": "CEG2000_f4_r0018_c0109",
        "method": "Direct Polar",
        "view": "disk"
      },
      "geometry": {
        "type": "Polygon",
        "coordinates": [
          [
            [
              -0.3911827833469223,
              -0.23023721233463254
            ],
            [
              -0.26367155020869676,
              -0.2631833679881128
            ],
            [
              -0.27171585782741015,
              -0.060807210181499094
            ],
            [
              -0.4798547206333327,
              -0.06332139628316492
            ],
            [
              -0.3911827833469223,
              -0.23023721233463254
            ]
          ]
        ]
      }
    },
    {
      "type": "Feature",
      "properties": {
        "cell_id": "CEG2000_f4_r0018_c0110",
        "method": "Direct Polar",
        "view": "disk"
      },
      "geometry": {
        "type": "Polygon",
        "coordinates": [
          [
            [
              -0.2636718620036434,
              -0.2631809320048558
            ],
            [
              -0.061657403459723405,
              -0.20237608643187513
            ],
            [
              -0.07895325255407509,
              -0.05810170980625358
            ],
            [
              -0.2717190023335238,
              -0.06080727915585224
            ],
            [
              -0.2636718620036434,
              -0.2631809320048558
            ]
          ]
        ]
      }
    },
    {
      "type": "Feature",
      "properties": {
        "cell_id": "CEG2000_f4_r0018_c0111",
        "method": "Direct Polar",
        "view": "disk"
      },
      "geometry": {
        "type": "Polygon",
        "coordinates": [
          [
            [
              -0.061657403459723405,
              -0.20237608643187513
            ],
            [
              0.13864896136740046,
              -0.3532183159582994
            ],
            [
              0.12726231153310194,
              -0.07268944078024256
            ],
            [
              -0.07895325255407509,
              -0.05810170980625358
            ],
            [
              -0.061657403459723405,
              -0.20237608643187513
            ]
          ]
        ]
      }
    },
    {
      "type": "Feature",
      "properties": {
        "cell_id": "CEG2000_f4_r0018_c0112",
        "method": "Direct Polar",
        "view": "disk"
      },
      "geometry": {
        "type": "Polygon",
        "coordinates": [
          [
            [
              0.13864451385554263,
              -0.35321639600263927
            ],
            [
              0.39736085118560294,
              -0.36464908724534045
            ],
            [
              0.36121835842294375,
              -0.07431984471208865
            ],
            [
              0.12725980382929056,
              -0.07268994504305273
            ],
            [
              0.13864451385554263,
              -0.35321639600263927
            ]
          ]
        ]
      }
    },
    {
      "type": "Feature",
      "properties": {
        "cell_id": "CEG2000_f4_r0018_c0113",
        "method": "Direct Polar",
        "view": "disk"
      },
      "geometry": {
        "type": "Polygon",
        "coordinates": [
          [
            [
              0.39735672210234974,
              -0.36464179864857066
            ],
            [
              0.576239582731183,
              -0.3224828305797762
            ],
            [
              0.6154019620024281,
              -0.07721600205676027
            ],
            [
              0.36122219352215346,
              -0.07431992053419742
            ],
            [
              0.39735672210234974,
              -0.36464179864857066
            ]
          ]
        ]
      }
    },
    {
      "type": "Feature",
      "properties": {
        "cell_id": "CEG2000_f4_r0018_c0114",
        "method": "Direct Polar",
        "view": "disk"
      },
      "geometry": {
        "type": "Polygon",
        "coordinates": [
          [
            [
              0.5762420689935042,
              -0.32248233463427045
            ],
            [
              0.7491242872903354,
              -0.3015698136468425
            ],
            [
              0.8681485264701344,
              -0.07835612456087147
            ],
            [
              0.6154057601777695,
              -0.07721602671334984
            ],
            [
              0.5762420689935042,
              -0.32248233463427045
            ]
          ]
        ]
      }
    },
    {
      "type": "Feature",
      "properties": {
        "cell_id": "CEG2000_f4_r0019_c0107",
        "method": "Direct Polar",
        "view": "disk"
      },
      "geometry": {
        "type": "Polygon",
        "coordinates": [
          [
            [
              -0.8940194844236952,
              -0.06479677535021623
            ],
            [
              -0.6865936350738048,
              -0.06424158118372833
            ],
            [
              -0.8073786200818885,
              0.1858512350362947
            ],
            [
              -0.9844719100941031,
              0.1755421836359237
            ],
            [
              -0.8940194844236952,
              -0.06479677535021623
            ]
          ]
        ]
      }
    },
    {
      "type": "Feature",
      "properties": {
        "cell_id": "CEG2000_f4_r0019_c0108",
        "method": "Direct Polar",
        "view": "disk"
      },
      "geometry": {
        "type": "Polygon",
        "coordinates": [
          [
            [
              -0.6865905388106053,
              -0.06424157184789105
            ],
            [
              -0.47985782834949453,
              -0.06332141662487921
            ],
            [
              -0.5993922247390931,
              0.19459017161344644
            ],
            [
              -0.8073756200214506,
              0.1858513555564878
            ],
            [
              -0.6865905388106053,
              -0.06424157184789105
            ]
          ]
        ]
      }
    },
    {
      "type": "Feature",
      "properties": {
        "cell_id": "CEG2000_f4_r0019_c0109",
        "method": "Direct Polar",
        "view": "disk"
      },
      "geometry": {
        "type": "Polygon",
        "coordinates": [
          [
            [
              -0.47985472063333234,
              -0.06332139628316684
            ],
            [
              -0.2717158578274097,
              -0.06080721018150089
            ],
            [
              -0.3114717113273611,
              0.17148670675172498
            ],
            [
              -0.5993878933187832,
              0.19458996315348237
            ],
            [
              -0.47985472063333234,
              -0.06332139628316684
            ]
          ]
        ]
      }
    },
    {
      "type": "Feature",
      "properties": {
        "cell_id": "CEG2000_f4_r0019_c0110",
        "method": "Direct Polar",
        "view": "disk"
      },
      "geometry": {
        "type": "Polygon",
        "coordinates": [
          [
            [
              -0.2717190023335234,
              -0.06080727915585405
            ],
            [
              -0.0789532525540749,
              -0.05810170980625524
            ],
            [
              -0.08007156824380249,
              0.14496694256223996
            ],
            [
              -0.3114742270653686,
              0.1714863017882555
            ],
            [
              -0.2717190023335234,
              -0.06080727915585405
            ]
          ]
        ]
      }
    },
    {
      "type": "Feature",
      "properties": {
        "cell_id": "CEG2000_f4_r0019_c0111",
        "method": "Direct Polar",
        "view": "disk"
      },
      "geometry": {
        "type": "Polygon",
        "coordinates": [
          [
            [
              -0.0789532525540749,
              -0.05810170980625524
            ],
            [
              0.12726231153310222,
              -0.07268944078024496
            ],
            [
              0.11413803326344907,
              0.16038866157317902
            ],
            [
              -0.08007156824380249,
              0.14496694256223996
            ],
            [
              -0.0789532525540749,
              -0.05810170980625524
            ]
          ]
        ]
      }
    },
    {
      "type": "Feature",
      "properties": {
        "cell_id": "CEG2000_f4_r0019_c0112",
        "method": "Direct Polar",
        "view": "disk"
      },
      "geometry": {
        "type": "Polygon",
        "coordinates": [
          [
            [
              0.1272598038292909,
              -0.07268994504305513
            ],
            [
              0.36121835842294026,
              -0.07431984471209022
            ],
            [
              0.2336959228244857,
              0.11829268035586396
            ],
            [
              0.11414046068399557,
              0.16039634591029348
            ],
            [
              0.1272598038292909,
              -0.07268994504305513
            ]
          ]
        ]
      }
    },
    {
      "type": "Feature",
      "properties": {
        "cell_id": "CEG2000_f4_r0019_c0113",
        "method": "Direct Polar",
        "view": "disk"
      },
      "geometry": {
        "type": "Polygon",
        "coordinates": [
          [
            [
              0.36122219352215323,
              -0.07431992053419965
            ],
            [
              0.6154019620024278,
              -0.07721600205676261
            ],
            [
              0.4361980053448574,
              0.13464922824399198
            ],
            [
              0.23369739362792114,
              0.11829228961109028
            ],
            [
              0.36122219352215323,
              -0.07431992053419965
            ]
          ]
        ]
      }
    },
    {
      "type": "Feature",
      "properties": {
        "cell_id": "CEG2000_f4_r0019_c0114",
        "method": "Direct Polar",
        "view": "disk"
      },
      "geometry": {
        "type": "Polygon",
        "coordinates": [
          [
            [
              0.6154057601777692,
              -0.07721602671335219
            ],
            [
              0.8681485264701342,
              -0.07835612456087385
            ],
            [
              0.6067774187912454,
              0.13473489356908214
            ],
            [
              0.4362005929946054,
              0.13464923898126185
            ],
            [
              0.6154057601777692,
              -0.07721602671335219
            ]
          ]
        ]
      }
    },
    {
      "type": "Feature",
      "properties": {
        "cell_id": "CEG2000_f4_r0020_c0107",
        "method": "Direct Polar",
        "view": "disk"
      },
      "geometry": {
        "type": "Polygon",
        "coordinates": [
          [
            [
              -0.9844719100941031,
              0.1755421836359237
            ],
            [
              -0.8073786200818885,
              0.1858512350362947
            ],
            [
              -0.7460066373335592,
              0.4132497276665099
            ],
            [
              -0.9189686288473273,
              0.3943306470393383
            ],
            [
              -0.9844719100941031,
              0.1755421836359237
            ]
          ]
        ]
      }
    },
    {
      "type": "Feature",
      "properties": {
        "cell_id": "CEG2000_f4_r0020_c0108",
        "method": "Direct Polar",
        "view": "disk"
      },
      "geometry": {
        "type": "Polygon",
        "coordinates": [
          [
            [
              -0.8073756200214506,
              0.1858513555564878
            ],
            [
              -0.5993922247390931,
              0.19459017161344644
            ],
            [
              -0.5665276100123778,
              0.44260116657836557
            ],
            [
              -0.7460041159200025,
              0.4132501344699374
            ],
            [
              -0.8073756200214506,
              0.1858513555564878
            ]
          ]
        ]
      }
    },
    {
      "type": "Feature",
      "properties": {
        "cell_id": "CEG2000_f4_r0020_c0109",
        "method": "Direct Polar",
        "view": "disk"
      },
      "geometry": {
        "type": "Polygon",
        "coordinates": [
          [
            [
              -0.5993878933187832,
              0.19458996315348237
            ],
            [
              -0.3114717113273611,
              0.17148670675172498
            ],
            [
              -0.3340316235026546,
              0.4425691255578889
            ],
            [
              -0.5665247056231839,
              0.44260162176670415
            ],
            [
              -0.5993878933187832,
              0.19458996315348237
            ]
          ]
        ]
      }
    },
    {
      "type": "Feature",
      "properties": {
        "cell_id": "CEG2000_f4_r0020_c0110",
        "method": "Direct Polar",
        "view": "disk"
      },
      "geometry": {
        "type": "Polygon",
        "coordinates": [
          [
            [
              -0.3114742270653686,
              0.1714863017882555
            ],
            [
              -0.08007156824380249,
              0.14496694256223996
            ],
            [
              -0.08280198526723753,
              0.3607555926626821
            ],
            [
              -0.3340360299971905,
              0.44257034411441903
            ],
            [
              -0.3114742270653686,
              0.1714863017882555
            ]
          ]
        ]
      }
    },
    {
      "type": "Feature",
      "properties": {
        "cell_id": "CEG2000_f4_r0020_c0111",
        "method": "Direct Polar",
        "view": "disk"
      },
      "geometry": {
        "type": "Polygon",
        "coordinates": [
          [
            [
              -0.08007156824380249,
              0.14496694256223996
            ],
            [
              0.11413803326344907,
              0.16038866157317902
            ],
            [
              0.10407632487655792,
              0.3519467056779242
            ],
            [
              -0.08280198526723753,
              0.3607555926626821
            ],
            [
              -0.08007156824380249,
              0.14496694256223996
            ]
          ]
        ]
      }
    },
    {
      "type": "Feature",
      "properties": {
        "cell_id": "CEG2000_f4_r0020_c0112",
        "method": "Direct Polar",
        "view": "disk"
      },
      "geometry": {
        "type": "Polygon",
        "coordinates": [
          [
            [
              0.11414046068399557,
              0.16039634591029348
            ],
            [
              0.2336959228244857,
              0.11829268035586396
            ],
            [
              0.2697048487795582,
              0.3285316154168789
            ],
            [
              0.10407234221365969,
              0.3519426142888907
            ],
            [
              0.11414046068399557,
              0.16039634591029348
            ]
          ]
        ]
      }
    },
    {
      "type": "Feature",
      "properties": {
        "cell_id": "CEG2000_f4_r0020_c0113",
        "method": "Direct Polar",
        "view": "disk"
      },
      "geometry": {
        "type": "Polygon",
        "coordinates": [
          [
            [
              0.23369739362792114,
              0.11829228961109028
            ],
            [
              0.4361980053448574,
              0.13464922824399198
            ],
            [
              0.3967920441140812,
              0.29475747458388296
            ],
            [
              0.2697081361467396,
              0.3285324669166401
            ],
            [
              0.23369739362792114,
              0.11829228961109028
            ]
          ]
        ]
      }
    },
    {
      "type": "Feature",
      "properties": {
        "cell_id": "CEG2000_f4_r0020_c0114",
        "method": "Direct Polar",
        "view": "disk"
      },
      "geometry": {
        "type": "Polygon",
        "coordinates": [
          [
            [
              0.4362005929946054,
              0.13464923898126185
            ],
            [
              0.6067774187912454,
              0.13473489356908214
            ],
            [
              0.5426887628643968,
              0.2899901057947719
            ],
            [
              0.39679447692538056,
              0.2947575567206363
            ],
            [
              0.4362005929946054,
              0.13464923898126185
            ]
          ]
        ]
      }
    },
    {
      "type": "Feature",
      "properties": {
        "cell_id": "CEG2000_f4_r0021_c0107",
        "method": "Direct Polar",
        "view": "disk"
      },
      "geometry": {
        "type": "Polygon",
        "coordinates": [
          [
            [
              -0.9189690464277566,
              0.394329673886787
            ],
            [
              -0.7460061456097975,
              0.413248247654561
            ],
            [
              -0.7515686513201739,
              0.6596548812468341
            ],
            [
              -0.8269691408096376,
              0.562247312264425
            ],
            [
              -0.9189690464277566,
              0.394329673886787
            ]
          ]
        ]
      }
    },
    {
      "type": "Feature",
      "properties": {
        "cell_id": "CEG2000_f4_r0021_c0108",
        "method": "Direct Polar",
        "view": "disk"
      },
      "geometry": {
        "type": "Polygon",
        "coordinates": [
          [
            [
              -0.7460036241989627,
              0.41324865445711884
            ],
            [
              -0.5665273333908184,
              0.4425996570723793
            ],
            [
              -0.5764227592248293,
              0.7135276922441606
            ],
            [
              -0.7515672240171588,
              0.6596565074212047
            ],
            [
              -0.7460036241989627,
              0.41324865445711884
            ]
          ]
        ]
      }
    },
    {
      "type": "Feature",
      "properties": {
        "cell_id": "CEG2000_f4_r0021_c0109",
        "method": "Direct Polar",
        "view": "disk"
      },
      "geometry": {
        "type": "Polygon",
        "coordinates": [
          [
            [
              -0.5665244290053115,
              0.4426001122609383
            ],
            [
              -0.3340318809798441,
              0.4425681733949387
            ],
            [
              -0.2607031836237982,
              0.5472907432891789
            ],
            [
              -0.5764183329910567,
              0.7135266050251732
            ],
            [
              -0.5665244290053115,
              0.4426001122609383
            ]
          ]
        ]
      }
    },
    {
      "type": "Feature",
      "properties": {
        "cell_id": "CEG2000_f4_r0021_c0110",
        "method": "Direct Polar",
        "view": "disk"
      },
      "geometry": {
        "type": "Polygon",
        "coordinates": [
          [
            [
              -0.3340362874754477,
              0.44256939194576184
            ],
            [
              -0.08280192348090282,
              0.3607542692485239
            ],
            [
              -0.0838920247043822,
              0.5791235661180942
            ],
            [
              -0.260706112219219,
              0.5472911783793503
            ],
            [
              -0.3340362874754477,
              0.44256939194576184
            ]
          ]
        ]
      }
    },
    {
      "type": "Feature",
      "properties": {
        "cell_id": "CEG2000_f4_r0021_c0111",
        "method": "Direct Polar",
        "view": "disk"
      },
      "geometry": {
        "type": "Polygon",
        "coordinates": [
          [
            [
              -0.08280192348090282,
              0.3607542692485239
            ],
            [
              0.10407645758430156,
              0.35194612596445224
            ],
            [
              0.08787228429224565,
              0.47082022609221086
            ],
            [
              -0.0838920247043822,
              0.5791235661180942
            ],
            [
              -0.08280192348090282,
              0.3607542692485239
            ]
          ]
        ]
      }
    },
    {
      "type": "Feature",
      "properties": {
        "cell_id": "CEG2000_f4_r0021_c0112",
        "method": "Direct Polar",
        "view": "disk"
      },
      "geometry": {
        "type": "Polygon",
        "coordinates": [
          [
            [
              0.10407247491549991,
              0.35194203457936785
            ],
            [
              0.2697050616364316,
              0.3285309146458285
            ],
            [
              0.3466416452913854,
              0.6690327708845955
            ],
            [
              0.08786996267788034,
              0.47082033048127736
            ],
            [
              0.10407247491549991,
              0.35194203457936785
            ]
          ]
        ]
      }
    },
    {
      "type": "Feature",
      "properties": {
        "cell_id": "CEG2000_f4_r0021_c0113",
        "method": "Direct Polar",
        "view": "disk"
      },
      "geometry": {
        "type": "Polygon",
        "coordinates": [
          [
            [
              0.2697083490042356,
              0.3285317661413715
            ],
            [
              0.3967920993237564,
              0.29475665423861547
            ],
            [
              0.44630743277748763,
              0.5253082599676848
            ],
            [
              0.3466444913112097,
              0.6690318431905293
            ],
            [
              0.2697083490042356,
              0.3285317661413715
            ]
          ]
        ]
      }
    },
    {
      "type": "Feature",
      "properties": {
        "cell_id": "CEG2000_f4_r0021_c0114",
        "method": "Direct Polar",
        "view": "disk"
      },
      "geometry": {
        "type": "Polygon",
        "coordinates": [
          [
            [
              0.3967945321337319,
              0.2947567363739053
            ],
            [
              0.5426882245840262,
              0.2899889707349284
            ],
            [
              0.6358564362341967,
              0.5383561293241684
            ],
            [
              0.4463107264668128,
              0.5253090622805933
            ],
            [
              0.3967945321337319,
              0.2947567363739053
            ]
          ]
        ]
      }
    },
    {
      "type": "Feature",
      "properties": {
        "cell_id": "CEG2000_f4_r0021_c0115",
        "method": "Direct Polar",
        "view": "disk"
      },
      "geometry": {
        "type": "Polygon",
        "coordinates": [
          [
            [
              0.5426867153714664,
              0.28998938511228695
            ],
            [
              0.6603963985888608,
              0.2755505396030323
            ],
            [
              0.7092135080690465,
              0.46887068078312505
            ],
            [
              0.6358570621154419,
              0.5383589256878064
            ],
            [
              0.5426867153714664,
              0.28998938511228695
            ]
          ]
        ]
      }
    },
    {
      "type": "Feature",
      "properties": {
        "cell_id": "CEG2000_f4_r0022_c0108",
        "method": "Direct Polar",
        "view": "disk"
      },
      "geometry": {
        "type": "Polygon",
        "coordinates": [
          [
            [
              -0.7515666208413734,
              0.6596571946375476
            ],
            [
              -0.5764224960457228,
              0.713528682452186
            ],
            [
              -0.4480683351676489,
              0.759233571378306
            ],
            [
              -0.6397230802741416,
              0.7686054778392906
            ],
            [
              -0.7515666208413734,
              0.6596571946375476
            ]
          ]
        ]
      }
    },
    {
      "type": "Feature",
      "properties": {
        "cell_id": "CEG2000_f4_r0022_c0109",
        "method": "Direct Polar",
        "view": "disk"
      },
      "geometry": {
        "type": "Polygon",
        "coordinates": [
          [
            [
              -0.5764180698123492,
              0.7135275952296818
            ],
            [
              -0.2607031470038725,
              0.5472916758023617
            ],
            [
              -0.253539805591625,
              0.7285835437508633
            ],
            [
              -0.4480654499245392,
              0.759233355595897
            ],
            [
              -0.5764180698123492,
              0.7135275952296818
            ]
          ]
        ]
      }
    },
    {
      "type": "Feature",
      "properties": {
        "cell_id": "CEG2000_f4_r0022_c0110",
        "method": "Direct Polar",
        "view": "disk"
      },
      "geometry": {
        "type": "Polygon",
        "coordinates": [
          [
            [
              -0.2607060755994274,
              0.5472921108944192
            ],
            [
              -0.08389201634426448,
              0.5791245765059398
            ],
            [
              -0.08260273054994807,
              0.7805601984498335
            ],
            [
              -0.2535427093110522,
              0.7285842827209935
            ],
            [
              -0.2607060755994274,
              0.5472921108944192
            ]
          ]
        ]
      }
    },
    {
      "type": "Feature",
      "properties": {
        "cell_id": "CEG2000_f4_r0022_c0111",
        "method": "Direct Polar",
        "view": "disk"
      },
      "geometry": {
        "type": "Polygon",
        "coordinates": [
          [
            [
              -0.08389201634426448,
              0.5791245765059398
            ],
            [
              0.08787228564103702,
              0.47082110167063435
            ],
            [
              0.08796542392955616,
              0.6451736652963174
            ],
            [
              -0.08260273054994807,
              0.7805601984498335
            ],
            [
              -0.08389201634426448,
              0.5791245765059398
            ]
          ]
        ]
      }
    },
    {
      "type": "Feature",
      "properties": {
        "cell_id": "CEG2000_f4_r0022_c0112",
        "method": "Direct Polar",
        "view": "disk"
      },
      "geometry": {
        "type": "Polygon",
        "coordinates": [
          [
            [
              0.08786996402646172,
              0.47082120605896094
            ],
            [
              0.3466417376643984,
              0.6690341830911586
            ],
            [
              0.3225521524035186,
              0.8521735195976776
            ],
            [
              0.08796307944343701,
              0.6451736586363339
            ],
            [
              0.08786996402646172,
              0.47082120605896094
            ]
          ]
        ]
      }
    },
    {
      "type": "Feature",
      "properties": {
        "cell_id": "CEG2000_f4_r0022_c0113",
        "method": "Direct Polar",
        "view": "disk"
      },
      "geometry": {
        "type": "Polygon",
        "coordinates": [
          [
            [
              0.34664458368664186,
              0.6690332553983397
            ],
            [
              0.44630721796378997,
              0.5253089759752962
            ],
            [
              0.5273487890165418,
              0.8496489008542216
            ],
            [
              0.32255664868356965,
              0.8521772203823269
            ],
            [
              0.34664458368664186,
              0.6690332553983397
            ]
          ]
        ]
      }
    },
    {
      "type": "Feature",
      "properties": {
        "cell_id": "CEG2000_f4_r0022_c0114",
        "method": "Direct Polar",
        "view": "disk"
      },
      "geometry": {
        "type": "Polygon",
        "coordinates": [
          [
            [
              0.4463105116528284,
              0.5253097782908265
            ],
            [
              0.6358578831638557,
              0.5383583472988626
            ],
            [
              0.6229313894701419,
              0.7219585143848937
            ],
            [
              0.5273510170424608,
              0.8496475179886552
            ],
            [
              0.4463105116528284,
              0.5253097782908265
            ]
          ]
        ]
      }
    },
    {
      "type": "Feature",
      "properties": {
        "cell_id": "CEG2000_f4_r0022_c0115",
        "method": "Direct Polar",
        "view": "disk"
      },
      "geometry": {
        "type": "Polygon",
        "coordinates": [
          [
            [
              0.6358585090388134,
              0.5383611436674923
            ],
            [
              0.7092134813464083,
              0.46887152787235137
            ],
            [
              0.7414564507814353,
              0.6710009922456129
            ],
            [
              0.62292809357079,
              0.7219577339290703
            ],
            [
              0.6358585090388134,
              0.5383611436674923
            ]
          ]
        ]
      }
    },
    {
      "type": "Feature",
      "properties": {
        "cell_id": "CEG2000_f4_r0022_c0116",
        "method": "Direct Polar",
        "view": "disk"
      },
      "geometry": {
        "type": "Polygon",
        "coordinates": [
          [
            [
              0.7092134813464083,
              0.46887152787235137
            ],
            [
              0.8515446227285638,
              0.46176882875144365
            ],
            [
              0.8029590122780158,
              0.5960342478427839
            ],
            [
              0.7414564507814353,
              0.6710009922456129
            ],
            [
              0.7092134813464083,
              0.46887152787235137
            ]
          ]
        ]
      }
    },
    {
      "type": "Feature",
      "properties": {
        "cell_id": "CEG2000_f4_r0023_c0108",
        "method": "Direct Polar",
        "view": "disk"
      },
      "geometry": {
        "type": "Polygon",
        "coordinates": [
          [
            [
              -0.6397230802741416,
              0.7686054778392906
            ],
            [
              -0.4480683351676489,
              0.759233571378306
            ],
            [
              -0.4215592502605287,
              0.9068008593510379
            ],
            [
              -0.5483006628916143,
              0.836281282268482
            ],
            [
              -0.6397230802741416,
              0.7686054778392906
            ]
          ]
        ]
      }
    },
    {
      "type": "Feature",
      "properties": {
        "cell_id": "CEG2000_f4_r0023_c0109",
        "method": "Direct Polar",
        "view": "disk"
      },
      "geometry": {
        "type": "Polygon",
        "coordinates": [
          [
            [
              -0.4480654499245392,
              0.759233355595897
            ],
            [
              -0.253539805591625,
              0.7285835437508633
            ],
            [
              -0.25867518525267036,
              0.9436482165675009
            ],
            [
              -0.42155711664024703,
              0.9068018512387153
            ],
            [
              -0.4480654499245392,
              0.759233355595897
            ]
          ]
        ]
      }
    },
    {
      "type": "Feature",
      "properties": {
        "cell_id": "CEG2000_f4_r0023_c0110",
        "method": "Direct Polar",
        "view": "disk"
      },
      "geometry": {
        "type": "Polygon",
        "coordinates": [
          [
            [
              -0.2535427093110522,
              0.7285842827209935
            ],
            [
              -0.08260273054994807,
              0.7805601984498335
            ],
            [
              -0.08179983275931746,
              0.9812655776600581
            ],
            [
              -0.2586770071162099,
              0.9436450125427251
            ],
            [
              -0.2535427093110522,
              0.7285842827209935
            ]
          ]
        ]
      }
    },
    {
      "type": "Feature",
      "properties": {
        "cell_id": "CEG2000_f4_r0023_c0111",
        "method": "Direct Polar",
        "view": "disk"
      },
      "geometry": {
        "type": "Polygon",
        "coordinates": [
          [
            [
              -0.08260273054994807,
              0.7805601984498335
            ],
            [
              0.08796542392955616,
              0.6451736652963174
            ],
            [
              0.08971350529497311,
              0.835304089647235
            ],
            [
              -0.08179983275931746,
              0.9812655776600581
            ],
            [
              -0.08260273054994807,
              0.7805601984498335
            ]
          ]
        ]
      }
    },
    {
      "type": "Feature",
      "properties": {
        "cell_id": "CEG2000_f4_r0023_c0112",
        "method": "Direct Polar",
        "view": "disk"
      },
      "geometry": {
        "type": "Polygon",
        "coordinates": [
          [
            [
              0.08796307944343701,
              0.6451736586363339
            ],
            [
              0.3225521524035186,
              0.8521735195976776
            ],
            [
              0.28573000724206477,
              0.9583101601055107
            ],
            [
              0.08971156205039327,
              0.8353082508080846
            ],
            [
              0.08796307944343701,
              0.6451736586363339
            ]
          ]
        ]
      }
    },
    {
      "type": "Feature",
      "properties": {
        "cell_id": "CEG2000_f4_r0024_c0111",
        "method": "Direct Polar",
        "view": "disk"
      },
      "geometry": {
        "type": "Polygon",
        "coordinates": [
          [
            [
              -0.08179983275931753,
              0.9812655776600562
            ],
            [
              0.08971350529497311,
              0.8353040896472333
            ],
            [
              0.0882503371121468,
              0.9960983274755522
            ],
            [
              -0.0686028899015205,
              0.9976440464901095
            ],
            [
              -0.08179983275931753,
              0.9812655776600562
            ]
          ]
        ]
      }
    },
    {
      "type": "Feature",
      "properties": {
        "cell_id": "CEG2000_f4_r0024_c0112",
        "method": "Direct Polar",
        "view": "disk"
      },
      "geometry": {
        "type": "Polygon",
        "coordinates": [
          [
            [
              0.08971156205039331,
              0.8353082508080831
            ],
            [
              0.28573000724206543,
              0.9583101601055105
            ],
            [
              0.23883441478711198,
              0.9710603082781717
            ],
            [
              0.0882480042538464,
              0.9960985341547357
            ],
            [
              0.08971156205039331,
              0.8353082508080831
            ]
          ]
        ]
      }
    }
  ]
}