{
  "type": "FeatureCollection",
  "features": [
    {
      "type": "Feature",
      "properties": {
        "cell_id": "CEG2000_f4_r0013_c0108",
        "method": "Direct Polar",
        "view": "annulus"
      },
      "geometry": {
        "type": "Polygon",
        "coordinates": [
          [
            [
              -0.4408341418625591,
              -0.8975885802350101
            ],
            [
              -0.3288690048257075,
              -0.9443755490613619
            ],
            [
              -0.36359388795206243,
              -0.8780724202608537
            ],
            [
              -0.5042945023059083,
              -0.8635317336056829
            ],
            [
              -0.4408341418625591,
              -0.8975885802350101
            ]
          ]
        ]
      }
    },
    {
      "type": "Feature",
      "properties": {
        "cell_id": "CEG2000_f4_r0013_c0109",
        "method": "Direct Polar",
        "view": "annulus"
      },
      "geometry": {
        "type": "Polygon",
        "coordinates": [
          [
            [
              -0.32886719953646165,
              -0.9443761777327111
            ],
            [
              -0.20114438276954333,
              -0.9795616046376355
            ],
            [
              -0.22211971516658688,
              -0.9097099091175809
            ],
            [
              -0.36359144635667795,
              -0.8780719284598304
            ],
            [
              -0.32886719953646165,
              -0.9443761777327111
            ]
          ]
        ]
      }
    },
    {
      "type": "Feature",
      "properties": {
        "cell_id": "CEG2000_f4_r0014_c0108",
        "method": "Direct Polar",
        "view": "annulus"
      },
      "geometry": {
        "type": "Polygon",
        "coordinates": [
          [
            [
              -0.504294502305908,
              -0.8635317336056832
            ],
            [
              -0.36359388795206227,
              -0.8780724202608545
            ],
            [
              -0.4116152640838897,
              -0.8060977576607954
            ],
            [
              -0.5843853192174004,
              -0.8114763081465639
            ],
            [
              -0.504294502305908,
              -0.8635317336056832
            ]
          ]
        ]
      }
    },
    {
      "type": "Feature",
      "properties": {
        "cell_id": "CEG2000_f4_r0014_c0109",
        "method": "Direct Polar",
        "view": "annulus"
      },
      "geometry": {
        "type": "Polygon",
        "coordinates": [
          [
            [
              -0.36359144635667767,
              -0.8780719284598314
            ],
            [
              -0.22211971516658688,
              -0.9097099091175816
            ],
            [
              -0.2439781692622713,
              -0.8103063920813647
            ],
            [
              -0.41161206459268285,
              -0.8060964534426258
            ],
            [
              -0.36359144635667767,
              -0.8780719284598314
            ]
          ]
        ]
      }
    },
    {
      "type": "Feature",
      "properties": {
        "cell_id": "CEG2000_f4_r0014_c0110",
        "method": "Direct Polar",
        "view": "annulus"
      },
      "geometry": {
        "type": "Polygon",
        "coordinates": [
          [
            [
              -0.2221216532055574,
              -0.9097083505737482
            ],
            [
              -0.0740476842973142,
              -0.9972547018942579
            ],
            [
              -0.08516745757989344,
              -0.9301452517184114
            ],
            [
              -0.24398045620103911,
              -0.810305529186033
            ],
            [
              -0.2221216532055574,
              -0.9097083505737482
            ]
          ]
        ]
      }
    },
    {
      "type": "Feature",
      "properties": {
        "cell_id": "CEG2000_f4_r0015_c0108",
        "method": "Direct Polar",
        "view": "annulus"
      },
      "geometry": {
        "type": "Polygon",
        "coordinates": [
          [
            [
              -0.5843853192174004,
              -0.8114763081465639
            ],
            [
              -0.4116152640838897,
              -0.8060977576607954
            ],
            [
              -0.48783856345122945,
              -0.7326212927263008
            ],
            [
              -0.6672961135601221,
              -0.7105625428322548
            ],
            [
              -0.5843853192174004,
              -0.8114763081465639
            ]
          ]
        ]
      }
    },
    {
      "type": "Feature",
      "properties": {
        "cell_id": "CEG2000_f4_r0015_c0109",
        "method": "Direct Polar",
        "view": "annulus"
      },
      "geometry": {
        "type": "Polygon",
        "coordinates": [
          [
            [
              -0.41161206459268285,
              -0.8060964534426258
            ],
            [
              -0.2439781692622713,
              -0.8103063920813647
            ],
            [
              -0.27967822398962383,
              -0.7123019229859019
            ],
            [
              -0.48783569672844923,
              -0.7326214969146749
            ],
            [
              -0.41161206459268285,
              -0.8060964534426258
            ]
          ]
        ]
      }
    },
    {
      "type": "Feature",
      "properties": {
        "cell_id": "CEG2000_f4_r0015_c0110",
        "method": "Direct Polar",
        "view": "annulus"
      },
      "geometry": {
        "type": "Polygon",
        "coordinates": [
          [
            [
              -0.24398045620103911,
              -0.810305529186033
            ],
            [
              -0.08516745757989344,
              -0.9301452517184114
            ],
            [
              -0.09751551730552344,
              -0.8166914077815012
            ],
            [
              -0.2796812609011222,
              -0.7123022222503647
            ],
            [
              -0.24398045620103911,
              -0.810305529186033
            ]
          ]
        ]
      }
    },
    {
      "type": "Feature",
      "properties": {
        "cell_id": "CEG2000_f4_r0015_c0111",
        "method": "Direct Polar",
        "view": "annulus"
      },
      "geometry": {
        "type": "Polygon",
        "coordinates": [
          [
            [
              -0.08516745757989344,
              -0.9301452517184114
            ],
            [
              0.11715723367166489,
              -0.9931133785215074
            ],
            [
              0.13833116257619318,
              -0.8992012828778397
            ],
            [
              -0.09751551730552344,
              -0.8166914077815012
            ],
            [
              -0.08516745757989344,
              -0.9301452517184114
            ]
          ]
        ]
      }
    },
    {
      "type": "Feature",
      "properties": {
        "cell_id": "CEG2000_f4_r0016_c0106",
        "method": "Direct Polar",
        "view": "annulus"
      },
      "geometry": {
        "type": "Polygon",
        "coordinates": [
          [
            [
              -0.8295652667776455,
              -0.5584097672463598
            ],
            [
              -0.7714308482015881,
              -0.6363131669571032
            ],
            [
              -0.7836026251271633,
              -0.4498334117327482
            ],
            [
              -0.8826466702593289,
              -0.4134959423726062
            ],
            [
              -0.8295652667776455,
              -0.5584097672463598
            ]
          ]
        ]
      }
    },
    {
      "type": "Feature",
      "properties": {
        "cell_id": "CEG2000_f4_r0016_c0107",
        "method": "Direct Polar",
        "view": "annulus"
      },
      "geometry": {
        "type": "Polygon",
        "coordinates": [
          [
            [
              -0.7714319041465891,
              -0.6363118867856923
            ],
            [
              -0.6672982699115868,
              -0.7105628181070318
            ],
            [
              -0.7084465032191192,
              -0.5250146953163757
            ],
            [
              -0.7836038043229923,
              -0.4498325679206351
            ],
            [
              -0.7714319041465891,
              -0.6363118867856923
            ]
          ]
        ]
      }
    },
    {
      "type": "Feature",
      "properties": {
        "cell_id": "CEG2000_f4_r0016_c0108",
        "method": "Direct Polar",
        "view": "annulus"
      },
      "geometry": {
        "type": "Polygon",
        "coordinates": [
          [
            [
              -0.6672957510765365,
              -0.7105632370574763
            ],
            [
              -0.48783819259572925,
              -0.7326218495322482
            ],
            [
              -0.5728289276335995,
              -0.598702304147668
            ],
            [
              -0.7084444316272251,
              -0.5250154514166435
            ],
            [
              -0.6672957510765365,
              -0.7105632370574763
            ]
          ]
        ]
      }
    },
    {
      "type": "Feature",
      "properties": {
        "cell_id": "CEG2000_f4_r0016_c0109",
        "method": "Direct Polar",
        "view": "annulus"
      },
      "geometry": {
        "type": "Polygon",
        "coordinates": [
          [
            [
              -0.4878353258734146,
              -0.7326220537182042
            ],
            [
              -0.2796779401858812,
              -0.7123022830322537
            ],
            [
              -0.35902602019189966,
              -0.6363762572469626
            ],
            [
              -0.5728261059682395,
              -0.5987030401013208
            ],
            [
              -0.4878353258734146,
              -0.7326220537182042
            ]
          ]
        ]
      }
    },
    {
      "type": "Feature",
      "properties": {
        "cell_id": "CEG2000_f4_r0016_c0110",
        "method": "Direct Polar",
        "view": "annulus"
      },
      "geometry": {
        "type": "Polygon",
        "coordinates": [
          [
            [
              -0.2796809770951717,
              -0.7123025822990926
            ],
            [
              -0.09751543726757245,
              -0.8166919790151165
            ],
            [
              -0.11676693148677399,
              -0.6805917878310045
            ],
            [
              -0.35903014872063715,
              -0.6363769323058659
            ],
            [
              -0.2796809770951717,
              -0.7123025822990926
            ]
          ]
        ]
      }
    },
    {
      "type": "Feature",
      "properties": {
        "cell_id": "CEG2000_f4_r0016_c0111",
        "method": "Direct Polar",
        "view": "annulus"
      },
      "geometry": {
        "type": "Polygon",
        "coordinates": [
          [
            [
              -0.09751543726757245,
              -0.8166919790151165
            ],
            [
              0.13833105112433153,
              -0.8992019253852546
            ],
            [
              0.17237897224685325,
              -0.7798368574216108
            ],
            [
              -0.11676693148677399,
              -0.6805917878310045
            ],
            [
              -0.09751543726757245,
              -0.8166919790151165
            ]
          ]
        ]
      }
    },
    {
      "type": "Feature",
      "properties": {
        "cell_id": "CEG2000_f4_r0016_c0112",
        "method": "Direct Polar",
        "view": "annulus"
      },
      "geometry": {
        "type": "Polygon",
        "coordinates": [
          [
            [
              0.13832735692518225,
              -0.8992018683226427
            ],
            [
              0.3921339288783173,
              -0.9181960715876387
            ],
            [
              0.4671569039762247,
              -0.7612822437901307
            ],
            [
              0.1723745936531445,
              -0.7798378252745941
            ],
            [
              0.13832735692518225,
              -0.8992018683226427
            ]
          ]
        ]
      }
    },
    {
      "type": "Feature",
      "properties": {
        "cell_id": "CEG2000_f4_r0017_c0106",
        "method": "Direct Polar",
        "view": "annulus"
      },
      "geometry": {
        "type": "Polygon",
        "coordinates": [
          [
            [
              -0.8826469121597279,
              -0.413495152472123
            ],
            [
              -0.7836025846875243,
              -0.4498324059199951
            ],
            [
              -0.8705802985569362,
              -0.2814309048657639
            ],
            [
              -0.9669191403074288,
              -0.25508307687328624
            ],
            [
              -0.8826469121597279,
              -0.413495152472123
            ]
          ]
        ]
      }
    },
    {
      "type": "Feature",
      "properties": {
        "cell_id": "CEG2000_f4_r0017_c0107",
        "method": "Direct Polar",
        "view": "annulus"
      },
      "geometry": {
        "type": "Polygon",
        "coordinates": [
          [
            [
              -0.7836037638814443,
              -0.449831562108708
            ],
            [
              -0.7084468349532183,
              -0.5250137943358621
            ],
            [
              -0.7281925584989541,
              -0.3038909450751418
            ],
            [
              -0.8705821027869596,
              -0.2814305366899317
            ],
            [
              -0.7836037638814443,
              -0.449831562108708
            ]
          ]
        ]
      }
    },
    {
      "type": "Feature",
      "properties": {
        "cell_id": "CEG2000_f4_r0017_c0108",
        "method": "Direct Polar",
        "view": "annulus"
      },
      "geometry": {
        "type": "Polygon",
        "coordinates": [
          [
            [
              -0.7084447633631469,
              -0.5250145504369018
            ],
            [
              -0.572829402586005,
              -0.5987014927701526
            ],
            [
              -0.6170850186106545,
              -0.3631935402513407
            ],
            [
              -0.7281909628290862,
              -0.3038916054339314
            ],
            [
              -0.7084447633631469,
              -0.5250145504369018
            ]
          ]
        ]
      }
    },
    {
      "type": "Feature",
      "properties": {
        "cell_id": "CEG2000_f4_r0017_c0109",
        "method": "Direct Polar",
        "view": "annulus"
      },
      "geometry": {
        "type": "Polygon",
        "coordinates": [
          [
            [
              -0.5728265809218428,
              -0.5987022287265054
            ],
            [
              -0.35902661508586264,
              -0.6363759216237478
            ],
            [
              -0.47683481270942146,
              -0.4759519632797581
            ],
            [
              -0.6170835220899697,
              -0.363194894949226
            ],
            [
              -0.5728265809218428,
              -0.5987022287265054
            ]
          ]
        ]
      }
    },
    {
      "type": "Feature",
      "properties": {
        "cell_id": "CEG2000_f4_r0017_c0110",
        "method": "Direct Polar",
        "view": "annulus"
      },
      "geometry": {
        "type": "Polygon",
        "coordinates": [
          [
            [
              -0.3590307436184423,
              -0.6363765966769802
            ],
            [
              -0.11676709014431594,
              -0.6805912259283727
            ],
            [
              -0.17195373151895033,
              -0.5643981303055452
            ],
            [
              -0.4768367446473377,
              -0.47594892347183293
            ],
            [
              -0.3590307436184423,
              -0.6363765966769802
            ]
          ]
        ]
      }
    },
    {
      "type": "Feature",
      "properties": {
        "cell_id": "CEG2000_f4_r0017_c0111",
        "method": "Direct Polar",
        "view": "annulus"
      },
      "geometry": {
        "type": "Polygon",
        "coordinates": [
          [
            [
              -0.11676709014431594,
              -0.6805912259283727
            ],
            [
              0.1723791810076728,
              -0.7798360984022753
            ],
            [
              0.2474841567591609,
              -0.6304838941071511
            ],
            [
              -0.17195373151895033,
              -0.5643981303055452
            ],
            [
              -0.11676709014431594,
              -0.6805912259283727
            ]
          ]
        ]
      }
    },
    {
      "type": "Feature",
      "properties": {
        "cell_id": "CEG2000_f4_r0017_c0112",
        "method": "Direct Polar",
        "view": "annulus"
      },
      "geometry": {
        "type": "Polygon",
        "coordinates": [
          [
            [
              0.1723748024095524,
              -0.7798370662583479
            ],
            [
              0.46715733309334934,
              -0.7612812801664822
            ],
            [
              0.560283518727566,
              -0.5141595431281806
            ],
            [
              0.2474777952149115,
              -0.6304844850014648
            ],
            [
              0.1723748024095524,
              -0.7798370662583479
            ]
          ]
        ]
      }
    },
    {
      "type": "Feature",
      "properties": {
        "cell_id": "CEG2000_f4_r0017_c0113",
        "method": "Direct Polar",
        "view": "annulus"
      },
      "geometry": {
        "type": "Polygon",
        "coordinates": [
          [
            [
              0.46716129234565484,
              -0.7612804262475815
            ],
            [
              0.6970472012368487,
              -0.6927198367932296
            ],
            [
              0.7185129439464565,
              -0.40210373413406014
            ],
            [
              0.5602829231613764,
              -0.5141540623063113
            ],
            [
              0.46716129234565484,
              -0.7612804262475815
            ]
          ]
        ]
      }
    },
    {
      "type": "Feature",
      "properties": {
        "cell_id": "CEG2000_f4_r0018_c0106",
        "method": "Direct Polar",
        "view": "annulus"
      },
      "geometry": {
        "type": "Polygon",
        "coordinates": [
          [
            [
              -0.9669191403074288,
              -0.25508307687328624
            ],
            [
              -0.8705802985569362,
              -0.2814309048657639
            ],
            [
              -0.9436326199752001,
              -0.0683928691312971
            ],
            [
              -0.9982553627260816,
              -0.059044312076770966
            ],
            [
              -0.9669191403074288,
              -0.25508307687328624
            ]
          ]
        ]
      }
    },
    {
      "type": "Feature",
      "properties": {
        "cell_id": "CEG2000_f4_r0018_c0107",
        "method": "Direct Polar",
        "view": "annulus"
      },
      "geometry": {
        "type": "Polygon",
        "coordinates": [
          [
            [
              -0.8705821027869596,
              -0.2814305366899317
            ],
            [
              -0.7281925584989541,
              -0.3038909450751418
            ],
            [
              -0.8349412983859038,
              -0.07812182703694598
            ],
            [
              -0.943634341573205,
              -0.06839276269586157
            ],
            [
              -0.8705821027869596,
              -0.2814305366899317
            ]
          ]
        ]
      }
    },
    {
      "type": "Feature",
      "properties": {
        "cell_id": "CEG2000_f4_r0018_c0108",
        "method": "Direct Polar",
        "view": "annulus"
      },
      "geometry": {
        "type": "Polygon",
        "coordinates": [
          [
            [
              -0.7281909628290862,
              -0.3038916054339314
            ],
            [
              -0.6170850186106545,
              -0.3631935402513407
            ],
            [
              -0.7254007256902634,
              -0.09572293887423428
            ],
            [
              -0.8349396702276884,
              -0.07812201564341772
            ],
            [
              -0.7281909628290862,
              -0.3038916054339314
            ]
          ]
        ]
      }
    },
    {
      "type": "Feature",
      "properties": {
        "cell_id": "CEG2000_f4_r0018_c0109",
        "method": "Direct Polar",
        "view": "annulus"
      },
      "geometry": {
        "type": "Polygon",
        "coordinates": [
          [
            [
              -0.6170835220899697,
              -0.363194894949226
            ],
            [
              -0.47683481270942146,
              -0.4759519632797581
            ],
            [
              -0.6097060290028422,
              -0.1364459290338961
            ],
            [
              -0.7253990595465304,
              -0.09572330819702327
            ],
            [
              -0.6170835220899697,
              -0.363194894949226
            ]
          ]
        ]
      }
    },
    {
      "type": "Feature",
      "properties": {
        "cell_id": "CEG2000_f4_r0018_c0110",
        "method": "Direct Polar",
        "view": "annulus"
      },
      "geometry": {
        "type": "Polygon",
        "coordinates": [
          [
            [
              -0.4768367446473377,
              -0.47594892347183293
            ],
            [
              -0.17195373151895033,
              -0.5643981303055452
            ],
            [
              -0.42765633045305546,
              -0.3147123545261497
            ],
            [
              -0.6097078973394111,
              -0.13644492287491047
            ],
            [
              -0.4768367446473377,
              -0.47594892347183293
            ]
          ]
        ]
      }
    },
    {
      "type": "Feature",
      "properties": {
        "cell_id": "CEG2000_f4_r0018_c0111",
        "method": "Direct Polar",
        "view": "annulus"
      },
      "geometry": {
        "type": "Polygon",
        "coordinates": [
          [
            [
              -0.17195373151895033,
              -0.5643981303055452
            ],
            [
              0.2474841567591609,
              -0.6304838941071511
            ],
            [
              0.48297808014250004,
              -0.27586648499262717
            ],
            [
              -0.42765633045305546,
              -0.3147123545261497
            ],
            [
              -0.17195373151895033,
              -0.5643981303055452
            ]
          ]
        ]
      }
    },
    {
      "type": "Feature",
      "properties": {
        "cell_id": "CEG2000_f4_r0018_c0112",
        "method": "Direct Polar",
        "view": "annulus"
      },
      "geometry": {
        "type": "Polygon",
        "coordinates": [
          [
            [
              0.2474777952149115,
              -0.6304844850014648
            ],
            [
              0.560283518727566,
              -0.5141595431281806
            ],
            [
              0.6579854275202216,
              -0.13537898519228206
            ],
            [
              0.48297404445880465,
              -0.27587152967817935
            ],
            [
              0.2474777952149115,
              -0.6304844850014648
            ]
          ]
        ]
      }
    },
    {
      "type": "Feature",
      "properties": {
        "cell_id": "CEG2000_f4_r0018_c0113",
        "method": "Direct Polar",
        "view": "annulus"
      },
      "geometry": {
        "type": "Polygon",
        "coordinates": [
          [
            [
              0.5602829231613764,
              -0.5141540623063113
            ],
            [
              0.7185129439464565,
              -0.40210373413406014
            ],
            [
              0.7962746548184229,
              -0.09991054494552103
            ],
            [
              0.6579876050146065,
              -0.1353781339965573
            ],
            [
              0.5602829231613764,
              -0.5141540623063113
            ]
          ]
        ]
      }
    },
    {
      "type": "Feature",
      "properties": {
        "cell_id": "CEG2000_f4_r0018_c0114",
        "method": "Direct Polar",
        "view": "annulus"
      },
      "geometry": {
        "type": "Polygon",
        "coordinates": [
          [
            [
              0.7185148214565061,
              -0.4021024315307879
            ],
            [
              0.834818805653645,
              -0.3360672667021368
            ],
            [
              0.9294939978673786,
              -0.08389295754680318
            ],
            [
              0.7962766730714883,
              -0.09991021345225043
            ],
            [
              0.7185148214565061,
              -0.4021024315307879
            ]
          ]
        ]
      }
    },
    {
      "type": "Feature",
      "properties": {
        "cell_id": "CEG2000_f4_r0019_c0107",
        "method": "Direct Polar",
        "view": "annulus"
      },
      "geometry": {
        "type": "Polygon",
        "coordinates": [
          [
            [
              -0.9436343415732017,
              -0.06839276269586343
            ],
            [
              -0.8349412983859035,
              -0.07812182703694856
            ],
            [
              -0.8876038549521119,
              0.20431835642253546
            ],
            [
              -0.9844719100941031,
              0.1755421836359237
            ],
            [
              -0.9436343415732017,
              -0.06839276269586343
            ]
          ]
        ]
      }
    },
    {
      "type": "Feature",
      "properties": {
        "cell_id": "CEG2000_f4_r0019_c0108",
        "method": "Direct Polar",
        "view": "annulus"
      },
      "geometry": {
        "type": "Polygon",
        "coordinates": [
          [
            [
              -0.8349396702276856,
              -0.07812201564342008
            ],
            [
              -0.7254007256902631,
              -0.0957229388742372
            ],
            [
              -0.768227819929293,
              0.24940193941176936
            ],
            [
              -0.8876021921905959,
              0.2043188653741485
            ],
            [
              -0.8349396702276856,
              -0.07812201564342008
            ]
          ]
        ]
      }
    },
    {
      "type": "Feature",
      "properties": {
        "cell_id": "CEG2000_f4_r0019_c0109",
        "method": "Direct Polar",
        "view": "annulus"
      },
      "geometry": {
        "type": "Polygon",
        "coordinates": [
          [
            [
              -0.72539905954653,
              -0.09572330819702617
            ],
            [
              -0.6097060290028413,
              -0.13644592903390018
            ],
            [
              -0.5824478353953223,
              0.32067779356577647
            ],
            [
              -0.7682252996601905,
              0.24940265631115116
            ],
            [
              -0.72539905954653,
              -0.09572330819702617
            ]
          ]
        ]
      }
    },
    {
      "type": "Feature",
      "properties": {
        "cell_id": "CEG2000_f4_r0019_c0110",
        "method": "Direct Polar",
        "view": "annulus"
      },
      "geometry": {
        "type": "Polygon",
        "coordinates": [
          [
            [
              -0.6097078973394102,
              -0.13644492287491453
            ],
            [
              -0.4276563304530512,
              -0.3147123545261563
            ],
            [
              -0.27371386399906616,
              0.4955499545110079
            ],
            [
              -0.5824501645560196,
              0.320675728572273
            ],
            [
              -0.6097078973394102,
              -0.13644492287491453
            ]
          ]
        ]
      }
    },
    {
      "type": "Feature",
      "properties": {
        "cell_id": "CEG2000_f4_r0019_c0111",
        "method": "Direct Polar",
        "view": "annulus"
      },
      "geometry": {
        "type": "Polygon",
        "coordinates": [
          [
            [
              -0.4276563304530512,
              -0.3147123545261563
            ],
            [
              0.4829780801424971,
              -0.27586648499263394
            ],
            [
              0.3376590057783027,
              0.47448404757343166
            ],
            [
              -0.27371386399906616,
              0.4955499545110079
            ],
            [
              -0.4276563304530512,
              -0.3147123545261563
            ]
          ]
        ]
      }
    },
    {
      "type": "Feature",
      "properties": {
        "cell_id": "CEG2000_f4_r0019_c0112",
        "method": "Direct Polar",
        "view": "annulus"
      },
      "geometry": {
        "type": "Polygon",
        "coordinates": [
          [
            [
              0.4829740444588017,
              -0.2758715296781861
            ],
            [
              0.6579854275202193,
              -0.13537898519228575
            ],
            [
              0.5497826957903411,
              0.2782901298075102
            ],
            [
              0.3376553459327557,
              0.4744915461190534
            ],
            [
              0.4829740444588017,
              -0.2758715296781861
            ]
          ]
        ]
      }
    },
    {
      "type": "Feature",
      "properties": {
        "cell_id": "CEG2000_f4_r0019_c0113",
        "method": "Direct Polar",
        "view": "annulus"
      },
      "geometry": {
        "type": "Polygon",
        "coordinates": [
          [
            [
              0.6579876050146058,
              -0.13537813399656132
            ],
            [
              0.7962746548184225,
              -0.09991054494552405
            ],
            [
              0.6854682950841331,
              0.2115960545161893
            ],
            [
              0.5497842988742836,
              0.27828827055560645
            ],
            [
              0.6579876050146058,
              -0.13537813399656132
            ]
          ]
        ]
      }
    },
    {
      "type": "Feature",
      "properties": {
        "cell_id": "CEG2000_f4_r0019_c0114",
        "method": "Direct Polar",
        "view": "annulus"
      },
      "geometry": {
        "type": "Polygon",
        "coordinates": [
          [
            [
              0.796276673071488,
              -0.09991021345225347
            ],
            [
              0.9294939978673784,
              -0.08389295754680573
            ],
            [
              0.7841111352619694,
              0.17411183587931156
            ],
            [
              0.6854698741850288,
              0.21159530359633627
            ],
            [
              0.796276673071488,
              -0.09991021345225347
            ]
          ]
        ]
      }
    },
    {
      "type": "Feature",
      "properties": {
        "cell_id": "CEG2000_f4_r0020_c0107",
        "method": "Direct Polar",
        "view": "annulus"
      },
      "geometry": {
        "type": "Polygon",
        "coordinates": [
          [
            [
              -0.9844719100941031,
              0.1755421836359237
            ],
            [
              -0.8876038549521119,
              0.20431835642253546
            ],
            [
              -0.8078049753038686,
              0.44748286321575104
            ],
            [
              -0.9189686288473273,
              0.3943306470393383
            ],
            [
              -0.9844719100941031,
              0.1755421836359237
            ]
          ]
        ]
      }
    },
    {
      "type": "Feature",
      "properties": {
        "cell_id": "CEG2000_f4_r0020_c0108",
        "method": "Direct Polar",
        "view": "annulus"
      },
      "geometry": {
        "type": "Polygon",
        "coordinates": [
          [
            [
              -0.8876021921905959,
              0.2043188653741485
            ],
            [
              -0.768227819929293,
              0.24940193941176936
            ],
            [
              -0.672845580034493,
              0.5256623567629071
            ],
            [
              -0.8078032338878645,
              0.44748385150358594
            ],
            [
              -0.8876021921905959,
              0.2043188653741485
            ]
          ]
        ]
      }
    },
    {
      "type": "Feature",
      "properties": {
        "cell_id": "CEG2000_f4_r0020_c0109",
        "method": "Direct Polar",
        "view": "annulus"
      },
      "geometry": {
        "type": "Polygon",
        "coordinates": [
          [
            [
              -0.7682252996601905,
              0.24940265631115116
            ],
            [
              -0.5824478353953223,
              0.32067779356577647
            ],
            [
              -0.46286123929282386,
              0.6132595823725591
            ],
            [
              -0.6728431873268468,
              0.525663722957952
            ],
            [
              -0.7682252996601905,
              0.24940265631115116
            ]
          ]
        ]
      }
    },
    {
      "type": "Feature",
      "properties": {
        "cell_id": "CEG2000_f4_r0020_c0110",
        "method": "Direct Polar",
        "view": "annulus"
      },
      "geometry": {
        "type": "Polygon",
        "coordinates": [
          [
            [
              -0.5824501645560196,
              0.320675728572273
            ],
            [
              -0.27371386399906616,
              0.4955499545110079
            ],
            [
              -0.15043631259313484,
              0.6554280182095864
            ],
            [
              -0.4628654536482321,
              0.613258764635353
            ],
            [
              -0.5824501645560196,
              0.320675728572273
            ]
          ]
        ]
      }
    },
    {
      "type": "Feature",
      "properties": {
        "cell_id": "CEG2000_f4_r0020_c0111",
        "method": "Direct Polar",
        "view": "annulus"
      },
      "geometry": {
        "type": "Polygon",
        "coordinates": [
          [
            [
              -0.27371386399906616,
              0.4955499545110079
            ],
            [
              0.3376590057783027,
              0.47448404757343166
            ],
            [
              0.1902365806748937,
              0.6433080525025532
            ],
            [
              -0.15043631259313484,
              0.6554280182095864
            ],
            [
              -0.27371386399906616,
              0.4955499545110079
            ]
          ]
        ]
      }
    },
    {
      "type": "Feature",
      "properties": {
        "cell_id": "CEG2000_f4_r0020_c0112",
        "method": "Direct Polar",
        "view": "annulus"
      },
      "geometry": {
        "type": "Polygon",
        "coordinates": [
          [
            [
              0.3376553459327557,
              0.4744915461190534
            ],
            [
              0.5497826957903411,
              0.2782901298075102
            ],
            [
              0.4448132713726969,
              0.5418338723393938
            ],
            [
              0.1902311748706753,
              0.6433069111271066
            ],
            [
              0.3376553459327557,
              0.4744915461190534
            ]
          ]
        ]
      }
    },
    {
      "type": "Feature",
      "properties": {
        "cell_id": "CEG2000_f4_r0020_c0113",
        "method": "Direct Polar",
        "view": "annulus"
      },
      "geometry": {
        "type": "Polygon",
        "coordinates": [
          [
            [
              0.5497842988742836,
              0.27828827055560645
            ],
            [
              0.6854682950841331,
              0.2115960545161893
            ],
            [
              0.5916499928836056,
              0.4395079496347067
            ],
            [
              0.4448167269079831,
              0.5418328816649296
            ],
            [
              0.5497842988742836,
              0.27828827055560645
            ]
          ]
        ]
      }
    },
    {
      "type": "Feature",
      "properties": {
        "cell_id": "CEG2000_f4_r0020_c0114",
        "method": "Direct Polar",
        "view": "annulus"
      },
      "geometry": {
        "type": "Polygon",
        "coordinates": [
          [
            [
              0.6854698741850288,
              0.21159530359633627
            ],
            [
              0.7841111352619694,
              0.17411183587931156
            ],
            [
              0.7055473049178905,
              0.37701487776609754
            ],
            [
              0.5916520598478355,
              0.43950691285018934
            ],
            [
              0.6854698741850288,
              0.21159530359633627
            ]
          ]
        ]
      }
    },
    {
      "type": "Feature",
      "properties": {
        "cell_id": "CEG2000_f4_r0021_c0107",
        "method": "Direct Polar",
        "view": "annulus"
      },
      "geometry": {
        "type": "Polygon",
        "coordinates": [
          [
            [
              -0.9189690464277566,
              0.394329673886787
            ],
            [
              -0.8078050077160497,
              0.44748157350950973
            ],
            [
              -0.7515686513201739,
              0.6596548812468341
            ],
            [
              -0.8269691408096376,
              0.562247312264425
            ],
            [
              -0.9189690464277566,
              0.394329673886787
            ]
          ]
        ]
      }
    },
    {
      "type": "Feature",
      "properties": {
        "cell_id": "CEG2000_f4_r0021_c0108",
        "method": "Direct Polar",
        "view": "annulus"
      },
      "geometry": {
        "type": "Polygon",
        "coordinates": [
          [
            [
              -0.8078032663030899,
              0.4474825617962215
            ],
            [
              -0.6728458551394625,
              0.5256610355671222
            ],
            [
              -0.6013770924762873,
              0.744417533999107
            ],
            [
              -0.7515672240171588,
              0.6596565074212047
            ],
            [
              -0.8078032663030899,
              0.4474825617962215
            ]
          ]
        ]
      }
    },
    {
      "type": "Feature",
      "properties": {
        "cell_id": "CEG2000_f4_r0021_c0109",
        "method": "Direct Polar",
        "view": "annulus"
      },
      "geometry": {
        "type": "Polygon",
        "coordinates": [
          [
            [
              -0.6728434624359586,
              0.5256624017627344
            ],
            [
              -0.4628619115252899,
              0.6132586809287167
            ],
            [
              -0.3419909223522656,
              0.717937017456651
            ],
            [
              -0.6013736674010585,
              0.7444178762074044
            ],
            [
              -0.6728434624359586,
              0.5256624017627344
            ]
          ]
        ]
      }
    },
    {
      "type": "Feature",
      "properties": {
        "cell_id": "CEG2000_f4_r0021_c0110",
        "method": "Direct Polar",
        "view": "annulus"
      },
      "geometry": {
        "type": "Polygon",
        "coordinates": [
          [
            [
              -0.4628661258807545,
              0.6132578631846782
            ],
            [
              -0.15043657855158452,
              0.655427261615992
            ],
            [
              -0.11243853344991522,
              0.7761858733301276
            ],
            [
              -0.3419942014639324,
              0.7179364071093014
            ],
            [
              -0.4628661258807545,
              0.6132578631846782
            ]
          ]
        ]
      }
    },
    {
      "type": "Feature",
      "properties": {
        "cell_id": "CEG2000_f4_r0021_c0111",
        "method": "Direct Polar",
        "view": "annulus"
      },
      "geometry": {
        "type": "Polygon",
        "coordinates": [
          [
            [
              -0.15043657855158452,
              0.655427261615992
            ],
            [
              0.19023701546577942,
              0.6433076428834908
            ],
            [
              0.13375849089666275,
              0.7166787961978254
            ],
            [
              -0.11243853344991522,
              0.7761858733301276
            ],
            [
              -0.15043657855158452,
              0.655427261615992
            ]
          ]
        ]
      }
    },
    {
      "type": "Feature",
      "properties": {
        "cell_id": "CEG2000_f4_r0021_c0112",
        "method": "Direct Polar",
        "view": "annulus"
      },
      "geometry": {
        "type": "Polygon",
        "coordinates": [
          [
            [
              0.19023160965109687,
              0.6433065015151661
            ],
            [
              0.4448139137514034,
              0.5418330714494807
            ],
            [
              0.40107322547507296,
              0.7740879810954401
            ],
            [
              0.1337550164014303,
              0.7166792736274007
            ],
            [
              0.19023160965109687,
              0.6433065015151661
            ]
          ]
        ]
      }
    },
    {
      "type": "Feature",
      "properties": {
        "cell_id": "CEG2000_f4_r0021_c0113",
        "method": "Direct Polar",
        "view": "annulus"
      },
      "geometry": {
        "type": "Polygon",
        "coordinates": [
          [
            [
              0.444817369285953,
              0.5418320807695047
            ],
            [
              0.5916504219966001,
              0.43950698404478455
            ],
            [
              0.5428683898501718,
              0.6389614609125934
            ],
            [
              0.401076376084631,
              0.774086633072081
            ],
            [
              0.444817369285953,
              0.5418320807695047
            ]
          ]
        ]
      }
    },
    {
      "type": "Feature",
      "properties": {
        "cell_id": "CEG2000_f4_r0021_c0114",
        "method": "Direct Polar",
        "view": "annulus"
      },
      "geometry": {
        "type": "Polygon",
        "coordinates": [
          [
            [
              0.5916524889579549,
              0.4395059472592956
            ],
            [
              0.7055472997994969,
              0.37701377329587704
            ],
            [
              0.6969787707518531,
              0.5901061495348041
            ],
            [
              0.5428711589370625,
              0.6389609806109208
            ],
            [
              0.5916524889579549,
              0.4395059472592956
            ]
          ]
        ]
      }
    },
    {
      "type": "Feature",
      "properties": {
        "cell_id": "CEG2000_f4_r0021_c0115",
        "method": "Direct Polar",
        "view": "annulus"
      },
      "geometry": {
        "type": "Polygon",
        "coordinates": [
          [
            [
              0.7055461191380779,
              0.3770147296072343
            ],
            [
              0.7863912192329339,
              0.3281219056641542
            ],
            [
              0.7691984284520904,
              0.5085275261995285
            ],
            [
              0.6969784522710486,
              0.590108364203508
            ],
            [
              0.7055461191380779,
              0.3770147296072343
            ]
          ]
        ]
      }
    },
    {
      "type": "Feature",
      "properties": {
        "cell_id": "CEG2000_f4_r0022_c0108",
        "method": "Direct Polar",
        "view": "annulus"
      },
      "geometry": {
        "type": "Polygon",
        "coordinates": [
          [
            [
              -0.7515666208413734,
              0.6596571946375476
            ],
            [
              -0.6013766189937371,
              0.7444183208528256
            ],
            [
              -0.47695566523304855,
              0.8081819773506477
            ],
            [
              -0.6397230802741416,
              0.7686054778392906
            ],
            [
              -0.7515666208413734,
              0.6596571946375476
            ]
          ]
        ]
      }
    },
    {
      "type": "Feature",
      "properties": {
        "cell_id": "CEG2000_f4_r0022_c0109",
        "method": "Direct Polar",
        "view": "annulus"
      },
      "geometry": {
        "type": "Polygon",
        "coordinates": [
          [
            [
              -0.601373193918333,
              0.7444186630579295
            ],
            [
              -0.34199059300436147,
              0.7179376501781172
            ],
            [
              -0.289596895175531,
              0.832198840154058
            ],
            [
              -0.47695305119852016,
              0.8081825224063587
            ],
            [
              -0.601373193918333,
              0.7444186630579295
            ]
          ]
        ]
      }
    },
    {
      "type": "Feature",
      "properties": {
        "cell_id": "CEG2000_f4_r0022_c0110",
        "method": "Direct Polar",
        "view": "annulus"
      },
      "geometry": {
        "type": "Polygon",
        "coordinates": [
          [
            [
              -0.3419938721146561,
              0.7179370398339779
            ],
            [
              -0.11243840479391687,
              0.7761864167391941
            ],
            [
              -0.0934673246346941,
              0.8832259294541892
            ],
            [
              -0.28959987396313186,
              0.8321987132694922
            ],
            [
              -0.3419938721146561,
              0.7179370398339779
            ]
          ]
        ]
      }
    },
    {
      "type": "Feature",
      "properties": {
        "cell_id": "CEG2000_f4_r0022_c0111",
        "method": "Direct Polar",
        "view": "annulus"
      },
      "geometry": {
        "type": "Polygon",
        "coordinates": [
          [
            [
              -0.11243840479391687,
              0.7761864167391941
            ],
            [
              0.13375833464409304,
              0.7166792807919278
            ],
            [
              0.11058709295535948,
              0.8110900500361384
            ],
            [
              -0.0934673246346941,
              0.8832259294541892
            ],
            [
              -0.11243840479391687,
              0.7761864167391941
            ]
          ]
        ]
      }
    },
    {
      "type": "Feature",
      "properties": {
        "cell_id": "CEG2000_f4_r0022_c0112",
        "method": "Direct Polar",
        "view": "annulus"
      },
      "geometry": {
        "type": "Polygon",
        "coordinates": [
          [
            [
              0.13375486015251067,
              0.7166797582196364
            ],
            [
              0.40107295243628693,
              0.7740888817980592
            ],
            [
              0.337645147572764,
              0.8920487792070326
            ],
            [
              0.1105841777459207,
              0.8110902778193892
            ],
            [
              0.13375486015251067,
              0.7166797582196364
            ]
          ]
        ]
      }
    },
    {
      "type": "Feature",
      "properties": {
        "cell_id": "CEG2000_f4_r0022_c0113",
        "method": "Direct Polar",
        "view": "annulus"
      },
      "geometry": {
        "type": "Polygon",
        "coordinates": [
          [
            [
              0.401076103045978,
              0.7740875337775281
            ],
            [
              0.5428679452477662,
              0.638962116071029
            ],
            [
              0.5273487890165418,
              0.8496489008542216
            ],
            [
              0.33764891197553654,
              0.8920501637363595
            ],
            [
              0.401076103045978,
              0.7740875337775281
            ]
          ]
        ]
      }
    },
    {
      "type": "Feature",
      "properties": {
        "cell_id": "CEG2000_f4_r0022_c0114",
        "method": "Direct Polar",
        "view": "annulus"
      },
      "geometry": {
        "type": "Polygon",
        "coordinates": [
          [
            [
              0.5428707143350096,
              0.6389616357719485
            ],
            [
              0.6969792410516121,
              0.5901076360760773
            ],
            [
              0.6374951065220881,
              0.7388374190355139
            ],
            [
              0.5273510170424608,
              0.8496475179886552
            ],
            [
              0.5428707143350096,
              0.6389616357719485
            ]
          ]
        ]
      }
    },
    {
      "type": "Feature",
      "properties": {
        "cell_id": "CEG2000_f4_r0022_c0115",
        "method": "Direct Polar",
        "view": "annulus"
      },
      "geometry": {
        "type": "Polygon",
        "coordinates": [
          [
            [
              0.6969789225666504,
              0.5901098507470226
            ],
            [
              0.769198189952828,
              0.5085283064207168
            ],
            [
              0.7414564507814353,
              0.6710009922456129
            ],
            [
              0.6374926359185024,
              0.7388376661356812
            ],
            [
              0.6969789225666504,
              0.5901098507470226
            ]
          ]
        ]
      }
    },
    {
      "type": "Feature",
      "properties": {
        "cell_id": "CEG2000_f4_r0022_c0116",
        "method": "Direct Polar",
        "view": "annulus"
      },
      "geometry": {
        "type": "Polygon",
        "coordinates": [
          [
            [
              0.769198189952828,
              0.5085283064207168
            ],
            [
              0.8647563279608701,
              0.46893316692949827
            ],
            [
              0.8029590122780158,
              0.5960342478427839
            ],
            [
              0.7414564507814353,
              0.6710009922456129
            ],
            [
              0.769198189952828,
              0.5085283064207168
            ]
          ]
        ]
      }
    },
    {
      "type": "Feature",
      "properties": {
        "cell_id": "CEG2000_f4_r0023_c0108",
        "method": "Direct Polar",
        "view": "annulus"
      },
      "geometry": {
        "type": "Polygon",
        "coordinates": [
          [
            [
              -0.6397230802741416,
              0.7686054778392906
            ],
            [
              -0.47695566523304855,
              0.8081819773506477
            ],
            [
              -0.4215592502605287,
              0.9068008593510379
            ],
            [
              -0.5483006628916143,
              0.836281282268482
            ],
            [
              -0.6397230802741416,
              0.7686054778392906
            ]
          ]
        ]
      }
    },
    {
      "type": "Feature",
      "properties": {
        "cell_id": "CEG2000_f4_r0023_c0109",
        "method": "Direct Polar",
        "view": "annulus"
      },
      "geometry": {
        "type": "Polygon",
        "coordinates": [
          [
            [
              -0.47695305119852016,
              0.8081825224063587
            ],
            [
              -0.289596895175531,
              0.832198840154058
            ],
            [
              -0.2614085011085689,
              0.9536193648638281
            ],
            [
              -0.42155711664024703,
              0.9068018512387153
            ],
            [
              -0.47695305119852016,
              0.8081825224063587
            ]
          ]
        ]
      }
    },
    {
      "type": "Feature",
      "properties": {
        "cell_id": "CEG2000_f4_r0023_c0110",
        "method": "Direct Polar",
        "view": "annulus"
      },
      "geometry": {
        "type": "Polygon",
        "coordinates": [
          [
            [
              -0.28959987396313186,
              0.8321987132694922
            ],
            [
              -0.0934673246346941,
              0.8832259294541892
            ],
            [
              -0.08241115386069543,
              0.9885989466101444
            ],
            [
              -0.2614106805095956,
              0.9536173610415241
            ],
            [
              -0.28959987396313186,
              0.8321987132694922
            ]
          ]
        ]
      }
    },
    {
      "type": "Feature",
      "properties": {
        "cell_id": "CEG2000_f4_r0023_c0111",
        "method": "Direct Polar",
        "view": "annulus"
      },
      "geometry": {
        "type": "Polygon",
        "coordinates": [
          [
            [
              -0.0934673246346941,
              0.8832259294541892
            ],
            [
              0.11058709295535948,
              0.8110900500361384
            ],
            [
              0.09790929317032693,
              0.9116133934433032
            ],
            [
              -0.08241115386069543,
              0.9885989466101444
            ],
            [
              -0.0934673246346941,
              0.8832259294541892
            ]
          ]
        ]
      }
    },
    {
      "type": "Feature",
      "properties": {
        "cell_id": "CEG2000_f4_r0023_c0112",
        "method": "Direct Polar",
        "view": "annulus"
      },
      "geometry": {
        "type": "Polygon",
        "coordinates": [
          [
            [
              0.1105841777459207,
              0.8110902778193892
            ],
            [
              0.337645147572764,
              0.8920487792070326
            ],
            [
              0.28573000724206477,
              0.9583101601055107
            ],
            [
              0.09790693263094526,
              0.9116157022436034
            ],
            [
              0.1105841777459207,
              0.8110902778193892
            ]
          ]
        ]
      }
    },
    {
      "type": "Feature",
      "properties": {
        "cell_id": "CEG2000_f4_r0024_c0111",
        "method": "Direct Polar",
        "view": "annulus"
      },
      "geometry": {
        "type": "Polygon",
        "coordinates": [
          [
            [
              -0.08241115386069557,
              0.9885989466101435
            ],
            [
              0.09790929317032704,
              0.9116133934433023
            ],
            [
              0.0882503371121468,
              0.9960983274755522
            ],
            [
              -0.0686028899015205,
              0.9976440464901095
            ],
            [
              -0.08241115386069557,
              0.9885989466101435
            ]
          ]
        ]
      }
    },
    {
      "type": "Feature",
      "properties": {
        "cell_id": "CEG2000_f4_r0024_c0112",
        "method": "Direct Polar",
        "view": "annulus"
      },
      "geometry": {
        "type": "Polygon",
        "coordinates": [
          [
            [
              0.0979069326309454,
              0.9116157022436027
            ],
            [
              0.28573000724206543,
              0.9583101601055105
            ],
            [
              0.23883441478711198,
              0.9710603082781717
            ],
            [
              0.0882480042538464,
              0.9960985341547357
            ],
            [
              0.0979069326309454,
              0.9116157022436027
            ]
          ]
        ]
      }
    }
  ]
}