{
  "type": "FeatureCollection",
  "features": [
    {
      "type": "Feature",
      "properties": {
        "cell_id": "CEG2000_f4_r0015_c0102",
        "method": "Direct Polar",
        "view": "annulus"
      },
      "geometry": {
        "type": "Polygon",
        "coordinates": [
          [
            [
              -0.2896039845325683,
              -0.9571465572956213
            ],
            [
              -0.18234055089792248,
              -0.9832354364536716
            ],
            [
              -0.20553945391846415,
              -0.9622063877282874
            ],
            [
              -0.32142597392379196,
              -0.9222605984527386
            ],
            [
              -0.2896039845325683,
              -0.9571465572956213
            ]
          ]
        ]
      }
    },
    {
      "type": "Feature",
      "properties": {
        "cell_id": "CEG2000_f4_r0016_c0102",
        "method": "Direct Polar",
        "view": "annulus"
      },
      "geometry": {
        "type": "Polygon",
        "coordinates": [
          [
            [
              -0.3214258546770305,
              -0.9222609565879529
            ],
            [
              -0.2055393902016064,
              -0.962206820064949
            ],
            [
              -0.22030296032237118,
              -0.8747009982448347
            ],
            [
              -0.3484917617031206,
              -0.8480695184416384
            ],
            [
              -0.3214258546770305,
              -0.9222609565879529
            ]
          ]
        ]
      }
    },
    {
      "type": "Feature",
      "properties": {
        "cell_id": "CEG2000_f4_r0016_c0103",
        "method": "Direct Polar",
        "view": "annulus"
      },
      "geometry": {
        "type": "Polygon",
        "coordinates": [
          [
            [
              -0.20553759804086563,
              -0.9622075455203557
            ],
            [
              -0.07846490792585739,
              -0.996916876286176
            ],
            [
              -0.08541365948055854,
              -0.9204002539735612
            ],
            [
              -0.2203010796595356,
              -0.874701817441873
            ],
            [
              -0.20553759804086563,
              -0.9622075455203557
            ]
          ]
        ]
      }
    },
    {
      "type": "Feature",
      "properties": {
        "cell_id": "CEG2000_f4_r0016_c0104",
        "method": "Direct Polar",
        "view": "annulus"
      },
      "geometry": {
        "type": "Polygon",
        "coordinates": [
          [
            [
              -0.0784629029807618,
              -0.9969170340885101
            ],
            [
              0.05594625077210235,
              -0.995460334243935
            ],
            [
              0.06056198753126407,
              -0.9139427947365644
            ],
            [
              -0.0854115131709539,
              -0.9204007896593895
            ],
            [
              -0.0784629029807618,
              -0.9969170340885101
            ]
          ]
        ]
      }
    },
    {
      "type": "Feature",
      "properties": {
        "cell_id": "CEG2000_f4_r0016_c0105",
        "method": "Direct Polar",
        "view": "annulus"
      },
      "geometry": {
        "type": "Polygon",
        "coordinates": [
          [
            [
              0.055944276835148014,
              -0.9954610545473239
            ],
            [
              0.18771122995296297,
              -0.9822242585833165
            ],
            [
              0.21981602852670104,
              -0.9755413438715699
            ],
            [
              0.06055985667694315,
              -0.9139435456756496
            ],
            [
              0.055944276835148014,
              -0.9954610545473239
            ]
          ]
        ]
      }
    },
    {
      "type": "Feature",
      "properties": {
        "cell_id": "CEG2000_f4_r0017_c0101",
        "method": "Direct Polar",
        "view": "annulus"
      },
      "geometry": {
        "type": "Polygon",
        "coordinates": [
          [
            [
              -0.4951943826559875,
              -0.8687822071071412
            ],
            [
              -0.3484899566297556,
              -0.848069290601499
            ],
            [
              -0.42846906816404506,
              -0.8560023899714321
            ],
            [
              -0.5557343108364677,
              -0.8004180071461311
            ],
            [
              -0.4951943826559875,
              -0.8687822071071412
            ]
          ]
        ]
      }
    },
    {
      "type": "Feature",
      "properties": {
        "cell_id": "CEG2000_f4_r0017_c0102",
        "method": "Direct Polar",
        "view": "annulus"
      },
      "geometry": {
        "type": "Polygon",
        "coordinates": [
          [
            [
              -0.348491915004505,
              -0.848069132251146
            ],
            [
              -0.2203030457786756,
              -0.8747005544460721
            ],
            [
              -0.240542039548809,
              -0.7840510137427678
            ],
            [
              -0.4284708873005764,
              -0.8560010540543689
            ],
            [
              -0.348491915004505,
              -0.848069132251146
            ]
          ]
        ]
      }
    },
    {
      "type": "Feature",
      "properties": {
        "cell_id": "CEG2000_f4_r0017_c0103",
        "method": "Direct Polar",
        "view": "annulus"
      },
      "geometry": {
        "type": "Polygon",
        "coordinates": [
          [
            [
              -0.2203011651153574,
              -0.8747013736436748
            ],
            [
              -0.08541369745829987,
              -0.9203998392021168
            ],
            [
              -0.09462967281598626,
              -0.8371259052865543
            ],
            [
              -0.2405400551350581,
              -0.7840519730299413
            ],
            [
              -0.2203011651153574,
              -0.8747013736436748
            ]
          ]
        ]
      }
    },
    {
      "type": "Feature",
      "properties": {
        "cell_id": "CEG2000_f4_r0017_c0104",
        "method": "Direct Polar",
        "view": "annulus"
      },
      "geometry": {
        "type": "Polygon",
        "coordinates": [
          [
            [
              -0.08541155114778769,
              -0.9204003748882099
            ],
            [
              0.06056201470769616,
              -0.9139423866262544
            ],
            [
              0.06716950237843272,
              -0.8321566100770188
            ],
            [
              -0.09462730818003129,
              -0.8371265097882244
            ],
            [
              -0.08541155114778769,
              -0.9204003748882099
            ]
          ]
        ]
      }
    },
    {
      "type": "Feature",
      "properties": {
        "cell_id": "CEG2000_f4_r0017_c0105",
        "method": "Direct Polar",
        "view": "annulus"
      },
      "geometry": {
        "type": "Polygon",
        "coordinates": [
          [
            [
              0.06055988385245385,
              -0.9139431375655289
            ],
            [
              0.21981621581369723,
              -0.975541301670691
            ],
            [
              0.25509002035079115,
              -0.9293810940422591
            ],
            [
              0.0671671484557719,
              -0.8321574104620875
            ],
            [
              0.06055988385245385,
              -0.9139431375655289
            ]
          ]
        ]
      }
    },
    {
      "type": "Feature",
      "properties": {
        "cell_id": "CEG2000_f4_r0018_c0101",
        "method": "Direct Polar",
        "view": "annulus"
      },
      "geometry": {
        "type": "Polygon",
        "coordinates": [
          [
            [
              -0.5557343108364677,
              -0.8004180071461311
            ],
            [
              -0.42846906816404506,
              -0.8560023899714321
            ],
            [
              -0.457315491950102,
              -0.7143613234193368
            ],
            [
              -0.6561111211456002,
              -0.7388793957058353
            ],
            [
              -0.5557343108364677,
              -0.8004180071461311
            ]
          ]
        ]
      }
    },
    {
      "type": "Feature",
      "properties": {
        "cell_id": "CEG2000_f4_r0018_c0102",
        "method": "Direct Polar",
        "view": "annulus"
      },
      "geometry": {
        "type": "Polygon",
        "coordinates": [
          [
            [
              -0.4284708873005764,
              -0.8560010540543689
            ],
            [
              -0.240542039548809,
              -0.7840510137427678
            ],
            [
              -0.27666638502524793,
              -0.7051089779031084
            ],
            [
              -0.45731805606045967,
              -0.7143611809426637
            ],
            [
              -0.4284708873005764,
              -0.8560010540543689
            ]
          ]
        ]
      }
    },
    {
      "type": "Feature",
      "properties": {
        "cell_id": "CEG2000_f4_r0018_c0103",
        "method": "Direct Polar",
        "view": "annulus"
      },
      "geometry": {
        "type": "Polygon",
        "coordinates": [
          [
            [
              -0.2405400551350581,
              -0.7840519730299413
            ],
            [
              -0.09462967281598626,
              -0.8371259052865543
            ],
            [
              -0.10882571531566153,
              -0.7527339268522799
            ],
            [
              -0.2766638953862192,
              -0.7051093125111578
            ],
            [
              -0.2405400551350581,
              -0.7840519730299413
            ]
          ]
        ]
      }
    },
    {
      "type": "Feature",
      "properties": {
        "cell_id": "CEG2000_f4_r0018_c0104",
        "method": "Direct Polar",
        "view": "annulus"
      },
      "geometry": {
        "type": "Polygon",
        "coordinates": [
          [
            [
              -0.09462730818003129,
              -0.8371265097882244
            ],
            [
              0.06716950237843272,
              -0.8321566100770188
            ],
            [
              0.07740386743981012,
              -0.7497942647246163
            ],
            [
              -0.10882302258682146,
              -0.7527346546992519
            ],
            [
              -0.09462730818003129,
              -0.8371265097882244
            ]
          ]
        ]
      }
    },
    {
      "type": "Feature",
      "properties": {
        "cell_id": "CEG2000_f4_r0018_c0105",
        "method": "Direct Polar",
        "view": "annulus"
      },
      "geometry": {
        "type": "Polygon",
        "coordinates": [
          [
            [
              0.0671671484557719,
              -0.8321574104620875
            ],
            [
              0.25509002035079115,
              -0.9293810940422591
            ],
            [
              0.3024245695209524,
              -0.861517202050871
            ],
            [
              0.07740117227360728,
              -0.7497951545915446
            ],
            [
              0.0671671484557719,
              -0.8321574104620875
            ]
          ]
        ]
      }
    },
    {
      "type": "Feature",
      "properties": {
        "cell_id": "CEG2000_f4_r0018_c0106",
        "method": "Direct Polar",
        "view": "annulus"
      },
      "geometry": {
        "type": "Polygon",
        "coordinates": [
          [
            [
              0.25509002035079115,
              -0.9293810940422591
            ],
            [
              0.42404887879961456,
              -0.9056393036903764
            ],
            [
              0.5137667095328745,
              -0.8579299319733301
            ],
            [
              0.3024245695209524,
              -0.861517202050871
            ],
            [
              0.25509002035079115,
              -0.9293810940422591
            ]
          ]
        ]
      }
    },
    {
      "type": "Feature",
      "properties": {
        "cell_id": "CEG2000_f4_r0019_c0101",
        "method": "Direct Polar",
        "view": "annulus"
      },
      "geometry": {
        "type": "Polygon",
        "coordinates": [
          [
            [
              -0.6561111211455992,
              -0.738879395705836
            ],
            [
              -0.45731549195010107,
              -0.7143613234193374
            ],
            [
              -0.5618955989782903,
              -0.6328826343007177
            ],
            [
              -0.7762999130926788,
              -0.6303637401788744
            ],
            [
              -0.6561111211455992,
              -0.738879395705836
            ]
          ]
        ]
      }
    },
    {
      "type": "Feature",
      "properties": {
        "cell_id": "CEG2000_f4_r0019_c0102",
        "method": "Direct Polar",
        "view": "annulus"
      },
      "geometry": {
        "type": "Polygon",
        "coordinates": [
          [
            [
              -0.4573180560604592,
              -0.7143611809426643
            ],
            [
              -0.27666638502524754,
              -0.7051089779031092
            ],
            [
              -0.35650132576800814,
              -0.6551285519874768
            ],
            [
              -0.5618990707853312,
              -0.6328828699968548
            ],
            [
              -0.4573180560604592,
              -0.7143611809426643
            ]
          ]
        ]
      }
    },
    {
      "type": "Feature",
      "properties": {
        "cell_id": "CEG2000_f4_r0019_c0103",
        "method": "Direct Polar",
        "view": "annulus"
      },
      "geometry": {
        "type": "Polygon",
        "coordinates": [
          [
            [
              -0.2766638953862187,
              -0.7051093125111584
            ],
            [
              -0.10882571531566138,
              -0.7527339268522812
            ],
            [
              -0.1334195376257154,
              -0.6654185763323535
            ],
            [
              -0.356498901924429,
              -0.6551303039966742
            ],
            [
              -0.2766638953862187,
              -0.7051093125111584
            ]
          ]
        ]
      }
    },
    {
      "type": "Feature",
      "properties": {
        "cell_id": "CEG2000_f4_r0019_c0104",
        "method": "Direct Polar",
        "view": "annulus"
      },
      "geometry": {
        "type": "Polygon",
        "coordinates": [
          [
            [
              -0.10882302258682124,
              -0.7527346546992527
            ],
            [
              0.07740386743981001,
              -0.7497942647246169
            ],
            [
              0.09866637494498946,
              -0.6891506262674563
            ],
            [
              -0.13341630579451944,
              -0.665419566060008
            ],
            [
              -0.10882302258682124,
              -0.7527346546992527
            ]
          ]
        ]
      }
    },
    {
      "type": "Feature",
      "properties": {
        "cell_id": "CEG2000_f4_r0019_c0105",
        "method": "Direct Polar",
        "view": "annulus"
      },
      "geometry": {
        "type": "Polygon",
        "coordinates": [
          [
            [
              0.07740117227360704,
              -0.7497951545915454
            ],
            [
              0.3024245695209522,
              -0.8615172020508721
            ],
            [
              0.37477995104043543,
              -0.7698192410215291
            ],
            [
              0.09866277470837918,
              -0.6891502936083727
            ],
            [
              0.07740117227360704,
              -0.7497951545915454
            ]
          ]
        ]
      }
    },
    {
      "type": "Feature",
      "properties": {
        "cell_id": "CEG2000_f4_r0019_c0106",
        "method": "Direct Polar",
        "view": "annulus"
      },
      "geometry": {
        "type": "Polygon",
        "coordinates": [
          [
            [
              0.3024245695209522,
              -0.8615172020508721
            ],
            [
              0.5137667095328736,
              -0.8579299319733308
            ],
            [
              0.6323070017644739,
              -0.7613412841301026
            ],
            [
              0.37477995104043543,
              -0.7698192410215291
            ],
            [
              0.3024245695209522,
              -0.8615172020508721
            ]
          ]
        ]
      }
    },
    {
      "type": "Feature",
      "properties": {
        "cell_id": "CEG2000_f4_r0020_c0101",
        "method": "Direct Polar",
        "view": "annulus"
      },
      "geometry": {
        "type": "Polygon",
        "coordinates": [
          [
            [
              -0.7762999130926788,
              -0.6303637401788744
            ],
            [
              -0.5618955989782903,
              -0.6328826343007177
            ],
            [
              -0.7171317641570364,
              -0.495245578023248
            ],
            [
              -0.8666258673830783,
              -0.43146684845385347
            ],
            [
              -0.7762999130926788,
              -0.6303637401788744
            ]
          ]
        ]
      }
    },
    {
      "type": "Feature",
      "properties": {
        "cell_id": "CEG2000_f4_r0020_c0102",
        "method": "Direct Polar",
        "view": "annulus"
      },
      "geometry": {
        "type": "Polygon",
        "coordinates": [
          [
            [
              -0.5618990707853312,
              -0.6328828699968548
            ],
            [
              -0.35650132576800814,
              -0.6551285519874768
            ],
            [
              -0.46765224843176806,
              -0.5269173553179672
            ],
            [
              -0.717135274627745,
              -0.4952451267744273
            ],
            [
              -0.5618990707853312,
              -0.6328828699968548
            ]
          ]
        ]
      }
    },
    {
      "type": "Feature",
      "properties": {
        "cell_id": "CEG2000_f4_r0020_c0103",
        "method": "Direct Polar",
        "view": "annulus"
      },
      "geometry": {
        "type": "Polygon",
        "coordinates": [
          [
            [
              -0.356498901924429,
              -0.6551303039966742
            ],
            [
              -0.1334195376257154,
              -0.6654185763323535
            ],
            [
              -0.1858733982136375,
              -0.5683905215180622
            ],
            [
              -0.4676481232243878,
              -0.5269176989491422
            ],
            [
              -0.356498901924429,
              -0.6551303039966742
            ]
          ]
        ]
      }
    },
    {
      "type": "Feature",
      "properties": {
        "cell_id": "CEG2000_f4_r0020_c0104",
        "method": "Direct Polar",
        "view": "annulus"
      },
      "geometry": {
        "type": "Polygon",
        "coordinates": [
          [
            [
              -0.13341630579451944,
              -0.665419566060008
            ],
            [
              0.09866637494498946,
              -0.6891506262674563
            ],
            [
              0.14527985990284994,
              -0.6221634493688489
            ],
            [
              -0.1858688951696058,
              -0.5683913650351585
            ],
            [
              -0.13341630579451944,
              -0.665419566060008
            ]
          ]
        ]
      }
    },
    {
      "type": "Feature",
      "properties": {
        "cell_id": "CEG2000_f4_r0020_c0105",
        "method": "Direct Polar",
        "view": "annulus"
      },
      "geometry": {
        "type": "Polygon",
        "coordinates": [
          [
            [
              0.09866277470837918,
              -0.6891502936083727
            ],
            [
              0.37477995104043543,
              -0.7698192410215291
            ],
            [
              0.4890652389773757,
              -0.6159327630117352
            ],
            [
              0.14527481906955125,
              -0.6221642637490216
            ],
            [
              0.09866277470837918,
              -0.6891502936083727
            ]
          ]
        ]
      }
    },
    {
      "type": "Feature",
      "properties": {
        "cell_id": "CEG2000_f4_r0020_c0106",
        "method": "Direct Polar",
        "view": "annulus"
      },
      "geometry": {
        "type": "Polygon",
        "coordinates": [
          [
            [
              0.37477995104043543,
              -0.7698192410215291
            ],
            [
              0.6323070017644739,
              -0.7613412841301026
            ],
            [
              0.7319260971925688,
              -0.5403469697043543
            ],
            [
              0.4890652389773757,
              -0.6159327630117352
            ],
            [
              0.37477995104043543,
              -0.7698192410215291
            ]
          ]
        ]
      }
    },
    {
      "type": "Feature",
      "properties": {
        "cell_id": "CEG2000_f4_r0020_c0107",
        "method": "Direct Polar",
        "view": "annulus"
      },
      "geometry": {
        "type": "Polygon",
        "coordinates": [
          [
            [
              0.6323037940800303,
              -0.7613421475417683
            ],
            [
              0.7613166970373204,
              -0.6483802023598384
            ],
            [
              0.8864252881703178,
              -0.4628716976573195
            ],
            [
              0.731921927403525,
              -0.5403472453030126
            ],
            [
              0.6323037940800303,
              -0.7613421475417683
            ]
          ]
        ]
      }
    },
    {
      "type": "Feature",
      "properties": {
        "cell_id": "CEG2000_f4_r0021_c0100",
        "method": "Direct Polar",
        "view": "annulus"
      },
      "geometry": {
        "type": "Polygon",
        "coordinates": [
          [
            [
              -0.9318924163192276,
              -0.3627347852173973
            ],
            [
              -0.8666253242965875,
              -0.4314679392724422
            ],
            [
              -0.9156469547500127,
              -0.16823379952755083
            ],
            [
              -0.9898399751850944,
              -0.14218587667406266
            ],
            [
              -0.9318924163192276,
              -0.3627347852173973
            ]
          ]
        ]
      }
    },
    {
      "type": "Feature",
      "properties": {
        "cell_id": "CEG2000_f4_r0021_c0101",
        "method": "Direct Polar",
        "view": "annulus"
      },
      "geometry": {
        "type": "Polygon",
        "coordinates": [
          [
            [
              -0.8666253242965875,
              -0.4314679392724422
            ],
            [
              -0.7171308731294501,
              -0.4952465251016752
            ],
            [
              -0.797295249959739,
              -0.203193699445441
            ],
            [
              -0.9156469547500127,
              -0.16823379952755083
            ],
            [
              -0.8666253242965875,
              -0.4314679392724422
            ]
          ]
        ]
      }
    },
    {
      "type": "Feature",
      "properties": {
        "cell_id": "CEG2000_f4_r0021_c0102",
        "method": "Direct Polar",
        "view": "annulus"
      },
      "geometry": {
        "type": "Polygon",
        "coordinates": [
          [
            [
              -0.7171343836020269,
              -0.4952460738562938
            ],
            [
              -0.4676513448045884,
              -0.5269179995080004
            ],
            [
              -0.6423576256592227,
              -0.2670950099157005
            ],
            [
              -0.7972971049072243,
              -0.20319299238197397
            ],
            [
              -0.7171343836020269,
              -0.4952460738562938
            ]
          ]
        ]
      }
    },
    {
      "type": "Feature",
      "properties": {
        "cell_id": "CEG2000_f4_r0021_c0103",
        "method": "Direct Polar",
        "view": "annulus"
      },
      "geometry": {
        "type": "Polygon",
        "coordinates": [
          [
            [
              -0.46764721959801325,
              -0.526918343131522
            ],
            [
              -0.18587296138306017,
              -0.5683909788873324
            ],
            [
              -0.3731916683063696,
              -0.4211443133683044
            ],
            [
              -0.6423548420944313,
              -0.26709638276797865
            ],
            [
              -0.46764721959801325,
              -0.526918343131522
            ]
          ]
        ]
      }
    },
    {
      "type": "Feature",
      "properties": {
        "cell_id": "CEG2000_f4_r0021_c0104",
        "method": "Direct Polar",
        "view": "annulus"
      },
      "geometry": {
        "type": "Polygon",
        "coordinates": [
          [
            [
              -0.18586845834707258,
              -0.5683918223973442
            ],
            [
              0.14527953222418774,
              -0.6221640088967406
            ],
            [
              0.3064467664504667,
              -0.4843101132686871
            ],
            [
              -0.3731846480480445,
              -0.42114721892151724
            ],
            [
              -0.18586845834707258,
              -0.5683918223973442
            ]
          ]
        ]
      }
    },
    {
      "type": "Feature",
      "properties": {
        "cell_id": "CEG2000_f4_r0021_c0105",
        "method": "Direct Polar",
        "view": "annulus"
      },
      "geometry": {
        "type": "Polygon",
        "coordinates": [
          [
            [
              0.1452744914006995,
              -0.6221648232709682
            ],
            [
              0.48906463730039734,
              -0.6159339484173756
            ],
            [
              0.6619004207499494,
              -0.3076299258087452
            ],
            [
              0.30643821932167825,
              -0.4843140436977504
            ],
            [
              0.1452744914006995,
              -0.6221648232709682
            ]
          ]
        ]
      }
    },
    {
      "type": "Feature",
      "properties": {
        "cell_id": "CEG2000_f4_r0021_c0106",
        "method": "Direct Polar",
        "view": "annulus"
      },
      "geometry": {
        "type": "Polygon",
        "coordinates": [
          [
            [
              0.48906463730039734,
              -0.6159339484173756
            ],
            [
              0.731925068645227,
              -0.5403479150777235
            ],
            [
              0.8039071878853216,
              -0.21901850647378665
            ],
            [
              0.6619004207499494,
              -0.3076299258087452
            ],
            [
              0.48906463730039734,
              -0.6159339484173756
            ]
          ]
        ]
      }
    },
    {
      "type": "Feature",
      "properties": {
        "cell_id": "CEG2000_f4_r0021_c0107",
        "method": "Direct Polar",
        "view": "annulus"
      },
      "geometry": {
        "type": "Polygon",
        "coordinates": [
          [
            [
              0.7319208988547456,
              -0.5403481906714765
            ],
            [
              0.886424689014204,
              -0.46287284507310616
            ],
            [
              0.9195984383407085,
              -0.17720914407881744
            ],
            [
              0.8039053479385762,
              -0.21901936465716018
            ],
            [
              0.7319208988547456,
              -0.5403481906714765
            ]
          ]
        ]
      }
    },
    {
      "type": "Feature",
      "properties": {
        "cell_id": "CEG2000_f4_r0022_c0100",
        "method": "Direct Polar",
        "view": "annulus"
      },
      "geometry": {
        "type": "Polygon",
        "coordinates": [
          [
            [
              -0.9898401462587403,
              -0.1421846857241513
            ],
            [
              -0.9156466783111876,
              -0.16823231053425056
            ],
            [
              -0.888693805300684,
              0.11589192626490039
            ],
            [
              -0.9948427897059515,
              0.10142890993242515
            ],
            [
              -0.9898401462587403,
              -0.1421846857241513
            ]
          ]
        ]
      }
    },
    {
      "type": "Feature",
      "properties": {
        "cell_id": "CEG2000_f4_r0022_c0101",
        "method": "Direct Polar",
        "view": "annulus"
      },
      "geometry": {
        "type": "Polygon",
        "coordinates": [
          [
            [
              -0.9156466783111876,
              -0.16823231053425056
            ],
            [
              -0.797295141453928,
              -0.20319193472310917
            ],
            [
              -0.7685628727114109,
              0.13902288350503872
            ],
            [
              -0.888693805300684,
              0.11589192626490039
            ],
            [
              -0.9156466783111876,
              -0.16823231053425056
            ]
          ]
        ]
      }
    },
    {
      "type": "Feature",
      "properties": {
        "cell_id": "CEG2000_f4_r0022_c0102",
        "method": "Direct Polar",
        "view": "annulus"
      },
      "geometry": {
        "type": "Polygon",
        "coordinates": [
          [
            [
              -0.7972969963976602,
              -0.20319122766489087
            ],
            [
              -0.6423584351317725,
              -0.26709306314369674
            ],
            [
              -0.6416514272688842,
              0.18936681953329465
            ],
            [
              -0.7685646676476003,
              0.13902240097656834
            ],
            [
              -0.7972969963976602,
              -0.20319122766489087
            ]
          ]
        ]
      }
    },
    {
      "type": "Feature",
      "properties": {
        "cell_id": "CEG2000_f4_r0022_c0103",
        "method": "Direct Polar",
        "view": "annulus"
      },
      "geometry": {
        "type": "Polygon",
        "coordinates": [
          [
            [
              -0.6423556515765493,
              -0.26709443599140575
            ],
            [
              -0.37319353365890007,
              -0.4211428180948852
            ],
            [
              -0.4477896836772053,
              0.35866493176195424
            ],
            [
              -0.6416493285904221,
              0.18936799409259836
            ],
            [
              -0.6423556515765493,
              -0.26709443599140575
            ]
          ]
        ]
      }
    },
    {
      "type": "Feature",
      "properties": {
        "cell_id": "CEG2000_f4_r0022_c0104",
        "method": "Direct Polar",
        "view": "annulus"
      },
      "geometry": {
        "type": "Polygon",
        "coordinates": [
          [
            [
              -0.3731865134062497,
              -0.4211457236837852
            ],
            [
              0.30644837008999315,
              -0.48430850736017816
            ],
            [
              0.3447436124499109,
              0.3867056820290084
            ],
            [
              -0.4477842190062024,
              0.35866977628599755
            ],
            [
              -0.3731865134062497,
              -0.4211457236837852
            ]
          ]
        ]
      }
    },
    {
      "type": "Feature",
      "properties": {
        "cell_id": "CEG2000_f4_r0022_c0105",
        "method": "Direct Polar",
        "view": "annulus"
      },
      "geometry": {
        "type": "Polygon",
        "coordinates": [
          [
            [
              0.3064398229544114,
              -0.48431243783616124
            ],
            [
              0.661900623162682,
              -0.3076273900052951
            ],
            [
              0.5502193545596131,
              0.1815045920377705
            ],
            [
              0.34473662571854913,
              0.3867117689355537
            ],
            [
              0.3064398229544114,
              -0.48431243783616124
            ]
          ]
        ]
      }
    },
    {
      "type": "Feature",
      "properties": {
        "cell_id": "CEG2000_f4_r0022_c0106",
        "method": "Direct Polar",
        "view": "annulus"
      },
      "geometry": {
        "type": "Polygon",
        "coordinates": [
          [
            [
              0.661900623162682,
              -0.3076273900052951
            ],
            [
              0.8039068086678864,
              -0.21901653080659236
            ],
            [
              0.7859755109277644,
              0.15198465655054533
            ],
            [
              0.5502193545596131,
              0.1815045920377705
            ],
            [
              0.661900623162682,
              -0.3076273900052951
            ]
          ]
        ]
      }
    },
    {
      "type": "Feature",
      "properties": {
        "cell_id": "CEG2000_f4_r0022_c0107",
        "method": "Direct Polar",
        "view": "annulus"
      },
      "geometry": {
        "type": "Polygon",
        "coordinates": [
          [
            [
              0.8039049687259097,
              -0.21901738898328735
            ],
            [
              0.9195978506031625,
              -0.17720751588937544
            ],
            [
              0.9141696492688713,
              0.12503469289222785
            ],
            [
              0.7859735361951569,
              0.15198521807419607
            ],
            [
              0.8039049687259097,
              -0.21901738898328735
            ]
          ]
        ]
      }
    },
    {
      "type": "Feature",
      "properties": {
        "cell_id": "CEG2000_f4_r0022_c0108",
        "method": "Direct Polar",
        "view": "annulus"
      },
      "geometry": {
        "type": "Polygon",
        "coordinates": [
          [
            [
              0.9195995168190512,
              -0.17720705897219372
            ],
            [
              0.9890708184902998,
              -0.14744122900643672
            ],
            [
              0.994449087946648,
              0.10521887417226991
            ],
            [
              0.9141715382792085,
              0.12503440231660023
            ],
            [
              0.9195995168190512,
              -0.17720705897219372
            ]
          ]
        ]
      }
    },
    {
      "type": "Feature",
      "properties": {
        "cell_id": "CEG2000_f4_r0023_c0100",
        "method": "Direct Polar",
        "view": "annulus"
      },
      "geometry": {
        "type": "Polygon",
        "coordinates": [
          [
            [
              -0.9948427897059515,
              0.10142890993242515
            ],
            [
              -0.888693805300684,
              0.11589192626490039
            ],
            [
              -0.8506710304737347,
              0.3781626098298378
            ],
            [
              -0.9445762978709227,
              0.328291969899451
            ],
            [
              -0.9948427897059515,
              0.10142890993242515
            ]
          ]
        ]
      }
    },
    {
      "type": "Feature",
      "properties": {
        "cell_id": "CEG2000_f4_r0023_c0101",
        "method": "Direct Polar",
        "view": "annulus"
      },
      "geometry": {
        "type": "Polygon",
        "coordinates": [
          [
            [
              -0.888693805300684,
              0.11589192626490039
            ],
            [
              -0.7685628727114109,
              0.13902288350503872
            ],
            [
              -0.7222322886387529,
              0.4453482050755659
            ],
            [
              -0.8506710304737347,
              0.3781626098298378
            ],
            [
              -0.888693805300684,
              0.11589192626490039
            ]
          ]
        ]
      }
    },
    {
      "type": "Feature",
      "properties": {
        "cell_id": "CEG2000_f4_r0023_c0102",
        "method": "Direct Polar",
        "view": "annulus"
      },
      "geometry": {
        "type": "Polygon",
        "coordinates": [
          [
            [
              -0.7685646676476003,
              0.13902240097656834
            ],
            [
              -0.6416514272688842,
              0.18936681953329465
            ],
            [
              -0.5187347179853111,
              0.5218743486939204
            ],
            [
              -0.7222344964093961,
              0.445346980619682
            ],
            [
              -0.7685646676476003,
              0.13902240097656834
            ]
          ]
        ]
      }
    },
    {
      "type": "Feature",
      "properties": {
        "cell_id": "CEG2000_f4_r0023_c0103",
        "method": "Direct Polar",
        "view": "annulus"
      },
      "geometry": {
        "type": "Polygon",
        "coordinates": [
          [
            [
              -0.6416493285904221,
              0.18936799409259836
            ],
            [
              -0.4477896836772053,
              0.35866493176195424
            ],
            [
              -0.21456705344749327,
              0.5858599146744768
            ],
            [
              -0.5187262553025433,
              0.5218707786022262
            ],
            [
              -0.6416493285904221,
              0.18936799409259836
            ]
          ]
        ]
      }
    },
    {
      "type": "Feature",
      "properties": {
        "cell_id": "CEG2000_f4_r0023_c0104",
        "method": "Direct Polar",
        "view": "annulus"
      },
      "geometry": {
        "type": "Polygon",
        "coordinates": [
          [
            [
              -0.4477842190062024,
              0.35866977628599755
            ],
            [
              0.3447436124499109,
              0.3867056820290084
            ],
            [
              0.15136119304813545,
              0.578781688278437
            ],
            [
              -0.21456215290136268,
              0.5858615968278742
            ],
            [
              -0.4477842190062024,
              0.35866977628599755
            ]
          ]
        ]
      }
    },
    {
      "type": "Feature",
      "properties": {
        "cell_id": "CEG2000_f4_r0023_c0105",
        "method": "Direct Polar",
        "view": "annulus"
      },
      "geometry": {
        "type": "Polygon",
        "coordinates": [
          [
            [
              0.34473662571854913,
              0.3867117689355537
            ],
            [
              0.5502193545596131,
              0.1815045920377705
            ],
            [
              0.40517826992883577,
              0.45563157678532257
            ],
            [
              0.15135601802271775,
              0.5787827396107222
            ],
            [
              0.34473662571854913,
              0.3867117689355537
            ]
          ]
        ]
      }
    },
    {
      "type": "Feature",
      "properties": {
        "cell_id": "CEG2000_f4_r0023_c0106",
        "method": "Direct Polar",
        "view": "annulus"
      },
      "geometry": {
        "type": "Polygon",
        "coordinates": [
          [
            [
              0.5502193545596131,
              0.1815045920377705
            ],
            [
              0.7859755109277644,
              0.15198465655054533
            ],
            [
              0.553626739422595,
              0.3649418794281156
            ],
            [
              0.40517826992883577,
              0.45563157678532257
            ],
            [
              0.5502193545596131,
              0.1815045920377705
            ]
          ]
        ]
      }
    },
    {
      "type": "Feature",
      "properties": {
        "cell_id": "CEG2000_f4_r0023_c0107",
        "method": "Direct Polar",
        "view": "annulus"
      },
      "geometry": {
        "type": "Polygon",
        "coordinates": [
          [
            [
              0.7859735361951569,
              0.15198521807419607
            ],
            [
              0.9141696492688713,
              0.12503469289222785
            ],
            [
              0.6499384337352122,
              0.3030343552013823
            ],
            [
              0.5536251657004472,
              0.36494310727407697
            ],
            [
              0.7859735361951569,
              0.15198521807419607
            ]
          ]
        ]
      }
    },
    {
      "type": "Feature",
      "properties": {
        "cell_id": "CEG2000_f4_r0023_c0108",
        "method": "Direct Polar",
        "view": "annulus"
      },
      "geometry": {
        "type": "Polygon",
        "coordinates": [
          [
            [
              0.9141715382792085,
              0.12503440231660023
            ],
            [
              0.994449087946648,
              0.10521887417226991
            ],
            [
              0.7354869087926451,
              0.2652784422032207
            ],
            [
              0.6499398145858539,
              0.303033668604076
            ],
            [
              0.9141715382792085,
              0.12503440231660023
            ]
          ]
        ]
      }
    },
    {
      "type": "Feature",
      "properties": {
        "cell_id": "CEG2000_f4_r0024_c0100",
        "method": "Direct Polar",
        "view": "annulus"
      },
      "geometry": {
        "type": "Polygon",
        "coordinates": [
          [
            [
              -0.9445762978709232,
              0.3282919698994493
            ],
            [
              -0.8506710304737356,
              0.37816260982983596
            ],
            [
              -0.7966664292434928,
              0.6044192257997943
            ],
            [
              -0.8600793993303469,
              0.5101601972396019
            ],
            [
              -0.9445762978709232,
              0.3282919698994493
            ]
          ]
        ]
      }
    },
    {
      "type": "Feature",
      "properties": {
        "cell_id": "CEG2000_f4_r0024_c0101",
        "method": "Direct Polar",
        "view": "annulus"
      },
      "geometry": {
        "type": "Polygon",
        "coordinates": [
          [
            [
              -0.8506710304737356,
              0.37816260982983596
            ],
            [
              -0.7222322886387517,
              0.4453482050755624
            ],
            [
              -0.6062485239255406,
              0.6379965205241978
            ],
            [
              -0.7966664292434928,
              0.6044192257997943
            ],
            [
              -0.8506710304737356,
              0.37816260982983596
            ]
          ]
        ]
      }
    },
    {
      "type": "Feature",
      "properties": {
        "cell_id": "CEG2000_f4_r0024_c0102",
        "method": "Direct Polar",
        "view": "annulus"
      },
      "geometry": {
        "type": "Polygon",
        "coordinates": [
          [
            [
              -0.7222344964093951,
              0.44534698061967837
            ],
            [
              -0.518734717985316,
              0.521874348693922
            ],
            [
              -0.3720126525868076,
              0.638738591693048
            ],
            [
              -0.6062515936641593,
              0.6379960466086421
            ],
            [
              -0.7222344964093951,
              0.44534698061967837
            ]
          ]
        ]
      }
    },
    {
      "type": "Feature",
      "properties": {
        "cell_id": "CEG2000_f4_r0024_c0103",
        "method": "Direct Polar",
        "view": "annulus"
      },
      "geometry": {
        "type": "Polygon",
        "coordinates": [
          [
            [
              -0.5187262553025475,
              0.521870778602227
            ],
            [
              -0.21456705344749413,
              0.5858599146744756
            ],
            [
              -0.15091457450613435,
              0.7032451414975923
            ],
            [
              -0.372009570564559,
              0.638739350856181
            ],
            [
              -0.5187262553025475,
              0.521870778602227
            ]
          ]
        ]
      }
    },
    {
      "type": "Feature",
      "properties": {
        "cell_id": "CEG2000_f4_r0024_c0104",
        "method": "Direct Polar",
        "view": "annulus"
      },
      "geometry": {
        "type": "Polygon",
        "coordinates": [
          [
            [
              -0.21456215290136357,
              0.5858615968278729
            ],
            [
              0.15136119304813617,
              0.5787816882784362
            ],
            [
              0.10454663515321592,
              0.6822681687400611
            ],
            [
              -0.15091069177257835,
              0.7032451291119783
            ],
            [
              -0.21456215290136357,
              0.5858615968278729
            ]
          ]
        ]
      }
    },
    {
      "type": "Feature",
      "properties": {
        "cell_id": "CEG2000_f4_r0024_c0105",
        "method": "Direct Polar",
        "view": "annulus"
      },
      "geometry": {
        "type": "Polygon",
        "coordinates": [
          [
            [
              0.1513560180227185,
              0.5787827396107214
            ],
            [
              0.40517826992883665,
              0.4556315767853207
            ],
            [
              0.32283608750267606,
              0.6195759540425844
            ],
            [
              0.10454291892985874,
              0.6822684827435547
            ],
            [
              0.1513560180227185,
              0.5787827396107214
            ]
          ]
        ]
      }
    },
    {
      "type": "Feature",
      "properties": {
        "cell_id": "CEG2000_f4_r0024_c0106",
        "method": "Direct Polar",
        "view": "annulus"
      },
      "geometry": {
        "type": "Polygon",
        "coordinates": [
          [
            [
              0.40517826992883665,
              0.4556315767853207
            ],
            [
              0.5536267394225954,
              0.36494187942811357
            ],
            [
              0.4659821948774522,
              0.5242286827100006
            ],
            [
              0.32283608750267606,
              0.6195759540425844
            ],
            [
              0.40517826992883665,
              0.4556315767853207
            ]
          ]
        ]
      }
    },
    {
      "type": "Feature",
      "properties": {
        "cell_id": "CEG2000_f4_r0024_c0107",
        "method": "Direct Polar",
        "view": "annulus"
      },
      "geometry": {
        "type": "Polygon",
        "coordinates": [
          [
            [
              0.5536251657004482,
              0.3649431072740753
            ],
            [
              0.6499384337352129,
              0.3030343552013807
            ],
            [
              0.5891694427870312,
              0.46881842582771505
            ],
            [
              0.46598050892811527,
              0.5242300399412522
            ],
            [
              0.5536251657004482,
              0.3649431072740753
            ]
          ]
        ]
      }
    },
    {
      "type": "Feature",
      "properties": {
        "cell_id": "CEG2000_f4_r0024_c0108",
        "method": "Direct Polar",
        "view": "annulus"
      },
      "geometry": {
        "type": "Polygon",
        "coordinates": [
          [
            [
              0.6499398145858545,
              0.3030336686040743
            ],
            [
              0.7354869087926457,
              0.2652784422032192
            ],
            [
              0.6854464682963105,
              0.42193481804462313
            ],
            [
              0.5891713832745834,
              0.4688179116584425
            ],
            [
              0.6499398145858545,
              0.3030336686040743
            ]
          ]
        ]
      }
    },
    {
      "type": "Feature",
      "properties": {
        "cell_id": "CEG2000_f4_r0024_c0109",
        "method": "Direct Polar",
        "view": "annulus"
      },
      "geometry": {
        "type": "Polygon",
        "coordinates": [
          [
            [
              0.7354881607560276,
              0.2652779928044587
            ],
            [
              0.8371828734526459,
              0.24621077836322314
            ],
            [
              0.7669300583742058,
              0.3849349065474391
            ],
            [
              0.6854476514634015,
              0.421934113345051
            ],
            [
              0.7354881607560276,
              0.2652779928044587
            ]
          ]
        ]
      }
    },
    {
      "type": "Feature",
      "properties": {
        "cell_id": "CEG2000_f4_r0024_c0110",
        "method": "Direct Polar",
        "view": "annulus"
      },
      "geometry": {
        "type": "Polygon",
        "coordinates": [
          [
            [
              0.8371813700436703,
              0.2462110180433957
            ],
            [
              0.9705383281465109,
              0.2409467858232927
            ],
            [
              0.8491305110063816,
              0.3597722834238711
            ],
            [
              0.7669287717894366,
              0.3849353267783192
            ],
            [
              0.8371813700436703,
              0.2462110180433957
            ]
          ]
        ]
      }
    },
    {
      "type": "Feature",
      "properties": {
        "cell_id": "CEG2000_f4_r0024_c0111",
        "method": "Direct Polar",
        "view": "annulus"
      },
      "geometry": {
        "type": "Polygon",
        "coordinates": [
          [
            [
              0.9705383281465109,
              0.2409467858232927
            ],
            [
              0.9777019262739404,
              0.20999748417594563
            ],
            [
              0.9266186971637379,
              0.3396671053350945
            ],
            [
              0.8491305110063816,
              0.3597722834238711
            ],
            [
              0.9705383281465109,
              0.2409467858232927
            ]
          ]
        ]
      }
    },
    {
      "type": "Feature",
      "properties": {
        "cell_id": "CEG2000_f4_r0025_c0101",
        "method": "Direct Polar",
        "view": "annulus"
      },
      "geometry": {
        "type": "Polygon",
        "coordinates": [
          [
            [
              -0.7966664292434928,
              0.6044192257997943
            ],
            [
              -0.6062485239255406,
              0.6379965205241978
            ],
            [
              -0.4835970090383908,
              0.7196458889368329
            ],
            [
              -0.6818427489045977,
              0.7314987804270229
            ],
            [
              -0.7966664292434928,
              0.6044192257997943
            ]
          ]
        ]
      }
    },
    {
      "type": "Feature",
      "properties": {
        "cell_id": "CEG2000_f4_r0025_c0102",
        "method": "Direct Polar",
        "view": "annulus"
      },
      "geometry": {
        "type": "Polygon",
        "coordinates": [
          [
            [
              -0.6062515936641593,
              0.6379960466086421
            ],
            [
              -0.3720126525868076,
              0.638738591693048
            ],
            [
              -0.31554324130737454,
              0.7661114521529091
            ],
            [
              -0.48359944268210064,
              0.7196453319759952
            ],
            [
              -0.6062515936641593,
              0.6379960466086421
            ]
          ]
        ]
      }
    },
    {
      "type": "Feature",
      "properties": {
        "cell_id": "CEG2000_f4_r0025_c0103",
        "method": "Direct Polar",
        "view": "annulus"
      },
      "geometry": {
        "type": "Polygon",
        "coordinates": [
          [
            [
              -0.372009570564559,
              0.638739350856181
            ],
            [
              -0.15091457450613435,
              0.7032451414975923
            ],
            [
              -0.12078472511097696,
              0.7958939414006226
            ],
            [
              -0.3155406453607073,
              0.7661124069937336
            ],
            [
              -0.372009570564559,
              0.638739350856181
            ]
          ]
        ]
      }
    },
    {
      "type": "Feature",
      "properties": {
        "cell_id": "CEG2000_f4_r0025_c0104",
        "method": "Direct Polar",
        "view": "annulus"
      },
      "geometry": {
        "type": "Polygon",
        "coordinates": [
          [
            [
              -0.15091069177257835,
              0.7032451291119783
            ],
            [
              0.10454663515321592,
              0.6822681687400611
            ],
            [
              0.08342658448245083,
              0.7698695462124894
            ],
            [
              -0.12078156554649747,
              0.7958935846463067
            ],
            [
              -0.15091069177257835,
              0.7032451291119783
            ]
          ]
        ]
      }
    },
    {
      "type": "Feature",
      "properties": {
        "cell_id": "CEG2000_f4_r0025_c0105",
        "method": "Direct Polar",
        "view": "annulus"
      },
      "geometry": {
        "type": "Polygon",
        "coordinates": [
          [
            [
              0.10454291892985874,
              0.6822684827435547
            ],
            [
              0.32283608750267606,
              0.6195759540425844
            ],
            [
              0.2604057607367283,
              0.7066928430388411
            ],
            [
              0.08342358826186147,
              0.7698696169219433
            ],
            [
              0.10454291892985874,
              0.6822684827435547
            ]
          ]
        ]
      }
    },
    {
      "type": "Feature",
      "properties": {
        "cell_id": "CEG2000_f4_r0025_c0106",
        "method": "Direct Polar",
        "view": "annulus"
      },
      "geometry": {
        "type": "Polygon",
        "coordinates": [
          [
            [
              0.32283608750267606,
              0.6195759540425844
            ],
            [
              0.4659821948774522,
              0.5242286827100006
            ],
            [
              0.40467411622291266,
              0.6437607735658385
            ],
            [
              0.2604057607367283,
              0.7066928430388411
            ],
            [
              0.32283608750267606,
              0.6195759540425844
            ]
          ]
        ]
      }
    },
    {
      "type": "Feature",
      "properties": {
        "cell_id": "CEG2000_f4_r0025_c0107",
        "method": "Direct Polar",
        "view": "annulus"
      },
      "geometry": {
        "type": "Polygon",
        "coordinates": [
          [
            [
              0.46598050892811527,
              0.5242300399412522
            ],
            [
              0.5891694427870312,
              0.46881842582771505
            ],
            [
              0.5268273713615874,
              0.592789381308382
            ],
            [
              0.40467196159756885,
              0.6437613418160163
            ],
            [
              0.46598050892811527,
              0.5242300399412522
            ]
          ]
        ]
      }
    },
    {
      "type": "Feature",
      "properties": {
        "cell_id": "CEG2000_f4_r0025_c0108",
        "method": "Direct Polar",
        "view": "annulus"
      },
      "geometry": {
        "type": "Polygon",
        "coordinates": [
          [
            [
              0.5891713832745834,
              0.4688179116584425
            ],
            [
              0.6854464682963105,
              0.42193481804462313
            ],
            [
              0.6156591333575713,
              0.5358950863551487
            ],
            [
              0.5268287338286752,
              0.5927883118238715
            ],
            [
              0.5891713832745834,
              0.4688179116584425
            ]
          ]
        ]
      }
    },
    {
      "type": "Feature",
      "properties": {
        "cell_id": "CEG2000_f4_r0025_c0109",
        "method": "Direct Polar",
        "view": "annulus"
      },
      "geometry": {
        "type": "Polygon",
        "coordinates": [
          [
            [
              0.6854476514634015,
              0.421934113345051
            ],
            [
              0.7669300583742058,
              0.3849349065474391
            ],
            [
              0.7373373840447658,
              0.5233176908755498
            ],
            [
              0.6156605204220912,
              0.5358944736580835
            ],
            [
              0.6854476514634015,
              0.421934113345051
            ]
          ]
        ]
      }
    },
    {
      "type": "Feature",
      "properties": {
        "cell_id": "CEG2000_f4_r0025_c0110",
        "method": "Direct Polar",
        "view": "annulus"
      },
      "geometry": {
        "type": "Polygon",
        "coordinates": [
          [
            [
              0.7669287717894366,
              0.3849353267783192
            ],
            [
              0.8491305110063816,
              0.3597722834238711
            ],
            [
              0.8121146806028013,
              0.4865620630838471
            ],
            [
              0.7373361796237107,
              0.5233182852585878
            ],
            [
              0.7669287717894366,
              0.3849353267783192
            ]
          ]
        ]
      }
    },
    {
      "type": "Feature",
      "properties": {
        "cell_id": "CEG2000_f4_r0025_c0111",
        "method": "Direct Polar",
        "view": "annulus"
      },
      "geometry": {
        "type": "Polygon",
        "coordinates": [
          [
            [
              0.8491305110063816,
              0.3597722834238711
            ],
            [
              0.9266186971637379,
              0.3396671053350945
            ],
            [
              0.8870298122756533,
              0.45978867926167566
            ],
            [
              0.8121146806028013,
              0.4865620630838471
            ],
            [
              0.8491305110063816,
              0.3597722834238711
            ]
          ]
        ]
      }
    },
    {
      "type": "Feature",
      "properties": {
        "cell_id": "CEG2000_f4_r0026_c0101",
        "method": "Direct Polar",
        "view": "annulus"
      },
      "geometry": {
        "type": "Polygon",
        "coordinates": [
          [
            [
              -0.681843283068328,
              0.7314982825233454
            ],
            [
              -0.4835973066317372,
              0.7196452781738353
            ],
            [
              -0.4313339518559703,
              0.8298214383400734
            ],
            [
              -0.5818576524977446,
              0.8070155334627925
            ],
            [
              -0.681843283068328,
              0.7314982825233454
            ]
          ]
        ]
      }
    },
    {
      "type": "Feature",
      "properties": {
        "cell_id": "CEG2000_f4_r0026_c0102",
        "method": "Direct Polar",
        "view": "annulus"
      },
      "geometry": {
        "type": "Polygon",
        "coordinates": [
          [
            [
              -0.4835997402753794,
              0.719644721211141
            ],
            [
              -0.3155434481631846,
              0.7661108327368502
            ],
            [
              -0.28150005497412073,
              0.8835829351278561
            ],
            [
              -0.43133633641743285,
              0.8298212076678584
            ],
            [
              -0.4835997402753794,
              0.719644721211141
            ]
          ]
        ]
      }
    },
    {
      "type": "Feature",
      "properties": {
        "cell_id": "CEG2000_f4_r0026_c0103",
        "method": "Direct Polar",
        "view": "annulus"
      },
      "geometry": {
        "type": "Polygon",
        "coordinates": [
          [
            [
              -0.31554085221587724,
              0.7661117875794805
            ],
            [
              -0.1207848336367964,
              0.7958934912682655
            ],
            [
              -0.10385048959644833,
              0.88468261991131
            ],
            [
              -0.28149760188032413,
              0.8835836056715741
            ],
            [
              -0.31554085221587724,
              0.7661117875794805
            ]
          ]
        ]
      }
    },
    {
      "type": "Feature",
      "properties": {
        "cell_id": "CEG2000_f4_r0026_c0104",
        "method": "Direct Polar",
        "view": "annulus"
      },
      "geometry": {
        "type": "Polygon",
        "coordinates": [
          [
            [
              -0.12078167406961209,
              0.7958931345150341
            ],
            [
              0.08342665988149153,
              0.7698691148566733
            ],
            [
              0.07171036983475726,
              0.8555204647716428
            ],
            [
              -0.10384775945996721,
              0.8846821079369566
            ],
            [
              -0.12078167406961209,
              0.7958931345150341
            ]
          ]
        ]
      }
    },
    {
      "type": "Feature",
      "properties": {
        "cell_id": "CEG2000_f4_r0026_c0105",
        "method": "Direct Polar",
        "view": "annulus"
      },
      "geometry": {
        "type": "Polygon",
        "coordinates": [
          [
            [
              0.0834236636582804,
              0.7698691855668823
            ],
            [
              0.2604059123270219,
              0.7066922197761358
            ],
            [
              0.2333210598840938,
              0.8185963610265515
            ],
            [
              0.07170778473390643,
              0.8555204280766765
            ],
            [
              0.0834236636582804,
              0.7698691855668823
            ]
          ]
        ]
      }
    },
    {
      "type": "Feature",
      "properties": {
        "cell_id": "CEG2000_f4_r0026_c0106",
        "method": "Direct Polar",
        "view": "annulus"
      },
      "geometry": {
        "type": "Polygon",
        "coordinates": [
          [
            [
              0.2604059123270219,
              0.7066922197761358
            ],
            [
              0.40467440596987225,
              0.6437602919855039
            ],
            [
              0.3634525164637669,
              0.7474850775209986
            ],
            [
              0.2333210598840938,
              0.8185963610265515
            ],
            [
              0.2604059123270219,
              0.7066922197761358
            ]
          ]
        ]
      }
    },
    {
      "type": "Feature",
      "properties": {
        "cell_id": "CEG2000_f4_r0026_c0107",
        "method": "Direct Polar",
        "view": "annulus"
      },
      "geometry": {
        "type": "Polygon",
        "coordinates": [
          [
            [
              0.40467225134436113,
              0.6437608602374445
            ],
            [
              0.5268275212366176,
              0.592788682061442
            ],
            [
              0.48461298743730363,
              0.7049574382189926
            ],
            [
              0.36345041443617954,
              0.747485394116834
            ],
            [
              0.40467225134436113,
              0.6437608602374445
            ]
          ]
        ]
      }
    },
    {
      "type": "Feature",
      "properties": {
        "cell_id": "CEG2000_f4_r0026_c0108",
        "method": "Direct Polar",
        "view": "annulus"
      },
      "geometry": {
        "type": "Polygon",
        "coordinates": [
          [
            [
              0.5268288837024608,
              0.5927876125763566
            ],
            [
              0.6156593599965103,
              0.5358944990411478
            ],
            [
              0.5876877054186617,
              0.6613354714530187
            ],
            [
              0.4846148093168075,
              0.7049569934737978
            ],
            [
              0.5268288837024608,
              0.5927876125763566
            ]
          ]
        ]
      }
    },
    {
      "type": "Feature",
      "properties": {
        "cell_id": "CEG2000_f4_r0026_c0109",
        "method": "Direct Polar",
        "view": "annulus"
      },
      "geometry": {
        "type": "Polygon",
        "coordinates": [
          [
            [
              0.6156607470601676,
              0.5358938863435588
            ],
            [
              0.7373375143734892,
              0.523317017199537
            ],
            [
              0.6646796716966862,
              0.6098841163808195
            ],
            [
              0.5876888908751154,
              0.6613345593817302
            ],
            [
              0.6156607470601676,
              0.5358938863435588
            ]
          ]
        ]
      }
    },
    {
      "type": "Feature",
      "properties": {
        "cell_id": "CEG2000_f4_r0026_c0110",
        "method": "Direct Polar",
        "view": "annulus"
      },
      "geometry": {
        "type": "Polygon",
        "coordinates": [
          [
            [
              0.7373363099533897,
              0.5233176115826396
            ],
            [
              0.81211475136155,
              0.48656139311502256
            ],
            [
              0.7847246694891892,
              0.6078185530461685
            ],
            [
              0.6646783558552708,
              0.6098845979500355
            ],
            [
              0.7373363099533897,
              0.5233176115826396
            ]
          ]
        ]
      }
    },
    {
      "type": "Feature",
      "properties": {
        "cell_id": "CEG2000_f4_r0026_c0111",
        "method": "Direct Polar",
        "view": "annulus"
      },
      "geometry": {
        "type": "Polygon",
        "coordinates": [
          [
            [
              0.81211475136155,
              0.48656139311502256
            ],
            [
              0.887030030409537,
              0.45978811916617357
            ],
            [
              0.8307219564656505,
              0.556687552443812
            ],
            [
              0.7847246694891892,
              0.6078185530461685
            ],
            [
              0.81211475136155,
              0.48656139311502256
            ]
          ]
        ]
      }
    },
    {
      "type": "Feature",
      "properties": {
        "cell_id": "CEG2000_f4_r0027_c0101",
        "method": "Direct Polar",
        "view": "annulus"
      },
      "geometry": {
        "type": "Polygon",
        "coordinates": [
          [
            [
              -0.5818574183423575,
              0.8070161226188667
            ],
            [
              -0.4313337245359787,
              0.8298219407587362
            ],
            [
              -0.39020654923745823,
              0.9207273477703348
            ],
            [
              -0.5067758111369467,
              0.862077883515457
            ],
            [
              -0.5818574183423575,
              0.8070161226188667
            ]
          ]
        ]
      }
    },
    {
      "type": "Feature",
      "properties": {
        "cell_id": "CEG2000_f4_r0027_c0102",
        "method": "Direct Polar",
        "view": "annulus"
      },
      "geometry": {
        "type": "Polygon",
        "coordinates": [
          [
            [
              -0.43133610909698417,
              0.8298217100879194
            ],
            [
              -0.28149991550344006,
              0.8835834979833985
            ],
            [
              -0.251412687203631,
              0.967879982597558
            ],
            [
              -0.3902084699268509,
              0.9207265337750107
            ],
            [
              -0.43133610909698417,
              0.8298217100879194
            ]
          ]
        ]
      }
    },
    {
      "type": "Feature",
      "properties": {
        "cell_id": "CEG2000_f4_r0027_c0103",
        "method": "Direct Polar",
        "view": "annulus"
      },
      "geometry": {
        "type": "Polygon",
        "coordinates": [
          [
            [
              -0.2814974624103707,
              0.8835841685260122
            ],
            [
              -0.10385042357441142,
              0.8846830593586699
            ],
            [
              -0.09303603511456561,
              0.972065709742201
            ],
            [
              -0.25141045604987367,
              0.9678805621505138
            ],
            [
              -0.2814974624103707,
              0.8835841685260122
            ]
          ]
        ]
      }
    },
    {
      "type": "Feature",
      "properties": {
        "cell_id": "CEG2000_f4_r0027_c0104",
        "method": "Direct Polar",
        "view": "annulus"
      },
      "geometry": {
        "type": "Polygon",
        "coordinates": [
          [
            [
              -0.10384769343963135,
              0.8846825473837667
            ],
            [
              0.07171032433351808,
              0.8555208907831652
            ],
            [
              0.06427345372558665,
              0.9404713285003405
            ],
            [
              -0.09303358606310227,
              0.9720651135821414
            ],
            [
              -0.10384769343963135,
              0.8846825473837667
            ]
          ]
        ]
      }
    },
    {
      "type": "Feature",
      "properties": {
        "cell_id": "CEG2000_f4_r0027_c0105",
        "method": "Direct Polar",
        "view": "annulus"
      },
      "geometry": {
        "type": "Polygon",
        "coordinates": [
          [
            [
              0.07170773923427717,
              0.8555208540878211
            ],
            [
              0.23332092217014735,
              0.8185968048993154
            ],
            [
              0.21100012293909767,
              0.9079544465121424
            ],
            [
              0.06427113301947078,
              0.9404712340189031
            ],
            [
              0.07170773923427717,
              0.8555208540878211
            ]
          ]
        ]
      }
    },
    {
      "type": "Feature",
      "properties": {
        "cell_id": "CEG2000_f4_r0027_c0106",
        "method": "Direct Polar",
        "view": "annulus"
      },
      "geometry": {
        "type": "Polygon",
        "coordinates": [
          [
            [
              0.23332092217014735,
              0.8185968048993154
            ],
            [
              0.3634523068499147,
              0.7474854929286827
            ],
            [
              0.3325008418683171,
              0.8387124280963422
            ],
            [
              0.21100012293909767,
              0.9079544465121424
            ],
            [
              0.23332092217014735,
              0.8185968048993154
            ]
          ]
        ]
      }
    },
    {
      "type": "Feature",
      "properties": {
        "cell_id": "CEG2000_f4_r0027_c0107",
        "method": "Direct Polar",
        "view": "annulus"
      },
      "geometry": {
        "type": "Polygon",
        "coordinates": [
          [
            [
              0.36345020482284346,
              0.7474858095232627
            ],
            [
              0.48461275836252365,
              0.7049579033315133
            ],
            [
              0.4719602274800215,
              0.8420516526320313
            ],
            [
              0.33249941151063284,
              0.8387140260451335
            ],
            [
              0.36345020482284346,
              0.7474858095232627
            ]
          ]
        ]
      }
    },
    {
      "type": "Feature",
      "properties": {
        "cell_id": "CEG2000_f4_r0027_c0108",
        "method": "Direct Polar",
        "view": "annulus"
      },
      "geometry": {
        "type": "Polygon",
        "coordinates": [
          [
            [
              0.4846145802421043,
              0.7049574585873895
            ],
            [
              0.5876876145928536,
              0.6613361181880879
            ],
            [
              0.5576992492895524,
              0.7697341488049358
            ],
            [
              0.47196165374084176,
              0.8420505004208244
            ],
            [
              0.4846145802421043,
              0.7049574585873895
            ]
          ]
        ]
      }
    },
    {
      "type": "Feature",
      "properties": {
        "cell_id": "CEG2000_f4_r0027_c0109",
        "method": "Direct Polar",
        "view": "annulus"
      },
      "geometry": {
        "type": "Polygon",
        "coordinates": [
          [
            [
              0.5876888000502056,
              0.6613352061171242
            ],
            [
              0.6646794857961439,
              0.60988463648148
            ],
            [
              0.6485566652555843,
              0.7298747433394552
            ],
            [
              0.557700881879914,
              0.7697337878569981
            ],
            [
              0.5876888000502056,
              0.6613352061171242
            ]
          ]
        ]
      }
    },
    {
      "type": "Feature",
      "properties": {
        "cell_id": "CEG2000_f4_r0027_c0110",
        "method": "Direct Polar",
        "view": "annulus"
      },
      "geometry": {
        "type": "Polygon",
        "coordinates": [
          [
            [
              0.6646781699541748,
              0.6098851180502607
            ],
            [
              0.784724336253261,
              0.607818983270459
            ],
            [
              0.7162622653946382,
              0.6804468389799043
            ],
            [
              0.6485555914604793,
              0.7298755561295881
            ],
            [
              0.6646781699541748,
              0.6098851180502607
            ]
          ]
        ]
      }
    },
    {
      "type": "Feature",
      "properties": {
        "cell_id": "CEG2000_f4_r0027_c0111",
        "method": "Direct Polar",
        "view": "annulus"
      },
      "geometry": {
        "type": "Polygon",
        "coordinates": [
          [
            [
              0.784724336253261,
              0.607818983270459
            ],
            [
              0.830721664920563,
              0.5566879875043182
            ],
            [
              0.772545924498756,
              0.634958892008264
            ],
            [
              0.7162622653946382,
              0.6804468389799043
            ],
            [
              0.784724336253261,
              0.607818983270459
            ]
          ]
        ]
      }
    },
    {
      "type": "Feature",
      "properties": {
        "cell_id": "CEG2000_f4_r0028_c0104",
        "method": "Direct Polar",
        "view": "annulus"
      },
      "geometry": {
        "type": "Polygon",
        "coordinates": [
          [
            [
              -0.09303358606310227,
              0.9720651135821414
            ],
            [
              0.06427345372558665,
              0.9404713285003405
            ],
            [
              0.0575927719153782,
              0.9983401587751057
            ],
            [
              -0.08052581175375625,
              0.9967525237697663
            ],
            [
              -0.09303358606310227,
              0.9720651135821414
            ]
          ]
        ]
      }
    },
    {
      "type": "Feature",
      "properties": {
        "cell_id": "CEG2000_f4_r0028_c0105",
        "method": "Direct Polar",
        "view": "annulus"
      },
      "geometry": {
        "type": "Polygon",
        "coordinates": [
          [
            [
              0.06427113301947078,
              0.9404712340189031
            ],
            [
              0.21100012293909767,
              0.9079544465121424
            ],
            [
              0.1924964732023922,
              0.9812976652395748
            ],
            [
              0.05759070509064738,
              0.9983402780050308
            ],
            [
              0.06427113301947078,
              0.9404712340189031
            ]
          ]
        ]
      }
    },
    {
      "type": "Feature",
      "properties": {
        "cell_id": "CEG2000_f4_r0028_c0106",
        "method": "Direct Polar",
        "view": "annulus"
      },
      "geometry": {
        "type": "Polygon",
        "coordinates": [
          [
            [
              0.21100012293909767,
              0.9079544465121424
            ],
            [
              0.3325008418683171,
              0.8387124280963422
            ],
            [
              0.3173461664965064,
              0.9483097651136846
            ],
            [
              0.1924964732023922,
              0.9812976652395748
            ],
            [
              0.21100012293909767,
              0.9079544465121424
            ]
          ]
        ]
      }
    },
    {
      "type": "Feature",
      "properties": {
        "cell_id": "CEG2000_f4_r0028_c0107",
        "method": "Direct Polar",
        "view": "annulus"
      },
      "geometry": {
        "type": "Polygon",
        "coordinates": [
          [
            [
              0.33249941151063284,
              0.8387140260451335
            ],
            [
              0.4719602274800215,
              0.8420516526320313
            ],
            [
              0.42177953306619675,
              0.8914879338773
            ],
            [
              0.3173443950867866,
              0.948310357903467
            ],
            [
              0.33249941151063284,
              0.8387140260451335
            ]
          ]
        ]
      }
    },
    {
      "type": "Feature",
      "properties": {
        "cell_id": "CEG2000_f4_r0028_c0108",
        "method": "Direct Polar",
        "view": "annulus"
      },
      "geometry": {
        "type": "Polygon",
        "coordinates": [
          [
            [
              0.47196165374084176,
              0.8420505004208244
            ],
            [
              0.5576992492895524,
              0.7697341488049358
            ],
            [
              0.5217494365053886,
              0.8530987782820402
            ],
            [
              0.42178131746906994,
              0.8914877915210879
            ],
            [
              0.47196165374084176,
              0.8420505004208244
            ]
          ]
        ]
      }
    },
    {
      "type": "Feature",
      "properties": {
        "cell_id": "CEG2000_f4_r0028_c0109",
        "method": "Direct Polar",
        "view": "annulus"
      },
      "geometry": {
        "type": "Polygon",
        "coordinates": [
          [
            [
              0.557700881879914,
              0.7697337878569981
            ],
            [
              0.6485566652555843,
              0.7298747433394552
            ],
            [
              0.6000368627644742,
              0.7999723515995835
            ],
            [
              0.5217507261359218,
              0.8530979895513987
            ],
            [
              0.557700881879914,
              0.7697337878569981
            ]
          ]
        ]
      }
    },
    {
      "type": "Feature",
      "properties": {
        "cell_id": "CEG2000_f4_r0028_c0110",
        "method": "Direct Polar",
        "view": "annulus"
      },
      "geometry": {
        "type": "Polygon",
        "coordinates": [
          [
            [
              0.6485555914604793,
              0.7298755561295881
            ],
            [
              0.7162622653946382,
              0.6804468389799043
            ],
            [
              0.6642217662591148,
              0.7475355812452152
            ],
            [
              0.6000357993721295,
              0.7999731492193032
            ],
            [
              0.6485555914604793,
              0.7298755561295881
            ]
          ]
        ]
      }
    }
  ]
}