{
  "type": "FeatureCollection",
  "features": [
    {
      "type": "Feature",
      "properties": {
        "cell_id": "CEG2000_f4_r0015_c0102",
        "method": "Direct Polar",
        "view": "disk"
      },
      "geometry": {
        "type": "Polygon",
        "coordinates": [
          [
            [
              -0.2896039845325683,
              -0.9571465572956213
            ],
            [
              -0.18234055089792248,
              -0.9832354364536716
            ],
            [
              -0.20243766458046508,
              -0.9476857618459488
            ],
            [
              -0.31433779387005134,
              -0.9019226366554961
            ],
            [
              -0.2896039845325683,
              -0.9571465572956213
            ]
          ]
        ]
      }
    },
    {
      "type": "Feature",
      "properties": {
        "cell_id": "CEG2000_f4_r0016_c0102",
        "method": "Direct Polar",
        "view": "disk"
      },
      "geometry": {
        "type": "Polygon",
        "coordinates": [
          [
            [
              -0.3143377702371787,
              -0.9019232536908341
            ],
            [
              -0.20243768207771734,
              -0.9476865633505083
            ],
            [
              -0.19821311348073417,
              -0.7869944551499015
            ],
            [
              -0.3193292413186646,
              -0.7771012852239503
            ],
            [
              -0.3143377702371787,
              -0.9019232536908341
            ]
          ]
        ]
      }
    },
    {
      "type": "Feature",
      "properties": {
        "cell_id": "CEG2000_f4_r0016_c0103",
        "method": "Direct Polar",
        "view": "disk"
      },
      "geometry": {
        "type": "Polygon",
        "coordinates": [
          [
            [
              -0.2024359826290729,
              -0.947687585274757
            ],
            [
              -0.07846490792585739,
              -0.996916876286176
            ],
            [
              -0.07896147453344905,
              -0.8508728188991318
            ],
            [
              -0.19821150513779107,
              -0.7869955247148991
            ],
            [
              -0.2024359826290729,
              -0.947687585274757
            ]
          ]
        ]
      }
    },
    {
      "type": "Feature",
      "properties": {
        "cell_id": "CEG2000_f4_r0016_c0104",
        "method": "Direct Polar",
        "view": "disk"
      },
      "geometry": {
        "type": "Polygon",
        "coordinates": [
          [
            [
              -0.0784629029807618,
              -0.9969170340885101
            ],
            [
              0.05579247862781273,
              -0.9927242425838254
            ],
            [
              0.05543195609384371,
              -0.8365253343769284
            ],
            [
              -0.07895952127505541,
              -0.850873647294226
            ],
            [
              -0.0784629029807618,
              -0.9969170340885101
            ]
          ]
        ]
      }
    },
    {
      "type": "Feature",
      "properties": {
        "cell_id": "CEG2000_f4_r0016_c0105",
        "method": "Direct Polar",
        "view": "disk"
      },
      "geometry": {
        "type": "Polygon",
        "coordinates": [
          [
            [
              0.05579054172241,
              -0.9927255232990053
            ],
            [
              0.18771122995296297,
              -0.9822242585833165
            ],
            [
              0.21981602852670104,
              -0.9755413438715699
            ],
            [
              0.05543004627733313,
              -0.8365266335076855
            ],
            [
              0.05579054172241,
              -0.9927255232990053
            ]
          ]
        ]
      }
    },
    {
      "type": "Feature",
      "properties": {
        "cell_id": "CEG2000_f4_r0017_c0101",
        "method": "Direct Polar",
        "view": "disk"
      },
      "geometry": {
        "type": "Polygon",
        "coordinates": [
          [
            [
              -0.4951943826559875,
              -0.8687822071071412
            ],
            [
              -0.31932724412769414,
              -0.7771002413272479
            ],
            [
              -0.41080553027613914,
              -0.8207138901219878
            ],
            [
              -0.5422718988053357,
              -0.7810282433701282
            ],
            [
              -0.4951943826559875,
              -0.8687822071071412
            ]
          ]
        ]
      }
    },
    {
      "type": "Feature",
      "properties": {
        "cell_id": "CEG2000_f4_r0017_c0102",
        "method": "Direct Polar",
        "view": "disk"
      },
      "geometry": {
        "type": "Polygon",
        "coordinates": [
          [
            [
              -0.31932926740092504,
              -0.7771006529766862
            ],
            [
              -0.19821308802260199,
              -0.7869936494932481
            ],
            [
              -0.19184136396718748,
              -0.6253103040882292
            ],
            [
              -0.41080711024399397,
              -0.8207122812878567
            ],
            [
              -0.31932926740092504,
              -0.7771006529766862
            ]
          ]
        ]
      }
    },
    {
      "type": "Feature",
      "properties": {
        "cell_id": "CEG2000_f4_r0017_c0103",
        "method": "Direct Polar",
        "view": "disk"
      },
      "geometry": {
        "type": "Polygon",
        "coordinates": [
          [
            [
              -0.1982114796802069,
              -0.7869947190585063
            ],
            [
              -0.07896147185651785,
              -0.8508720282877694
            ],
            [
              -0.07829482376964549,
              -0.6926223379728653
            ],
            [
              -0.19183989193522513,
              -0.6253114297043401
            ],
            [
              -0.1982114796802069,
              -0.7869947190585063
            ]
          ]
        ]
      }
    },
    {
      "type": "Feature",
      "properties": {
        "cell_id": "CEG2000_f4_r0017_c0104",
        "method": "Direct Polar",
        "view": "disk"
      },
      "geometry": {
        "type": "Polygon",
        "coordinates": [
          [
            [
              -0.07895951859827587,
              -0.8508728566830166
            ],
            [
              0.055431953953354186,
              -0.8365245531543907
            ],
            [
              0.05490531032912537,
              -0.6802166950902129
            ],
            [
              -0.07829290855166138,
              -0.6926232029376453
            ],
            [
              -0.07895951859827587,
              -0.8508728566830166
            ]
          ]
        ]
      }
    },
    {
      "type": "Feature",
      "properties": {
        "cell_id": "CEG2000_f4_r0017_c0105",
        "method": "Direct Polar",
        "view": "disk"
      },
      "geometry": {
        "type": "Polygon",
        "coordinates": [
          [
            [
              0.05543004413700482,
              -0.8365258522852538
            ],
            [
              0.21981621581369723,
              -0.975541301670691
            ],
            [
              0.24623405706712231,
              -0.8971157594985721
            ],
            [
              0.054903440319209434,
              -0.680218019849061
            ],
            [
              0.05543004413700482,
              -0.8365258522852538
            ]
          ]
        ]
      }
    },
    {
      "type": "Feature",
      "properties": {
        "cell_id": "CEG2000_f4_r0018_c0101",
        "method": "Direct Polar",
        "view": "disk"
      },
      "geometry": {
        "type": "Polygon",
        "coordinates": [
          [
            [
              -0.5422718988053357,
              -0.7810282433701282
            ],
            [
              -0.41080553027613914,
              -0.8207138901219878
            ],
            [
              -0.3817689229266099,
              -0.5963518792229864
            ],
            [
              -0.6488432324056905,
              -0.7306946643895527
            ],
            [
              -0.5422718988053357,
              -0.7810282433701282
            ]
          ]
        ]
      }
    },
    {
      "type": "Feature",
      "properties": {
        "cell_id": "CEG2000_f4_r0018_c0102",
        "method": "Direct Polar",
        "view": "disk"
      },
      "geometry": {
        "type": "Polygon",
        "coordinates": [
          [
            [
              -0.41080711024399397,
              -0.8207122812878567
            ],
            [
              -0.19184136396718748,
              -0.6253103040882292
            ],
            [
              -0.19488520571829404,
              -0.49668234252572147
            ],
            [
              -0.38177180421363527,
              -0.5963529173941223
            ],
            [
              -0.41080711024399397,
              -0.8207122812878567
            ]
          ]
        ]
      }
    },
    {
      "type": "Feature",
      "properties": {
        "cell_id": "CEG2000_f4_r0018_c0103",
        "method": "Direct Polar",
        "view": "disk"
      },
      "geometry": {
        "type": "Polygon",
        "coordinates": [
          [
            [
              -0.19183989193522513,
              -0.6253114297043401
            ],
            [
              -0.07829482376964549,
              -0.6926223379728653
            ],
            [
              -0.07720054859003413,
              -0.5339865851262048
            ],
            [
              -0.19488318586855435,
              -0.49668189994915113
            ],
            [
              -0.19183989193522513,
              -0.6253114297043401
            ]
          ]
        ]
      }
    },
    {
      "type": "Feature",
      "properties": {
        "cell_id": "CEG2000_f4_r0018_c0104",
        "method": "Direct Polar",
        "view": "disk"
      },
      "geometry": {
        "type": "Polygon",
        "coordinates": [
          [
            [
              -0.07829290855166138,
              -0.6926232029376453
            ],
            [
              0.05490531032912537,
              -0.6802166950902129
            ],
            [
              0.05406490289485157,
              -0.5237148407988186
            ],
            [
              -0.0771986965655915,
              -0.5339875039417442
            ],
            [
              -0.07829290855166138,
              -0.6926232029376453
            ]
          ]
        ]
      }
    },
    {
      "type": "Feature",
      "properties": {
        "cell_id": "CEG2000_f4_r0018_c0105",
        "method": "Direct Polar",
        "view": "disk"
      },
      "geometry": {
        "type": "Polygon",
        "coordinates": [
          [
            [
              0.054903440319209434,
              -0.680218019849061
            ],
            [
              0.24623405706712231,
              -0.8971157594985721
            ],
            [
              0.27584221654947594,
              -0.7857920240595754
            ],
            [
              0.05406309688568519,
              -0.5237162034679193
            ],
            [
              0.054903440319209434,
              -0.680218019849061
            ]
          ]
        ]
      }
    },
    {
      "type": "Feature",
      "properties": {
        "cell_id": "CEG2000_f4_r0018_c0106",
        "method": "Direct Polar",
        "view": "disk"
      },
      "geometry": {
        "type": "Polygon",
        "coordinates": [
          [
            [
              0.24623405706712231,
              -0.8971157594985721
            ],
            [
              0.42404887879961456,
              -0.9056393036903764
            ],
            [
              0.5137667095328745,
              -0.8579299319733301
            ],
            [
              0.27584221654947594,
              -0.7857920240595754
            ],
            [
              0.24623405706712231,
              -0.8971157594985721
            ]
          ]
        ]
      }
    },
    {
      "type": "Feature",
      "properties": {
        "cell_id": "CEG2000_f4_r0019_c0101",
        "method": "Direct Polar",
        "view": "disk"
      },
      "geometry": {
        "type": "Polygon",
        "coordinates": [
          [
            [
              -0.6488432324056895,
              -0.7306946643895534
            ],
            [
              -0.38176892292660924,
              -0.5963518792229872
            ],
            [
              -0.4677158711343746,
              -0.5268047181113705
            ],
            [
              -0.7762999130926788,
              -0.6303637401788744
            ],
            [
              -0.6488432324056895,
              -0.7306946643895534
            ]
          ]
        ]
      }
    },
    {
      "type": "Feature",
      "properties": {
        "cell_id": "CEG2000_f4_r0019_c0102",
        "method": "Direct Polar",
        "view": "disk"
      },
      "geometry": {
        "type": "Polygon",
        "coordinates": [
          [
            [
              -0.38177180421363505,
              -0.5963529173941231
            ],
            [
              -0.19488520571829399,
              -0.4966823425257226
            ],
            [
              -0.244365011975549,
              -0.4490600311431159
            ],
            [
              -0.4677205578068186,
              -0.5268069380637901
            ],
            [
              -0.38177180421363505,
              -0.5963529173941231
            ]
          ]
        ]
      }
    },
    {
      "type": "Feature",
      "properties": {
        "cell_id": "CEG2000_f4_r0019_c0103",
        "method": "Direct Polar",
        "view": "disk"
      },
      "geometry": {
        "type": "Polygon",
        "coordinates": [
          [
            [
              -0.1948831858685541,
              -0.4966818999491518
            ],
            [
              -0.07720054859003424,
              -0.5339865851262072
            ],
            [
              -0.07510657859741612,
              -0.3745876615439115
            ],
            [
              -0.24436357555060345,
              -0.4490616455534473
            ],
            [
              -0.1948831858685541,
              -0.4966818999491518
            ]
          ]
        ]
      }
    },
    {
      "type": "Feature",
      "properties": {
        "cell_id": "CEG2000_f4_r0019_c0104",
        "method": "Direct Polar",
        "view": "disk"
      },
      "geometry": {
        "type": "Polygon",
        "coordinates": [
          [
            [
              -0.07719869656559146,
              -0.5339875039417455
            ],
            [
              0.05406490289485157,
              -0.5237148407988197
            ],
            [
              0.05891920261670725,
              -0.41153032535269946
            ],
            [
              -0.07510484887837601,
              -0.37458866554604003
            ],
            [
              -0.07719869656559146,
              -0.5339875039417455
            ]
          ]
        ]
      }
    },
    {
      "type": "Feature",
      "properties": {
        "cell_id": "CEG2000_f4_r0019_c0105",
        "method": "Direct Polar",
        "view": "disk"
      },
      "geometry": {
        "type": "Polygon",
        "coordinates": [
          [
            [
              0.054063096885685114,
              -0.5237162034679208
            ],
            [
              0.27584221654947605,
              -0.7857920240595774
            ],
            [
              0.316677929705404,
              -0.6504743992236154
            ],
            [
              0.058916894956123164,
              -0.4115290247767343
            ],
            [
              0.054063096885685114,
              -0.5237162034679208
            ]
          ]
        ]
      }
    },
    {
      "type": "Feature",
      "properties": {
        "cell_id": "CEG2000_f4_r0019_c0106",
        "method": "Direct Polar",
        "view": "disk"
      },
      "geometry": {
        "type": "Polygon",
        "coordinates": [
          [
            [
              0.27584221654947605,
              -0.7857920240595774
            ],
            [
              0.5137667095328736,
              -0.8579299319733308
            ],
            [
              0.6262165809788083,
              -0.7540079970260347
            ],
            [
              0.316677929705404,
              -0.6504743992236154
            ],
            [
              0.27584221654947605,
              -0.7857920240595774
            ]
          ]
        ]
      }
    },
    {
      "type": "Feature",
      "properties": {
        "cell_id": "CEG2000_f4_r0020_c0101",
        "method": "Direct Polar",
        "view": "disk"
      },
      "geometry": {
        "type": "Polygon",
        "coordinates": [
          [
            [
              -0.7762999130926788,
              -0.6303637401788744
            ],
            [
              -0.4677158711343746,
              -0.5268047181113705
            ],
            [
              -0.6195435971579546,
              -0.4278519544393033
            ],
            [
              -0.8402602109306345,
              -0.41834018431295444
            ],
            [
              -0.7762999130926788,
              -0.6303637401788744
            ]
          ]
        ]
      }
    },
    {
      "type": "Feature",
      "properties": {
        "cell_id": "CEG2000_f4_r0020_c0102",
        "method": "Direct Polar",
        "view": "disk"
      },
      "geometry": {
        "type": "Polygon",
        "coordinates": [
          [
            [
              -0.4677205578068186,
              -0.5268069380637901
            ],
            [
              -0.244365011975549,
              -0.4490600311431159
            ],
            [
              -0.2865985546798673,
              -0.32291890603814954
            ],
            [
              -0.6195489239472852,
              -0.4278531488253785
            ],
            [
              -0.4677205578068186,
              -0.5268069380637901
            ]
          ]
        ]
      }
    },
    {
      "type": "Feature",
      "properties": {
        "cell_id": "CEG2000_f4_r0020_c0103",
        "method": "Direct Polar",
        "view": "disk"
      },
      "geometry": {
        "type": "Polygon",
        "coordinates": [
          [
            [
              -0.24436357555060345,
              -0.4490616455534473
            ],
            [
              -0.07510657859741612,
              -0.3745876615439115
            ],
            [
              -0.07053848037489793,
              -0.21570275269459288
            ],
            [
              -0.2865938685562926,
              -0.3229166851165915
            ],
            [
              -0.24436357555060345,
              -0.4490616455534473
            ]
          ]
        ]
      }
    },
    {
      "type": "Feature",
      "properties": {
        "cell_id": "CEG2000_f4_r0020_c0104",
        "method": "Direct Polar",
        "view": "disk"
      },
      "geometry": {
        "type": "Polygon",
        "coordinates": [
          [
            [
              -0.07510484887837601,
              -0.37458866554604003
            ],
            [
              0.05891920261670725,
              -0.41153032535269946
            ],
            [
              0.06948542164054033,
              -0.29757248965986494
            ],
            [
              -0.07053648464009302,
              -0.21570219564053264
            ],
            [
              -0.07510484887837601,
              -0.37458866554604003
            ]
          ]
        ]
      }
    },
    {
      "type": "Feature",
      "properties": {
        "cell_id": "CEG2000_f4_r0020_c0105",
        "method": "Direct Polar",
        "view": "disk"
      },
      "geometry": {
        "type": "Polygon",
        "coordinates": [
          [
            [
              0.058916894956123164,
              -0.4115290247767343
            ],
            [
              0.316677929705404,
              -0.6504743992236154
            ],
            [
              0.3665066500373965,
              -0.46158147344868167
            ],
            [
              0.06948289465328905,
              -0.29757238227512695
            ],
            [
              0.058916894956123164,
              -0.4115290247767343
            ]
          ]
        ]
      }
    },
    {
      "type": "Feature",
      "properties": {
        "cell_id": "CEG2000_f4_r0020_c0106",
        "method": "Direct Polar",
        "view": "disk"
      },
      "geometry": {
        "type": "Polygon",
        "coordinates": [
          [
            [
              0.316677929705404,
              -0.6504743992236154
            ],
            [
              0.6262165809788083,
              -0.7540079970260347
            ],
            [
              0.6649225643507404,
              -0.4908813801189584
            ],
            [
              0.3665066500373965,
              -0.46158147344868167
            ],
            [
              0.316677929705404,
              -0.6504743992236154
            ]
          ]
        ]
      }
    },
    {
      "type": "Feature",
      "properties": {
        "cell_id": "CEG2000_f4_r0020_c0107",
        "method": "Direct Polar",
        "view": "disk"
      },
      "geometry": {
        "type": "Polygon",
        "coordinates": [
          [
            [
              0.626212578741732,
              -0.7540078582172092
            ],
            [
              0.7613166970373204,
              -0.6483802023598384
            ],
            [
              0.8864252881703178,
              -0.4628716976573195
            ],
            [
              0.664916171583598,
              -0.4908797075491088
            ],
            [
              0.626212578741732,
              -0.7540078582172092
            ]
          ]
        ]
      }
    },
    {
      "type": "Feature",
      "properties": {
        "cell_id": "CEG2000_f4_r0021_c0100",
        "method": "Direct Polar",
        "view": "disk"
      },
      "geometry": {
        "type": "Polygon",
        "coordinates": [
          [
            [
              -0.9318924163192276,
              -0.3627347852173973
            ],
            [
              -0.8402596843666504,
              -0.41834124194519456
            ],
            [
              -0.8529793065803598,
              -0.1567197367063461
            ],
            [
              -0.9898399751850944,
              -0.14218587667406266
            ],
            [
              -0.9318924163192276,
              -0.3627347852173973
            ]
          ]
        ]
      }
    },
    {
      "type": "Feature",
      "properties": {
        "cell_id": "CEG2000_f4_r0021_c0101",
        "method": "Direct Polar",
        "view": "disk"
      },
      "geometry": {
        "type": "Polygon",
        "coordinates": [
          [
            [
              -0.8402596843666504,
              -0.41834124194519456
            ],
            [
              -0.6195426574335169,
              -0.4278526552723399
            ],
            [
              -0.638774823672116,
              -0.16279417134505791
            ],
            [
              -0.8529793065803598,
              -0.1567197367063461
            ],
            [
              -0.8402596843666504,
              -0.41834124194519456
            ]
          ]
        ]
      }
    },
    {
      "type": "Feature",
      "properties": {
        "cell_id": "CEG2000_f4_r0021_c0102",
        "method": "Direct Polar",
        "view": "disk"
      },
      "geometry": {
        "type": "Polygon",
        "coordinates": [
          [
            [
              -0.6195479842218063,
              -0.4278538496652324
            ],
            [
              -0.2865978982502705,
              -0.32291918517273194
            ],
            [
              -0.382971370878103,
              -0.15924111120676893
            ],
            [
              -0.6387780741238478,
              -0.16279405450032625
            ],
            [
              -0.6195479842218063,
              -0.4278538496652324
            ]
          ]
        ]
      }
    },
    {
      "type": "Feature",
      "properties": {
        "cell_id": "CEG2000_f4_r0021_c0103",
        "method": "Direct Polar",
        "view": "disk"
      },
      "geometry": {
        "type": "Polygon",
        "coordinates": [
          [
            [
              -0.2865932121315415,
              -0.3229169642426207
            ],
            [
              -0.07053845802227317,
              -0.21570336484743194
            ],
            [
              -0.10548001479080933,
              -0.11903349451704734
            ],
            [
              -0.3829672081023795,
              -0.1592408888354888
            ],
            [
              -0.2865932121315415,
              -0.3229169642426207
            ]
          ]
        ]
      }
    },
    {
      "type": "Feature",
      "properties": {
        "cell_id": "CEG2000_f4_r0021_c0104",
        "method": "Direct Polar",
        "view": "disk"
      },
      "geometry": {
        "type": "Polygon",
        "coordinates": [
          [
            [
              -0.07053646228800717,
              -0.2157028077915049
            ],
            [
              0.06948541944367051,
              -0.29757341904318124
            ],
            [
              0.09575180353580348,
              -0.151326663855015
            ],
            [
              -0.10547533108686892,
              -0.11903126933116043
            ],
            [
              -0.07053646228800717,
              -0.2157028077915049
            ]
          ]
        ]
      }
    },
    {
      "type": "Feature",
      "properties": {
        "cell_id": "CEG2000_f4_r0021_c0105",
        "method": "Direct Polar",
        "view": "disk"
      },
      "geometry": {
        "type": "Polygon",
        "coordinates": [
          [
            [
              0.06948289245618224,
              -0.29757331165675077
            ],
            [
              0.3665066036143601,
              -0.46158287119536007
            ],
            [
              0.43580054151869596,
              -0.20254600851123222
            ],
            [
              0.09574805757245819,
              -0.15132619241088818
            ],
            [
              0.06948289245618224,
              -0.29757331165675077
            ]
          ]
        ]
      }
    },
    {
      "type": "Feature",
      "properties": {
        "cell_id": "CEG2000_f4_r0021_c0106",
        "method": "Direct Polar",
        "view": "disk"
      },
      "geometry": {
        "type": "Polygon",
        "coordinates": [
          [
            [
              0.3665066036143601,
              -0.46158287119536007
            ],
            [
              0.6649214128407286,
              -0.4908820786587562
            ],
            [
              0.6553597980766984,
              -0.17854788007965477
            ],
            [
              0.43580054151869596,
              -0.20254600851123222
            ],
            [
              0.3665066036143601,
              -0.46158287119536007
            ]
          ]
        ]
      }
    },
    {
      "type": "Feature",
      "properties": {
        "cell_id": "CEG2000_f4_r0021_c0107",
        "method": "Direct Polar",
        "view": "disk"
      },
      "geometry": {
        "type": "Polygon",
        "coordinates": [
          [
            [
              0.6649150200756526,
              -0.49088040607987876
            ],
            [
              0.886424689014204,
              -0.46287284507310616
            ],
            [
              0.8620575166447827,
              -0.16612085047357822
            ],
            [
              0.6553566416913361,
              -0.17854812840236728
            ],
            [
              0.6649150200756526,
              -0.49088040607987876
            ]
          ]
        ]
      }
    },
    {
      "type": "Feature",
      "properties": {
        "cell_id": "CEG2000_f4_r0022_c0100",
        "method": "Direct Polar",
        "view": "disk"
      },
      "geometry": {
        "type": "Polygon",
        "coordinates": [
          [
            [
              -0.9898401462587403,
              -0.1421846857241513
            ],
            [
              -0.8529785215211737,
              -0.15671825269574913
            ],
            [
              -0.7936998354119806,
              0.10350404408513551
            ],
            [
              -0.9948427897059515,
              0.10142890993242515
            ],
            [
              -0.9898401462587403,
              -0.1421846857241513
            ]
          ]
        ]
      }
    },
    {
      "type": "Feature",
      "properties": {
        "cell_id": "CEG2000_f4_r0022_c0101",
        "method": "Direct Polar",
        "view": "disk"
      },
      "geometry": {
        "type": "Polygon",
        "coordinates": [
          [
            [
              -0.8529785215211737,
              -0.15671825269574913
            ],
            [
              -0.6387741486363001,
              -0.16279260761056186
            ],
            [
              -0.5696693879894809,
              0.10304567625475992
            ],
            [
              -0.7936998354119806,
              0.10350404408513551
            ],
            [
              -0.8529785215211737,
              -0.15671825269574913
            ]
          ]
        ]
      }
    },
    {
      "type": "Feature",
      "properties": {
        "cell_id": "CEG2000_f4_r0022_c0102",
        "method": "Direct Polar",
        "view": "disk"
      },
      "geometry": {
        "type": "Polygon",
        "coordinates": [
          [
            [
              -0.6387773990857347,
              -0.16279249076724264
            ],
            [
              -0.3829718534828074,
              -0.15923995054810575
            ],
            [
              -0.3486184891670263,
              0.10288572847886421
            ],
            [
              -0.5696726726903331,
              0.10304567209751322
            ],
            [
              -0.6387773990857347,
              -0.16279249076724264
            ]
          ]
        ]
      }
    },
    {
      "type": "Feature",
      "properties": {
        "cell_id": "CEG2000_f4_r0022_c0103",
        "method": "Direct Polar",
        "view": "disk"
      },
      "geometry": {
        "type": "Polygon",
        "coordinates": [
          [
            [
              -0.38296769070963393,
              -0.15923972818168802
            ],
            [
              -0.10548067042240222,
              -0.11903321678888064
            ],
            [
              -0.1406721366884554,
              0.1126737934019571
            ],
            [
              -0.3486151252151042,
              0.10288571035732198
            ],
            [
              -0.38296769070963393,
              -0.15923972818168802
            ]
          ]
        ]
      }
    },
    {
      "type": "Feature",
      "properties": {
        "cell_id": "CEG2000_f4_r0022_c0104",
        "method": "Direct Polar",
        "view": "disk"
      },
      "geometry": {
        "type": "Polygon",
        "coordinates": [
          [
            [
              -0.10547598670528972,
              -0.11903099162617445
            ],
            [
              0.09575187435736925,
              -0.1513254821141276
            ],
            [
              0.04870965647312948,
              0.054638578490202004
            ],
            [
              -0.140668867164522,
              0.11267407151658682
            ],
            [
              -0.10547598670528972,
              -0.11903099162617445
            ]
          ]
        ]
      }
    },
    {
      "type": "Feature",
      "properties": {
        "cell_id": "CEG2000_f4_r0022_c0105",
        "method": "Direct Polar",
        "view": "disk"
      },
      "geometry": {
        "type": "Polygon",
        "coordinates": [
          [
            [
              0.09574812839639903,
              -0.15132501068181495
            ],
            [
              0.4357996595834599,
              -0.20254386708728875
            ],
            [
              0.18150171399324477,
              0.05987320198662834
            ],
            [
              0.04870854400549992,
              0.054639297972419135
            ],
            [
              0.09574812839639903,
              -0.15132501068181495
            ]
          ]
        ]
      }
    },
    {
      "type": "Feature",
      "properties": {
        "cell_id": "CEG2000_f4_r0022_c0106",
        "method": "Direct Polar",
        "view": "disk"
      },
      "geometry": {
        "type": "Polygon",
        "coordinates": [
          [
            [
              0.4357996595834599,
              -0.20254386708728875
            ],
            [
              0.6553585427341709,
              -0.17854601169748222
            ],
            [
              0.6052030187524847,
              0.11702854817941429
            ],
            [
              0.18150171399324477,
              0.05987320198662834
            ],
            [
              0.4357996595834599,
              -0.20254386708728875
            ]
          ]
        ]
      }
    },
    {
      "type": "Feature",
      "properties": {
        "cell_id": "CEG2000_f4_r0022_c0107",
        "method": "Direct Polar",
        "view": "disk"
      },
      "geometry": {
        "type": "Polygon",
        "coordinates": [
          [
            [
              0.6553553863521253,
              -0.1785462600168526
            ],
            [
              0.862056108941941,
              -0.16611915906791794
            ],
            [
              0.8434564182585697,
              0.11536295731244624
            ],
            [
              0.6051994239550983,
              0.11702857945252054
            ],
            [
              0.6553553863521253,
              -0.1785462600168526
            ]
          ]
        ]
      }
    },
    {
      "type": "Feature",
      "properties": {
        "cell_id": "CEG2000_f4_r0022_c0108",
        "method": "Direct Polar",
        "view": "disk"
      },
      "geometry": {
        "type": "Polygon",
        "coordinates": [
          [
            [
              0.8620591707247747,
              -0.16611901975825485
            ],
            [
              0.9890708184902998,
              -0.14744122900643672
            ],
            [
              0.994449087946648,
              0.10521887417226991
            ],
            [
              0.8434599772369861,
              0.11536293760612518
            ],
            [
              0.8620591707247747,
              -0.16611901975825485
            ]
          ]
        ]
      }
    },
    {
      "type": "Feature",
      "properties": {
        "cell_id": "CEG2000_f4_r0023_c0100",
        "method": "Direct Polar",
        "view": "disk"
      },
      "geometry": {
        "type": "Polygon",
        "coordinates": [
          [
            [
              -0.9948427897059515,
              0.10142890993242515
            ],
            [
              -0.7936998354119806,
              0.10350404408513551
            ],
            [
              -0.7924193457005074,
              0.352267042270001
            ],
            [
              -0.9445762978709227,
              0.328291969899451
            ],
            [
              -0.9948427897059515,
              0.10142890993242515
            ]
          ]
        ]
      }
    },
    {
      "type": "Feature",
      "properties": {
        "cell_id": "CEG2000_f4_r0023_c0101",
        "method": "Direct Polar",
        "view": "disk"
      },
      "geometry": {
        "type": "Polygon",
        "coordinates": [
          [
            [
              -0.7936998354119806,
              0.10350404408513551
            ],
            [
              -0.5696693879894809,
              0.10304567625475992
            ],
            [
              -0.6031982699743862,
              0.371948569821066
            ],
            [
              -0.7924193457005074,
              0.352267042270001
            ],
            [
              -0.7936998354119806,
              0.10350404408513551
            ]
          ]
        ]
      }
    },
    {
      "type": "Feature",
      "properties": {
        "cell_id": "CEG2000_f4_r0023_c0102",
        "method": "Direct Polar",
        "view": "disk"
      },
      "geometry": {
        "type": "Polygon",
        "coordinates": [
          [
            [
              -0.5696726726903331,
              0.10304567209751322
            ],
            [
              -0.3486184891670263,
              0.10288572847886421
            ],
            [
              -0.3468250842860508,
              0.3489242356391154
            ],
            [
              -0.6032012589196024,
              0.371948253235417
            ],
            [
              -0.5696726726903331,
              0.10304567209751322
            ]
          ]
        ]
      }
    },
    {
      "type": "Feature",
      "properties": {
        "cell_id": "CEG2000_f4_r0023_c0103",
        "method": "Direct Polar",
        "view": "disk"
      },
      "geometry": {
        "type": "Polygon",
        "coordinates": [
          [
            [
              -0.3486151252151042,
              0.10288571035732198
            ],
            [
              -0.1406721366884554,
              0.1126737934019571
            ],
            [
              -0.09517920309270901,
              0.25987997181647765
            ],
            [
              -0.3468119108358687,
              0.3489142878084684
            ],
            [
              -0.3486151252151042,
              0.10288571035732198
            ]
          ]
        ]
      }
    },
    {
      "type": "Feature",
      "properties": {
        "cell_id": "CEG2000_f4_r0023_c0104",
        "method": "Direct Polar",
        "view": "disk"
      },
      "geometry": {
        "type": "Polygon",
        "coordinates": [
          [
            [
              -0.140668867164522,
              0.11267407151658682
            ],
            [
              0.04870965647312948,
              0.054638578490202004
            ],
            [
              0.057533168088639106,
              0.2199978970023046
            ],
            [
              -0.09517697547090086,
              0.25988057109150703
            ],
            [
              -0.140668867164522,
              0.11267407151658682
            ]
          ]
        ]
      }
    },
    {
      "type": "Feature",
      "properties": {
        "cell_id": "CEG2000_f4_r0023_c0105",
        "method": "Direct Polar",
        "view": "disk"
      },
      "geometry": {
        "type": "Polygon",
        "coordinates": [
          [
            [
              0.04870854400549992,
              0.054639297972419135
            ],
            [
              0.18150171399324477,
              0.05987320198662834
            ],
            [
              0.1657842467308724,
              0.18642790926922448
            ],
            [
              0.057531086978307555,
              0.21999786046888292
            ],
            [
              0.04870854400549992,
              0.054639297972419135
            ]
          ]
        ]
      }
    },
    {
      "type": "Feature",
      "properties": {
        "cell_id": "CEG2000_f4_r0023_c0106",
        "method": "Direct Polar",
        "view": "disk"
      },
      "geometry": {
        "type": "Polygon",
        "coordinates": [
          [
            [
              0.18150171399324477,
              0.05987320198662834
            ],
            [
              0.6052030187524847,
              0.11702854817941429
            ],
            [
              0.29396911791227226,
              0.19377973415196556
            ],
            [
              0.1657842467308724,
              0.18642790926922448
            ],
            [
              0.18150171399324477,
              0.05987320198662834
            ]
          ]
        ]
      }
    },
    {
      "type": "Feature",
      "properties": {
        "cell_id": "CEG2000_f4_r0023_c0107",
        "method": "Direct Polar",
        "view": "disk"
      },
      "geometry": {
        "type": "Polygon",
        "coordinates": [
          [
            [
              0.6051994239550983,
              0.11702857945252054
            ],
            [
              0.8434564182585697,
              0.11536295731244624
            ],
            [
              0.41327160116755207,
              0.19268824042782098
            ],
            [
              0.2939675405536308,
              0.1937798971830113
            ],
            [
              0.6051994239550983,
              0.11702857945252054
            ]
          ]
        ]
      }
    },
    {
      "type": "Feature",
      "properties": {
        "cell_id": "CEG2000_f4_r0023_c0108",
        "method": "Direct Polar",
        "view": "disk"
      },
      "geometry": {
        "type": "Polygon",
        "coordinates": [
          [
            [
              0.8434599772369861,
              0.11536293760612518
            ],
            [
              0.994449087946648,
              0.10521887417226991
            ],
            [
              0.5460759188240859,
              0.196960907581819
            ],
            [
              0.4132736007637473,
              0.1926883267744656
            ],
            [
              0.8434599772369861,
              0.11536293760612518
            ]
          ]
        ]
      }
    },
    {
      "type": "Feature",
      "properties": {
        "cell_id": "CEG2000_f4_r0024_c0100",
        "method": "Direct Polar",
        "view": "disk"
      },
      "geometry": {
        "type": "Polygon",
        "coordinates": [
          [
            [
              -0.9445762978709232,
              0.3282919698994493
            ],
            [
              -0.7924193457005083,
              0.3522670422699992
            ],
            [
              -0.7966664292434928,
              0.6044192257997943
            ],
            [
              -0.8600793993303469,
              0.5101601972396019
            ],
            [
              -0.9445762978709232,
              0.3282919698994493
            ]
          ]
        ]
      }
    },
    {
      "type": "Feature",
      "properties": {
        "cell_id": "CEG2000_f4_r0024_c0101",
        "method": "Direct Polar",
        "view": "disk"
      },
      "geometry": {
        "type": "Polygon",
        "coordinates": [
          [
            [
              -0.7924193457005083,
              0.3522670422699992
            ],
            [
              -0.6031982699743825,
              0.3719485698210615
            ],
            [
              -0.5300101146970327,
              0.5577656615636869
            ],
            [
              -0.7966664292434928,
              0.6044192257997943
            ],
            [
              -0.7924193457005083,
              0.3522670422699992
            ]
          ]
        ]
      }
    },
    {
      "type": "Feature",
      "properties": {
        "cell_id": "CEG2000_f4_r0024_c0102",
        "method": "Direct Polar",
        "view": "disk"
      },
      "geometry": {
        "type": "Polygon",
        "coordinates": [
          [
            [
              -0.603201258919599,
              0.3719482532354124
            ],
            [
              -0.3468250842860582,
              0.3489242356391208
            ],
            [
              -0.2508422777627204,
              0.4306913813848015
            ],
            [
              -0.5300140779243745,
              0.5577665937650242
            ],
            [
              -0.603201258919599,
              0.3719482532354124
            ]
          ]
        ]
      }
    },
    {
      "type": "Feature",
      "properties": {
        "cell_id": "CEG2000_f4_r0024_c0103",
        "method": "Direct Polar",
        "view": "disk"
      },
      "geometry": {
        "type": "Polygon",
        "coordinates": [
          [
            [
              -0.34681191083587437,
              0.3489142878084719
            ],
            [
              -0.095179203092709,
              0.259879971816476
            ],
            [
              -0.0965399276260855,
              0.44986533133560397
            ],
            [
              -0.25083963704016476,
              0.4306909273567463
            ],
            [
              -0.34681191083587437,
              0.3489142878084719
            ]
          ]
        ]
      }
    },
    {
      "type": "Feature",
      "properties": {
        "cell_id": "CEG2000_f4_r0024_c0104",
        "method": "Direct Polar",
        "view": "disk"
      },
      "geometry": {
        "type": "Polygon",
        "coordinates": [
          [
            [
              -0.09517697547090084,
              0.25988057109150536
            ],
            [
              0.05753316808863911,
              0.21999789700230324
            ],
            [
              0.06123645939729675,
              0.39962727592226666
            ],
            [
              -0.09653722121660478,
              0.4498642859638582
            ],
            [
              -0.09517697547090084,
              0.25988057109150536
            ]
          ]
        ]
      }
    },
    {
      "type": "Feature",
      "properties": {
        "cell_id": "CEG2000_f4_r0024_c0105",
        "method": "Direct Polar",
        "view": "disk"
      },
      "geometry": {
        "type": "Polygon",
        "coordinates": [
          [
            [
              0.05753108697830756,
              0.21999786046888156
            ],
            [
              0.16578424673087194,
              0.1864279092692228
            ],
            [
              0.19429184126064838,
              0.37287824246339474
            ],
            [
              0.061234231537787266,
              0.3996271260733019
            ],
            [
              0.05753108697830756,
              0.21999786046888156
            ]
          ]
        ]
      }
    },
    {
      "type": "Feature",
      "properties": {
        "cell_id": "CEG2000_f4_r0024_c0106",
        "method": "Direct Polar",
        "view": "disk"
      },
      "geometry": {
        "type": "Polygon",
        "coordinates": [
          [
            [
              0.16578424673087194,
              0.1864279092692228
            ],
            [
              0.2939691179122715,
              0.1937797341519638
            ],
            [
              0.28285983664935005,
              0.3182165352846828
            ],
            [
              0.19429184126064838,
              0.37287824246339474
            ],
            [
              0.16578424673087194,
              0.1864279092692228
            ]
          ]
        ]
      }
    },
    {
      "type": "Feature",
      "properties": {
        "cell_id": "CEG2000_f4_r0024_c0107",
        "method": "Direct Polar",
        "view": "disk"
      },
      "geometry": {
        "type": "Polygon",
        "coordinates": [
          [
            [
              0.2939675405536311,
              0.19377989718301028
            ],
            [
              0.4132716011675525,
              0.19268824042781998
            ],
            [
              0.41071330693297203,
              0.32681594128840913
            ],
            [
              0.2828587208502808,
              0.31821725520272603
            ],
            [
              0.2939675405536311,
              0.19377989718301028
            ]
          ]
        ]
      }
    },
    {
      "type": "Feature",
      "properties": {
        "cell_id": "CEG2000_f4_r0024_c0108",
        "method": "Direct Polar",
        "view": "disk"
      },
      "geometry": {
        "type": "Polygon",
        "coordinates": [
          [
            [
              0.4132736007637475,
              0.19268832677446449
            ],
            [
              0.5460759188240863,
              0.1969609075818179
            ],
            [
              0.5320824019380064,
              0.3275297223493874
            ],
            [
              0.4107158091897455,
              0.32681649756859527
            ],
            [
              0.4132736007637475,
              0.19268832677446449
            ]
          ]
        ]
      }
    },
    {
      "type": "Feature",
      "properties": {
        "cell_id": "CEG2000_f4_r0024_c0109",
        "method": "Direct Polar",
        "view": "disk"
      },
      "geometry": {
        "type": "Polygon",
        "coordinates": [
          [
            [
              0.5460779869583513,
              0.19696098458757355
            ],
            [
              0.7243933316053096,
              0.21304000794966096
            ],
            [
              0.649873829140927,
              0.3261824451349509
            ],
            [
              0.532083943627433,
              0.3275295589681748
            ],
            [
              0.5460779869583513,
              0.19696098458757355
            ]
          ]
        ]
      }
    },
    {
      "type": "Feature",
      "properties": {
        "cell_id": "CEG2000_f4_r0024_c0110",
        "method": "Direct Polar",
        "view": "disk"
      },
      "geometry": {
        "type": "Polygon",
        "coordinates": [
          [
            [
              0.724390635660581,
              0.21303980505179024
            ],
            [
              0.9705383281465109,
              0.2409467858232927
            ],
            [
              0.7830082768616488,
              0.3317566287571415
            ],
            [
              0.6498718146689832,
              0.326182337324419
            ],
            [
              0.724390635660581,
              0.21303980505179024
            ]
          ]
        ]
      }
    },
    {
      "type": "Feature",
      "properties": {
        "cell_id": "CEG2000_f4_r0024_c0111",
        "method": "Direct Polar",
        "view": "disk"
      },
      "geometry": {
        "type": "Polygon",
        "coordinates": [
          [
            [
              0.9705383281465109,
              0.2409467858232927
            ],
            [
              0.9777019262739404,
              0.20999748417594563
            ],
            [
              0.9152758357999471,
              0.3355091956172688
            ],
            [
              0.7830082768616488,
              0.3317566287571415
            ],
            [
              0.9705383281465109,
              0.2409467858232927
            ]
          ]
        ]
      }
    },
    {
      "type": "Feature",
      "properties": {
        "cell_id": "CEG2000_f4_r0025_c0101",
        "method": "Direct Polar",
        "view": "disk"
      },
      "geometry": {
        "type": "Polygon",
        "coordinates": [
          [
            [
              -0.7966664292434928,
              0.6044192257997943
            ],
            [
              -0.5300101146970327,
              0.5577656615636869
            ],
            [
              -0.4151415777574936,
              0.617776628424544
            ],
            [
              -0.6818427489045977,
              0.7314987804270229
            ],
            [
              -0.7966664292434928,
              0.6044192257997943
            ]
          ]
        ]
      }
    },
    {
      "type": "Feature",
      "properties": {
        "cell_id": "CEG2000_f4_r0025_c0102",
        "method": "Direct Polar",
        "view": "disk"
      },
      "geometry": {
        "type": "Polygon",
        "coordinates": [
          [
            [
              -0.5300140779243745,
              0.5577665937650242
            ],
            [
              -0.2508422777627204,
              0.4306913813848015
            ],
            [
              -0.2552710425451401,
              0.6197758135669938
            ],
            [
              -0.415144198428296,
              0.6177769412613454
            ],
            [
              -0.5300140779243745,
              0.5577665937650242
            ]
          ]
        ]
      }
    },
    {
      "type": "Feature",
      "properties": {
        "cell_id": "CEG2000_f4_r0025_c0103",
        "method": "Direct Polar",
        "view": "disk"
      },
      "geometry": {
        "type": "Polygon",
        "coordinates": [
          [
            [
              -0.25083963704016476,
              0.4306909273567463
            ],
            [
              -0.0965399276260855,
              0.44986533133560397
            ],
            [
              -0.09377814835345918,
              0.6179379059869539
            ],
            [
              -0.2552688975866313,
              0.6197764770911622
            ],
            [
              -0.25083963704016476,
              0.4306909273567463
            ]
          ]
        ]
      }
    },
    {
      "type": "Feature",
      "properties": {
        "cell_id": "CEG2000_f4_r0025_c0104",
        "method": "Direct Polar",
        "view": "disk"
      },
      "geometry": {
        "type": "Polygon",
        "coordinates": [
          [
            [
              -0.09653722121660478,
              0.4498642859638582
            ],
            [
              0.06123645939729675,
              0.39962727592226666
            ],
            [
              0.060989093847064337,
              0.5628139554703605
            ],
            [
              -0.0937755530023079,
              0.6179366916921115
            ],
            [
              -0.09653722121660478,
              0.4498642859638582
            ]
          ]
        ]
      }
    },
    {
      "type": "Feature",
      "properties": {
        "cell_id": "CEG2000_f4_r0025_c0105",
        "method": "Direct Polar",
        "view": "disk"
      },
      "geometry": {
        "type": "Polygon",
        "coordinates": [
          [
            [
              0.061234231537787266,
              0.3996271260733019
            ],
            [
              0.19429184126064838,
              0.37287824246339474
            ],
            [
              0.18161885020997762,
              0.4928798089612765
            ],
            [
              0.06098687103269497,
              0.5628137079386901
            ],
            [
              0.061234231537787266,
              0.3996271260733019
            ]
          ]
        ]
      }
    },
    {
      "type": "Feature",
      "properties": {
        "cell_id": "CEG2000_f4_r0025_c0106",
        "method": "Direct Polar",
        "view": "disk"
      },
      "geometry": {
        "type": "Polygon",
        "coordinates": [
          [
            [
              0.19429184126064838,
              0.37287824246339474
            ],
            [
              0.28285983664935005,
              0.3182165352846828
            ],
            [
              0.286962874336818,
              0.4565042204626349
            ],
            [
              0.18161885020997762,
              0.4928798089612765
            ],
            [
              0.19429184126064838,
              0.37287824246339474
            ]
          ]
        ]
      }
    },
    {
      "type": "Feature",
      "properties": {
        "cell_id": "CEG2000_f4_r0025_c0107",
        "method": "Direct Polar",
        "view": "disk"
      },
      "geometry": {
        "type": "Polygon",
        "coordinates": [
          [
            [
              0.2828587208502808,
              0.31821725520272603
            ],
            [
              0.41071330693297203,
              0.32681594128840913
            ],
            [
              0.39993339420603746,
              0.4500075018942801
            ],
            [
              0.2869609164411249,
              0.4565039393576858
            ],
            [
              0.2828587208502808,
              0.31821725520272603
            ]
          ]
        ]
      }
    },
    {
      "type": "Feature",
      "properties": {
        "cell_id": "CEG2000_f4_r0025_c0108",
        "method": "Direct Polar",
        "view": "disk"
      },
      "geometry": {
        "type": "Polygon",
        "coordinates": [
          [
            [
              0.4107158091897455,
              0.32681649756859527
            ],
            [
              0.5320824019380064,
              0.3275297223493874
            ],
            [
              0.48770302144124134,
              0.42451681235617433
            ],
            [
              0.39993451021213133,
              0.45000678194947036
            ],
            [
              0.4107158091897455,
              0.32681649756859527
            ]
          ]
        ]
      }
    },
    {
      "type": "Feature",
      "properties": {
        "cell_id": "CEG2000_f4_r0025_c0109",
        "method": "Direct Polar",
        "view": "disk"
      },
      "geometry": {
        "type": "Polygon",
        "coordinates": [
          [
            [
              0.532083943627433,
              0.3275295589681748
            ],
            [
              0.649873829140927,
              0.3261824451349509
            ],
            [
              0.665202846677202,
              0.47212093841944797
            ],
            [
              0.4877046695412072,
              0.4245168051464304
            ],
            [
              0.532083943627433,
              0.3275295589681748
            ]
          ]
        ]
      }
    },
    {
      "type": "Feature",
      "properties": {
        "cell_id": "CEG2000_f4_r0025_c0110",
        "method": "Direct Polar",
        "view": "disk"
      },
      "geometry": {
        "type": "Polygon",
        "coordinates": [
          [
            [
              0.6498718146689832,
              0.326182337324419
            ],
            [
              0.7830082768616488,
              0.3317566287571415
            ],
            [
              0.7699232183024901,
              0.4612839029524158
            ],
            [
              0.6652012287914164,
              0.4721210975713734
            ],
            [
              0.6498718146689832,
              0.326182337324419
            ]
          ]
        ]
      }
    },
    {
      "type": "Feature",
      "properties": {
        "cell_id": "CEG2000_f4_r0025_c0111",
        "method": "Direct Polar",
        "view": "disk"
      },
      "geometry": {
        "type": "Polygon",
        "coordinates": [
          [
            [
              0.7830082768616488,
              0.3317566287571415
            ],
            [
              0.9152758357999471,
              0.3355091956172688
            ],
            [
              0.8863031947167618,
              0.45941203969093347
            ],
            [
              0.7699232183024901,
              0.4612839029524158
            ],
            [
              0.7830082768616488,
              0.3317566287571415
            ]
          ]
        ]
      }
    },
    {
      "type": "Feature",
      "properties": {
        "cell_id": "CEG2000_f4_r0026_c0101",
        "method": "Direct Polar",
        "view": "disk"
      },
      "geometry": {
        "type": "Polygon",
        "coordinates": [
          [
            [
              -0.681843283068328,
              0.7314982825233454
            ],
            [
              -0.41514163076627536,
              0.6177758028372141
            ],
            [
              -0.4037588706348409,
              0.7767711429418045
            ],
            [
              -0.5791061464185864,
              0.803199293980909
            ],
            [
              -0.681843283068328,
              0.7314982825233454
            ]
          ]
        ]
      }
    },
    {
      "type": "Feature",
      "properties": {
        "cell_id": "CEG2000_f4_r0026_c0102",
        "method": "Direct Polar",
        "view": "disk"
      },
      "geometry": {
        "type": "Polygon",
        "coordinates": [
          [
            [
              -0.41514425143674644,
              0.6177761156726065
            ],
            [
              -0.25527100030842925,
              0.6197748036229921
            ],
            [
              -0.26114055123445834,
              0.8196777608511006
            ],
            [
              -0.40376151021844303,
              0.7767717109161346
            ],
            [
              -0.41514425143674644,
              0.6177761156726065
            ]
          ]
        ]
      }
    },
    {
      "type": "Feature",
      "properties": {
        "cell_id": "CEG2000_f4_r0026_c0103",
        "method": "Direct Polar",
        "view": "disk"
      },
      "geometry": {
        "type": "Polygon",
        "coordinates": [
          [
            [
              -0.2552688553510442,
              0.6197754671479461
            ],
            [
              -0.09377815884727378,
              0.6179370704280942
            ],
            [
              -0.09209393020201366,
              0.7845307207086403
            ],
            [
              -0.2611382436090449,
              0.8196782826054679
            ],
            [
              -0.2552688553510442,
              0.6197754671479461
            ]
          ]
        ]
      }
    },
    {
      "type": "Feature",
      "properties": {
        "cell_id": "CEG2000_f4_r0026_c0104",
        "method": "Direct Polar",
        "view": "disk"
      },
      "geometry": {
        "type": "Polygon",
        "coordinates": [
          [
            [
              -0.09377556349567272,
              0.6179358561338433
            ],
            [
              0.06098909493773874,
              0.5628131415344286
            ],
            [
              0.06080193858510615,
              0.7253804837042502
            ],
            [
              -0.09209140924885716,
              0.7845294157604891
            ],
            [
              -0.09377556349567272,
              0.6179358561338433
            ]
          ]
        ]
      }
    },
    {
      "type": "Feature",
      "properties": {
        "cell_id": "CEG2000_f4_r0026_c0105",
        "method": "Direct Polar",
        "view": "disk"
      },
      "geometry": {
        "type": "Polygon",
        "coordinates": [
          [
            [
              0.06098687212332868,
              0.5628128940031074
            ],
            [
              0.18161873031580278,
              0.49287876197916697
            ],
            [
              0.19567074346082852,
              0.6865019327272213
            ],
            [
              0.06079972404932607,
              0.7253801820631085
            ],
            [
              0.06098687212332868,
              0.5628128940031074
            ]
          ]
        ]
      }
    },
    {
      "type": "Feature",
      "properties": {
        "cell_id": "CEG2000_f4_r0026_c0106",
        "method": "Direct Polar",
        "view": "disk"
      },
      "geometry": {
        "type": "Polygon",
        "coordinates": [
          [
            [
              0.18161873031580278,
              0.49287876197916697
            ],
            [
              0.2869629160164179,
              0.4565036184114254
            ],
            [
              0.2953022619280274,
              0.6073256454434346
            ],
            [
              0.19567074346082852,
              0.6865019327272213
            ],
            [
              0.18161873031580278,
              0.49287876197916697
            ]
          ]
        ]
      }
    },
    {
      "type": "Feature",
      "properties": {
        "cell_id": "CEG2000_f4_r0026_c0107",
        "method": "Direct Polar",
        "view": "disk"
      },
      "geometry": {
        "type": "Polygon",
        "coordinates": [
          [
            [
              0.28696095812088385,
              0.4565033373075523
            ],
            [
              0.39993318083634305,
              0.45000660296586265
            ],
            [
              0.4090315269951423,
              0.5950105030121653
            ],
            [
              0.2953002459335838,
              0.6073252689968321
            ],
            [
              0.28696095812088385,
              0.4565033373075523
            ]
          ]
        ]
      }
    },
    {
      "type": "Feature",
      "properties": {
        "cell_id": "CEG2000_f4_r0026_c0108",
        "method": "Direct Polar",
        "view": "disk"
      },
      "geometry": {
        "type": "Polygon",
        "coordinates": [
          [
            [
              0.39993429684075676,
              0.45000588302127054
            ],
            [
              0.4877030178708279,
              0.4245161877246936
            ],
            [
              0.5170065201705961,
              0.5817966712741249
            ],
            [
              0.40903347158123365,
              0.5950107194672063
            ],
            [
              0.39993429684075676,
              0.45000588302127054
            ]
          ]
        ]
      }
    },
    {
      "type": "Feature",
      "properties": {
        "cell_id": "CEG2000_f4_r0026_c0109",
        "method": "Direct Polar",
        "view": "disk"
      },
      "geometry": {
        "type": "Polygon",
        "coordinates": [
          [
            [
              0.48770466597018985,
              0.42451618051444506
            ],
            [
              0.665202728124459,
              0.47212016305839927
            ],
            [
              0.5980832197165218,
              0.5487778120969199
            ],
            [
              0.5170076362912488,
              0.5817959513145199
            ],
            [
              0.48770466597018985,
              0.42451618051444506
            ]
          ]
        ]
      }
    },
    {
      "type": "Feature",
      "properties": {
        "cell_id": "CEG2000_f4_r0026_c0110",
        "method": "Direct Polar",
        "view": "disk"
      },
      "geometry": {
        "type": "Polygon",
        "coordinates": [
          [
            [
              0.6652011102394942,
              0.4721203222104413
            ],
            [
              0.7699230481566572,
              0.4612831256597762
            ],
            [
              0.7793175611116816,
              0.6036304079323926
            ],
            [
              0.5980815501830546,
              0.548777799911015
            ],
            [
              0.6652011102394942,
              0.4721203222104413
            ]
          ]
        ]
      }
    },
    {
      "type": "Feature",
      "properties": {
        "cell_id": "CEG2000_f4_r0026_c0111",
        "method": "Direct Polar",
        "view": "disk"
      },
      "geometry": {
        "type": "Polygon",
        "coordinates": [
          [
            [
              0.7699230481566572,
              0.4612831256597762
            ],
            [
              0.8863033601012927,
              0.459411452804464
            ],
            [
              0.8307219564656505,
              0.556687552443812
            ],
            [
              0.7793175611116816,
              0.6036304079323926
            ],
            [
              0.7699230481566572,
              0.4612831256597762
            ]
          ]
        ]
      }
    },
    {
      "type": "Feature",
      "properties": {
        "cell_id": "CEG2000_f4_r0027_c0101",
        "method": "Direct Polar",
        "view": "disk"
      },
      "geometry": {
        "type": "Polygon",
        "coordinates": [
          [
            [
              -0.5791060983759181,
              0.8032001369471099
            ],
            [
              -0.40375881305296824,
              0.776771911833457
            ],
            [
              -0.39020654923745823,
              0.9207273477703348
            ],
            [
              -0.5067758111369467,
              0.862077883515457
            ],
            [
              -0.5791060983759181,
              0.8032001369471099
            ]
          ]
        ]
      }
    },
    {
      "type": "Feature",
      "properties": {
        "cell_id": "CEG2000_f4_r0027_c0102",
        "method": "Direct Polar",
        "view": "disk"
      },
      "geometry": {
        "type": "Polygon",
        "coordinates": [
          [
            [
              -0.40376145263648877,
              0.7767724798089161
            ],
            [
              -0.2611405711057813,
              0.8196787514851276
            ],
            [
              -0.251412687203631,
              0.967879982597558
            ],
            [
              -0.3902084699268509,
              0.9207265337750107
            ],
            [
              -0.40376145263648877,
              0.7767724798089161
            ]
          ]
        ]
      }
    },
    {
      "type": "Feature",
      "properties": {
        "cell_id": "CEG2000_f4_r0027_c0103",
        "method": "Direct Polar",
        "view": "disk"
      },
      "geometry": {
        "type": "Polygon",
        "coordinates": [
          [
            [
              -0.26113826347979197,
              0.8196792732388696
            ],
            [
              -0.09209392345470546,
              0.7845315516876432
            ],
            [
              -0.0909700013945475,
              0.950479229493686
            ],
            [
              -0.25141045604987367,
              0.9678805621505138
            ],
            [
              -0.26113826347979197,
              0.8196792732388696
            ]
          ]
        ]
      }
    },
    {
      "type": "Feature",
      "properties": {
        "cell_id": "CEG2000_f4_r0027_c0104",
        "method": "Direct Polar",
        "view": "disk"
      },
      "geometry": {
        "type": "Polygon",
        "coordinates": [
          [
            [
              -0.0920914025018553,
              0.7845302467391455
            ],
            [
              0.06080193778988953,
              0.7253812956893224
            ],
            [
              0.06066491339805581,
              0.8876699226466985
            ],
            [
              -0.0909675322701077,
              0.9504778685887916
            ],
            [
              -0.0920914025018553,
              0.7845302467391455
            ]
          ]
        ]
      }
    },
    {
      "type": "Feature",
      "properties": {
        "cell_id": "CEG2000_f4_r0027_c0105",
        "method": "Direct Polar",
        "view": "disk"
      },
      "geometry": {
        "type": "Polygon",
        "coordinates": [
          [
            [
              0.06079972325414898,
              0.7253809940479713
            ],
            [
              0.1956707436383645,
              0.6865027107934693
            ],
            [
              0.19682295724680954,
              0.846948697084367
            ],
            [
              0.060662706127467436,
              0.8876695868009944
            ],
            [
              0.06079972325414898,
              0.7253809940479713
            ]
          ]
        ]
      }
    },
    {
      "type": "Feature",
      "properties": {
        "cell_id": "CEG2000_f4_r0027_c0106",
        "method": "Direct Polar",
        "view": "disk"
      },
      "geometry": {
        "type": "Polygon",
        "coordinates": [
          [
            [
              0.1956707436383645,
              0.6865027107934693
            ],
            [
              0.2953022285325234,
              0.6073262645399099
            ],
            [
              0.29923615396069986,
              0.7548043483209714
            ],
            [
              0.19682295724680954,
              0.846948697084367
            ],
            [
              0.1956707436383645,
              0.6865027107934693
            ]
          ]
        ]
      }
    },
    {
      "type": "Feature",
      "properties": {
        "cell_id": "CEG2000_f4_r0027_c0107",
        "method": "Direct Polar",
        "view": "disk"
      },
      "geometry": {
        "type": "Polygon",
        "coordinates": [
          [
            [
              0.29530021253809424,
              0.6073258880924847
            ],
            [
              0.40903148861272154,
              0.5950111210099144
            ],
            [
              0.4562979429694896,
              0.8141076611933783
            ],
            [
              0.2992352280480878,
              0.7548066978840942
            ],
            [
              0.29530021253809424,
              0.6073258880924847
            ]
          ]
        ]
      }
    },
    {
      "type": "Feature",
      "properties": {
        "cell_id": "CEG2000_f4_r0027_c0108",
        "method": "Direct Polar",
        "view": "disk"
      },
      "geometry": {
        "type": "Polygon",
        "coordinates": [
          [
            [
              0.40903343319902635,
              0.5950113374657559
            ],
            [
              0.5170067335017813,
              0.5817975702075124
            ],
            [
              0.5309102462531057,
              0.732760079939216
            ],
            [
              0.4562991780065892,
              0.8141062904933408
            ],
            [
              0.40903343319902635,
              0.5950113374657559
            ]
          ]
        ]
      }
    },
    {
      "type": "Feature",
      "properties": {
        "cell_id": "CEG2000_f4_r0027_c0109",
        "method": "Direct Polar",
        "view": "disk"
      },
      "geometry": {
        "type": "Polygon",
        "coordinates": [
          [
            [
              0.5170078496237346,
              0.5817968502477403
            ],
            [
              0.5980832142856064,
              0.5487784285885482
            ],
            [
              0.6340820897250209,
              0.7135852999241228
            ],
            [
              0.5309121796537292,
              0.732760259741304
            ],
            [
              0.5170078496237346,
              0.5817968502477403
            ]
          ]
        ]
      }
    },
    {
      "type": "Feature",
      "properties": {
        "cell_id": "CEG2000_f4_r0027_c0110",
        "method": "Direct Polar",
        "view": "disk"
      },
      "geometry": {
        "type": "Polygon",
        "coordinates": [
          [
            [
              0.5980815447516875,
              0.5487784164022013
            ],
            [
              0.7793172301719,
              0.603630835192243
            ],
            [
              0.7081961078472828,
              0.6727840153593024
            ],
            [
              0.6340809735342336,
              0.7135860198927771
            ],
            [
              0.5980815447516875,
              0.5487784164022013
            ]
          ]
        ]
      }
    },
    {
      "type": "Feature",
      "properties": {
        "cell_id": "CEG2000_f4_r0027_c0111",
        "method": "Direct Polar",
        "view": "disk"
      },
      "geometry": {
        "type": "Polygon",
        "coordinates": [
          [
            [
              0.7793172301719,
              0.603630835192243
            ],
            [
              0.830721664920563,
              0.5566879875043182
            ],
            [
              0.772545924498756,
              0.634958892008264
            ],
            [
              0.7081961078472828,
              0.6727840153593024
            ],
            [
              0.7793172301719,
              0.603630835192243
            ]
          ]
        ]
      }
    },
    {
      "type": "Feature",
      "properties": {
        "cell_id": "CEG2000_f4_r0028_c0104",
        "method": "Direct Polar",
        "view": "disk"
      },
      "geometry": {
        "type": "Polygon",
        "coordinates": [
          [
            [
              -0.0909675322701077,
              0.9504778685887916
            ],
            [
              0.06066491339805581,
              0.8876699226466985
            ],
            [
              0.0575927719153782,
              0.9983401587751057
            ],
            [
              -0.08052581175375625,
              0.9967525237697663
            ],
            [
              -0.0909675322701077,
              0.9504778685887916
            ]
          ]
        ]
      }
    },
    {
      "type": "Feature",
      "properties": {
        "cell_id": "CEG2000_f4_r0028_c0105",
        "method": "Direct Polar",
        "view": "disk"
      },
      "geometry": {
        "type": "Polygon",
        "coordinates": [
          [
            [
              0.060662706127467436,
              0.8876695868009944
            ],
            [
              0.19682295724680954,
              0.846948697084367
            ],
            [
              0.1924964732023922,
              0.9812976652395748
            ],
            [
              0.05759070509064738,
              0.9983402780050308
            ],
            [
              0.060662706127467436,
              0.8876695868009944
            ]
          ]
        ]
      }
    },
    {
      "type": "Feature",
      "properties": {
        "cell_id": "CEG2000_f4_r0028_c0106",
        "method": "Direct Polar",
        "view": "disk"
      },
      "geometry": {
        "type": "Polygon",
        "coordinates": [
          [
            [
              0.19682295724680954,
              0.846948697084367
            ],
            [
              0.29923615396069986,
              0.7548043483209714
            ],
            [
              0.3173461664965064,
              0.9483097651136846
            ],
            [
              0.1924964732023922,
              0.9812976652395748
            ],
            [
              0.19682295724680954,
              0.846948697084367
            ]
          ]
        ]
      }
    },
    {
      "type": "Feature",
      "properties": {
        "cell_id": "CEG2000_f4_r0028_c0107",
        "method": "Direct Polar",
        "view": "disk"
      },
      "geometry": {
        "type": "Polygon",
        "coordinates": [
          [
            [
              0.2992352280480878,
              0.7548066978840942
            ],
            [
              0.4562979429694896,
              0.8141076611933783
            ],
            [
              0.41634335401435013,
              0.879997836204976
            ],
            [
              0.3173443950867866,
              0.948310357903467
            ],
            [
              0.2992352280480878,
              0.7548066978840942
            ]
          ]
        ]
      }
    },
    {
      "type": "Feature",
      "properties": {
        "cell_id": "CEG2000_f4_r0028_c0108",
        "method": "Direct Polar",
        "view": "disk"
      },
      "geometry": {
        "type": "Polygon",
        "coordinates": [
          [
            [
              0.4562991780065892,
              0.8141062904933408
            ],
            [
              0.5309102462531057,
              0.732760079939216
            ],
            [
              0.5217494365053886,
              0.8530987782820402
            ],
            [
              0.41634536938078864,
              0.8799982324644553
            ],
            [
              0.4562991780065892,
              0.8141062904933408
            ]
          ]
        ]
      }
    },
    {
      "type": "Feature",
      "properties": {
        "cell_id": "CEG2000_f4_r0028_c0109",
        "method": "Direct Polar",
        "view": "disk"
      },
      "geometry": {
        "type": "Polygon",
        "coordinates": [
          [
            [
              0.5309121796537292,
              0.732760259741304
            ],
            [
              0.6340820897250209,
              0.7135852999241228
            ],
            [
              0.6000368627644742,
              0.7999723515995835
            ],
            [
              0.5217507261359218,
              0.8530979895513987
            ],
            [
              0.5309121796537292,
              0.732760259741304
            ]
          ]
        ]
      }
    },
    {
      "type": "Feature",
      "properties": {
        "cell_id": "CEG2000_f4_r0028_c0110",
        "method": "Direct Polar",
        "view": "disk"
      },
      "geometry": {
        "type": "Polygon",
        "coordinates": [
          [
            [
              0.6340809735342336,
              0.7135860198927771
            ],
            [
              0.7081961078472828,
              0.6727840153593024
            ],
            [
              0.6642217662591148,
              0.7475355812452152
            ],
            [
              0.6000357993721295,
              0.7999731492193032
            ],
            [
              0.6340809735342336,
              0.7135860198927771
            ]
          ]
        ]
      }
    }
  ]
}