{
  "type": "FeatureCollection",
  "features": [
    {
      "type": "Feature",
      "properties": {
        "cell_id": "CEG2000_f4_r0005_c0091",
        "region_id": "广东"
      },
      "geometry": {
        "type": "Polygon",
        "coordinates": [
          [
            [
              110.0,
              20.3
            ],
            [
              110.40000599999999,
              20.3
            ],
            [
              110.40000599999999,
              20.7
            ],
            [
              110.0,
              20.7
            ],
            [
              110.0,
              20.3
            ]
          ]
        ]
      }
    },
    {
      "type": "Feature",
      "properties": {
        "cell_id": "CEG2000_f4_r0006_c0090",
        "region_id": "广东"
      },
      "geometry": {
        "type": "Polygon",
        "coordinates": [
          [
            [
              109.59999400000001,
              20.7
            ],
            [
              110.0,
              20.7
            ],
            [
              110.0,
              21.1
            ],
            [
              109.59999400000001,
              21.1
            ],
            [
              109.59999400000001,
              20.7
            ]
          ]
        ]
      }
    },
    {
      "type": "Feature",
      "properties": {
        "cell_id": "CEG2000_f4_r0006_c0091",
        "region_id": "广东"
      },
      "geometry": {
        "type": "Polygon",
        "coordinates": [
          [
            [
              110.0,
              20.7
            ],
            [
              110.40000599999999,
              20.7
            ],
            [
              110.40000599999999,
              21.1
            ],
            [
              110.0,
              21.1
            ],
            [
              110.0,
              20.7
            ]
          ]
        ]
      }
    },
    {
      "type": "Feature",
      "properties": {
        "cell_id": "CEG2000_f4_r0007_c0090",
        "region_id": "广东"
      },
      "geometry": {
        "type": "Polygon",
        "coordinates": [
          [
            [
              109.59999400000001,
              21.099999999999998
            ],
            [
              110.0,
              21.099999999999998
            ],
            [
              110.0,
              21.5
            ],
            [
              109.59999400000001,
              21.5
            ],
            [
              109.59999400000001,
              21.099999999999998
            ]
          ]
        ]
      }
    },
    {
      "type": "Feature",
      "properties": {
        "cell_id": "CEG2000_f4_r0007_c0091",
        "region_id": "广东"
      },
      "geometry": {
        "type": "Polygon",
        "coordinates": [
          [
            [
              110.0,
              21.099999999999998
            ],
            [
              110.40000599999999,
              21.099999999999998
            ],
            [
              110.40000599999999,
              21.5
            ],
            [
              110.0,
              21.5
            ],
            [
              110.0,
              21.099999999999998
            ]
          ]
        ]
      }
    },
    {
      "type": "Feature",
      "properties": {
        "cell_id": "CEG2000_f4_r0007_c0092",
        "region_id": "广东"
      },
      "geometry": {
        "type": "Polygon",
        "coordinates": [
          [
            [
              110.4,
              21.099999999999998
            ],
            [
              110.8,
              21.099999999999998
            ],
            [
              110.8,
              21.5
            ],
            [
              110.4,
              21.5
            ],
            [
              110.4,
              21.099999999999998
            ]
          ]
        ]
      }
    },
    {
      "type": "Feature",
      "properties": {
        "cell_id": "CEG2000_f4_r0008_c0090",
        "region_id": "广东"
      },
      "geometry": {
        "type": "Polygon",
        "coordinates": [
          [
            [
              109.59999400000001,
              21.5
            ],
            [
              110.0,
              21.5
            ],
            [
              110.0,
              21.900000000000002
            ],
            [
              109.59999400000001,
              21.900000000000002
            ],
            [
              109.59999400000001,
              21.5
            ]
          ]
        ]
      }
    },
    {
      "type": "Feature",
      "properties": {
        "cell_id": "CEG2000_f4_r0008_c0091",
        "region_id": "广东"
      },
      "geometry": {
        "type": "Polygon",
        "coordinates": [
          [
            [
              110.0,
              21.5
            ],
            [
              110.40000599999999,
              21.5
            ],
            [
              110.40000599999999,
              21.900000000000002
            ],
            [
              110.0,
              21.900000000000002
            ],
            [
              110.0,
              21.5
            ]
          ]
        ]
      }
    },
    {
      "type": "Feature",
      "properties": {
        "cell_id": "CEG2000_f4_r0008_c0092",
        "region_id": "广东"
      },
      "geometry": {
        "type": "Polygon",
        "coordinates": [
          [
            [
              110.4,
              21.5
            ],
            [
              110.8,
              21.5
            ],
            [
              110.8,
              21.900000000000002
            ],
            [
              110.4,
              21.900000000000002
            ],
            [
              110.4,
              21.5
            ]
          ]
        ]
      }
    },
    {
      "type": "Feature",
      "properties": {
        "cell_id": "CEG2000_f4_r0008_c0093",
        "region_id": "广东"
      },
      "geometry": {
        "type": "Polygon",
        "coordinates": [
          [
            [
              110.800006,
              21.5
            ],
            [
              111.199994,
              21.5
            ],
            [
              111.199994,
              21.900000000000002
            ],
            [
              110.800006,
              21.900000000000002
            ],
            [
              110.800006,
              21.5
            ]
          ]
        ]
      }
    },
    {
      "type": "Feature",
      "properties": {
        "cell_id": "CEG2000_f4_r0008_c0094",
        "region_id": "广东"
      },
      "geometry": {
        "type": "Polygon",
        "coordinates": [
          [
            [
              111.2,
              21.5
            ],
            [
              111.6,
              21.5
            ],
            [
              111.6,
              21.900000000000002
            ],
            [
              111.2,
              21.900000000000002
            ],
            [
              111.2,
              21.5
            ]
          ]
        ]
      }
    },
    {
      "type": "Feature",
      "properties": {
        "cell_id": "CEG2000_f4_r0008_c0095",
        "region_id": "广东"
      },
      "geometry": {
        "type": "Polygon",
        "coordinates": [
          [
            [
              111.59999400000001,
              21.5
            ],
            [
              112.0,
              21.5
            ],
            [
              112.0,
              21.900000000000002
            ],
            [
              111.59999400000001,
              21.900000000000002
            ],
            [
              111.59999400000001,
              21.5
            ]
          ]
        ]
      }
    },
    {
      "type": "Feature",
      "properties": {
        "cell_id": "CEG2000_f4_r0009_c0092",
        "region_id": "广东"
      },
      "geometry": {
        "type": "Polygon",
        "coordinates": [
          [
            [
              110.4,
              21.9
            ],
            [
              110.8,
              21.9
            ],
            [
              110.8,
              22.3
            ],
            [
              110.4,
              22.3
            ],
            [
              110.4,
              21.9
            ]
          ]
        ]
      }
    },
    {
      "type": "Feature",
      "properties": {
        "cell_id": "CEG2000_f4_r0009_c0093",
        "region_id": "广东"
      },
      "geometry": {
        "type": "Polygon",
        "coordinates": [
          [
            [
              110.800006,
              21.9
            ],
            [
              111.199994,
              21.9
            ],
            [
              111.199994,
              22.3
            ],
            [
              110.800006,
              22.3
            ],
            [
              110.800006,
              21.9
            ]
          ]
        ]
      }
    },
    {
      "type": "Feature",
      "properties": {
        "cell_id": "CEG2000_f4_r0009_c0094",
        "region_id": "广东"
      },
      "geometry": {
        "type": "Polygon",
        "coordinates": [
          [
            [
              111.2,
              21.9
            ],
            [
              111.6,
              21.9
            ],
            [
              111.6,
              22.3
            ],
            [
              111.2,
              22.3
            ],
            [
              111.2,
              21.9
            ]
          ]
        ]
      }
    },
    {
      "type": "Feature",
      "properties": {
        "cell_id": "CEG2000_f4_r0009_c0095",
        "region_id": "广东"
      },
      "geometry": {
        "type": "Polygon",
        "coordinates": [
          [
            [
              111.59999400000001,
              21.9
            ],
            [
              112.0,
              21.9
            ],
            [
              112.0,
              22.3
            ],
            [
              111.59999400000001,
              22.3
            ],
            [
              111.59999400000001,
              21.9
            ]
          ]
        ]
      }
    },
    {
      "type": "Feature",
      "properties": {
        "cell_id": "CEG2000_f4_r0009_c0096",
        "region_id": "广东"
      },
      "geometry": {
        "type": "Polygon",
        "coordinates": [
          [
            [
              112.0,
              21.9
            ],
            [
              112.40000599999999,
              21.9
            ],
            [
              112.40000599999999,
              22.3
            ],
            [
              112.0,
              22.3
            ],
            [
              112.0,
              21.9
            ]
          ]
        ]
      }
    },
    {
      "type": "Feature",
      "properties": {
        "cell_id": "CEG2000_f4_r0009_c0097",
        "region_id": "广东"
      },
      "geometry": {
        "type": "Polygon",
        "coordinates": [
          [
            [
              112.4,
              21.9
            ],
            [
              112.8,
              21.9
            ],
            [
              112.8,
              22.3
            ],
            [
              112.4,
              22.3
            ],
            [
              112.4,
              21.9
            ]
          ]
        ]
      }
    },
    {
      "type": "Feature",
      "properties": {
        "cell_id": "CEG2000_f4_r0009_c0098",
        "region_id": "广东"
      },
      "geometry": {
        "type": "Polygon",
        "coordinates": [
          [
            [
              112.800006,
              21.9
            ],
            [
              113.199994,
              21.9
            ],
            [
              113.199994,
              22.3
            ],
            [
              112.800006,
              22.3
            ],
            [
              112.800006,
              21.9
            ]
          ]
        ]
      }
    },
    {
      "type": "Feature",
      "properties": {
        "cell_id": "CEG2000_f4_r0009_c0099",
        "region_id": "广东"
      },
      "geometry": {
        "type": "Polygon",
        "coordinates": [
          [
            [
              113.2,
              21.9
            ],
            [
              113.6,
              21.9
            ],
            [
              113.6,
              22.3
            ],
            [
              113.2,
              22.3
            ],
            [
              113.2,
              21.9
            ]
          ]
        ]
      }
    },
    {
      "type": "Feature",
      "properties": {
        "cell_id": "CEG2000_f4_r0010_c0093",
        "region_id": "广东"
      },
      "geometry": {
        "type": "Polygon",
        "coordinates": [
          [
            [
              110.800006,
              22.3
            ],
            [
              111.199994,
              22.3
            ],
            [
              111.199994,
              22.7
            ],
            [
              110.800006,
              22.7
            ],
            [
              110.800006,
              22.3
            ]
          ]
        ]
      }
    },
    {
      "type": "Feature",
      "properties": {
        "cell_id": "CEG2000_f4_r0010_c0094",
        "region_id": "广东"
      },
      "geometry": {
        "type": "Polygon",
        "coordinates": [
          [
            [
              111.2,
              22.3
            ],
            [
              111.6,
              22.3
            ],
            [
              111.6,
              22.7
            ],
            [
              111.2,
              22.7
            ],
            [
              111.2,
              22.3
            ]
          ]
        ]
      }
    },
    {
      "type": "Feature",
      "properties": {
        "cell_id": "CEG2000_f4_r0010_c0095",
        "region_id": "广东"
      },
      "geometry": {
        "type": "Polygon",
        "coordinates": [
          [
            [
              111.59999400000001,
              22.3
            ],
            [
              112.0,
              22.3
            ],
            [
              112.0,
              22.7
            ],
            [
              111.59999400000001,
              22.7
            ],
            [
              111.59999400000001,
              22.3
            ]
          ]
        ]
      }
    },
    {
      "type": "Feature",
      "properties": {
        "cell_id": "CEG2000_f4_r0010_c0096",
        "region_id": "广东"
      },
      "geometry": {
        "type": "Polygon",
        "coordinates": [
          [
            [
              112.0,
              22.3
            ],
            [
              112.40000599999999,
              22.3
            ],
            [
              112.40000599999999,
              22.7
            ],
            [
              112.0,
              22.7
            ],
            [
              112.0,
              22.3
            ]
          ]
        ]
      }
    },
    {
      "type": "Feature",
      "properties": {
        "cell_id": "CEG2000_f4_r0010_c0097",
        "region_id": "广东"
      },
      "geometry": {
        "type": "Polygon",
        "coordinates": [
          [
            [
              112.4,
              22.3
            ],
            [
              112.8,
              22.3
            ],
            [
              112.8,
              22.7
            ],
            [
              112.4,
              22.7
            ],
            [
              112.4,
              22.3
            ]
          ]
        ]
      }
    },
    {
      "type": "Feature",
      "properties": {
        "cell_id": "CEG2000_f4_r0010_c0098",
        "region_id": "广东"
      },
      "geometry": {
        "type": "Polygon",
        "coordinates": [
          [
            [
              112.800006,
              22.3
            ],
            [
              113.199994,
              22.3
            ],
            [
              113.199994,
              22.7
            ],
            [
              112.800006,
              22.7
            ],
            [
              112.800006,
              22.3
            ]
          ]
        ]
      }
    },
    {
      "type": "Feature",
      "properties": {
        "cell_id": "CEG2000_f4_r0010_c0099",
        "region_id": "广东"
      },
      "geometry": {
        "type": "Polygon",
        "coordinates": [
          [
            [
              113.2,
              22.3
            ],
            [
              113.6,
              22.3
            ],
            [
              113.6,
              22.7
            ],
            [
              113.2,
              22.7
            ],
            [
              113.2,
              22.3
            ]
          ]
        ]
      }
    },
    {
      "type": "Feature",
      "properties": {
        "cell_id": "CEG2000_f4_r0010_c0101",
        "region_id": "广东"
      },
      "geometry": {
        "type": "Polygon",
        "coordinates": [
          [
            [
              114.0,
              22.3
            ],
            [
              114.40000599999999,
              22.3
            ],
            [
              114.40000599999999,
              22.7
            ],
            [
              114.0,
              22.7
            ],
            [
              114.0,
              22.3
            ]
          ]
        ]
      }
    },
    {
      "type": "Feature",
      "properties": {
        "cell_id": "CEG2000_f4_r0011_c0094",
        "region_id": "广东"
      },
      "geometry": {
        "type": "Polygon",
        "coordinates": [
          [
            [
              111.2,
              22.7
            ],
            [
              111.6,
              22.7
            ],
            [
              111.6,
              23.1
            ],
            [
              111.2,
              23.1
            ],
            [
              111.2,
              22.7
            ]
          ]
        ]
      }
    },
    {
      "type": "Feature",
      "properties": {
        "cell_id": "CEG2000_f4_r0011_c0095",
        "region_id": "广东"
      },
      "geometry": {
        "type": "Polygon",
        "coordinates": [
          [
            [
              111.59999400000001,
              22.7
            ],
            [
              112.0,
              22.7
            ],
            [
              112.0,
              23.1
            ],
            [
              111.59999400000001,
              23.1
            ],
            [
              111.59999400000001,
              22.7
            ]
          ]
        ]
      }
    },
    {
      "type": "Feature",
      "properties": {
        "cell_id": "CEG2000_f4_r0011_c0096",
        "region_id": "广东"
      },
      "geometry": {
        "type": "Polygon",
        "coordinates": [
          [
            [
              112.0,
              22.7
            ],
            [
              112.40000599999999,
              22.7
            ],
            [
              112.40000599999999,
              23.1
            ],
            [
              112.0,
              23.1
            ],
            [
              112.0,
              22.7
            ]
          ]
        ]
      }
    },
    {
      "type": "Feature",
      "properties": {
        "cell_id": "CEG2000_f4_r0011_c0097",
        "region_id": "广东"
      },
      "geometry": {
        "type": "Polygon",
        "coordinates": [
          [
            [
              112.4,
              22.7
            ],
            [
              112.8,
              22.7
            ],
            [
              112.8,
              23.1
            ],
            [
              112.4,
              23.1
            ],
            [
              112.4,
              22.7
            ]
          ]
        ]
      }
    },
    {
      "type": "Feature",
      "properties": {
        "cell_id": "CEG2000_f4_r0011_c0098",
        "region_id": "广东"
      },
      "geometry": {
        "type": "Polygon",
        "coordinates": [
          [
            [
              112.800006,
              22.7
            ],
            [
              113.199994,
              22.7
            ],
            [
              113.199994,
              23.1
            ],
            [
              112.800006,
              23.1
            ],
            [
              112.800006,
              22.7
            ]
          ]
        ]
      }
    },
    {
      "type": "Feature",
      "properties": {
        "cell_id": "CEG2000_f4_r0011_c0099",
        "region_id": "广东"
      },
      "geometry": {
        "type": "Polygon",
        "coordinates": [
          [
            [
              113.2,
              22.7
            ],
            [
              113.6,
              22.7
            ],
            [
              113.6,
              23.1
            ],
            [
              113.2,
              23.1
            ],
            [
              113.2,
              22.7
            ]
          ]
        ]
      }
    },
    {
      "type": "Feature",
      "properties": {
        "cell_id": "CEG2000_f4_r0011_c0100",
        "region_id": "广东"
      },
      "geometry": {
        "type": "Polygon",
        "coordinates": [
          [
            [
              113.59999400000001,
              22.7
            ],
            [
              114.0,
              22.7
            ],
            [
              114.0,
              23.1
            ],
            [
              113.59999400000001,
              23.1
            ],
            [
              113.59999400000001,
              22.7
            ]
          ]
        ]
      }
    },
    {
      "type": "Feature",
      "properties": {
        "cell_id": "CEG2000_f4_r0011_c0101",
        "region_id": "广东"
      },
      "geometry": {
        "type": "Polygon",
        "coordinates": [
          [
            [
              114.0,
              22.7
            ],
            [
              114.40000599999999,
              22.7
            ],
            [
              114.40000599999999,
              23.1
            ],
            [
              114.0,
              23.1
            ],
            [
              114.0,
              22.7
            ]
          ]
        ]
      }
    },
    {
      "type": "Feature",
      "properties": {
        "cell_id": "CEG2000_f4_r0011_c0102",
        "region_id": "广东"
      },
      "geometry": {
        "type": "Polygon",
        "coordinates": [
          [
            [
              114.4,
              22.7
            ],
            [
              114.8,
              22.7
            ],
            [
              114.8,
              23.1
            ],
            [
              114.4,
              23.1
            ],
            [
              114.4,
              22.7
            ]
          ]
        ]
      }
    },
    {
      "type": "Feature",
      "properties": {
        "cell_id": "CEG2000_f4_r0011_c0103",
        "region_id": "广东"
      },
      "geometry": {
        "type": "Polygon",
        "coordinates": [
          [
            [
              114.800006,
              22.7
            ],
            [
              115.199994,
              22.7
            ],
            [
              115.199994,
              23.1
            ],
            [
              114.800006,
              23.1
            ],
            [
              114.800006,
              22.7
            ]
          ]
        ]
      }
    },
    {
      "type": "Feature",
      "properties": {
        "cell_id": "CEG2000_f4_r0011_c0104",
        "region_id": "广东"
      },
      "geometry": {
        "type": "Polygon",
        "coordinates": [
          [
            [
              115.2,
              22.7
            ],
            [
              115.6,
              22.7
            ],
            [
              115.6,
              23.1
            ],
            [
              115.2,
              23.1
            ],
            [
              115.2,
              22.7
            ]
          ]
        ]
      }
    },
    {
      "type": "Feature",
      "properties": {
        "cell_id": "CEG2000_f4_r0011_c0105",
        "region_id": "广东"
      },
      "geometry": {
        "type": "Polygon",
        "coordinates": [
          [
            [
              115.59999400000001,
              22.7
            ],
            [
              116.0,
              22.7
            ],
            [
              116.0,
              23.1
            ],
            [
              115.59999400000001,
              23.1
            ],
            [
              115.59999400000001,
              22.7
            ]
          ]
        ]
      }
    },
    {
      "type": "Feature",
      "properties": {
        "cell_id": "CEG2000_f4_r0011_c0106",
        "region_id": "广东"
      },
      "geometry": {
        "type": "Polygon",
        "coordinates": [
          [
            [
              116.0,
              22.7
            ],
            [
              116.40000599999999,
              22.7
            ],
            [
              116.40000599999999,
              23.1
            ],
            [
              116.0,
              23.1
            ],
            [
              116.0,
              22.7
            ]
          ]
        ]
      }
    },
    {
      "type": "Feature",
      "properties": {
        "cell_id": "CEG2000_f4_r0012_c0094",
        "region_id": "广东"
      },
      "geometry": {
        "type": "Polygon",
        "coordinates": [
          [
            [
              111.2,
              23.100002
            ],
            [
              111.6,
              23.100002
            ],
            [
              111.6,
              23.5
            ],
            [
              111.2,
              23.5
            ],
            [
              111.2,
              23.100002
            ]
          ]
        ]
      }
    },
    {
      "type": "Feature",
      "properties": {
        "cell_id": "CEG2000_f4_r0012_c0095",
        "region_id": "广东"
      },
      "geometry": {
        "type": "Polygon",
        "coordinates": [
          [
            [
              111.59999400000001,
              23.100002
            ],
            [
              112.0,
              23.100002
            ],
            [
              112.0,
              23.5
            ],
            [
              111.59999400000001,
              23.5
            ],
            [
              111.59999400000001,
              23.100002
            ]
          ]
        ]
      }
    },
    {
      "type": "Feature",
      "properties": {
        "cell_id": "CEG2000_f4_r0012_c0096",
        "region_id": "广东"
      },
      "geometry": {
        "type": "Polygon",
        "coordinates": [
          [
            [
              112.0,
              23.100002
            ],
            [
              112.40000599999999,
              23.100002
            ],
            [
              112.40000599999999,
              23.5
            ],
            [
              112.0,
              23.5
            ],
            [
              112.0,
              23.100002
            ]
          ]
        ]
      }
    },
    {
      "type": "Feature",
      "properties": {
        "cell_id": "CEG2000_f4_r0012_c0097",
        "region_id": "广东"
      },
      "geometry": {
        "type": "Polygon",
        "coordinates": [
          [
            [
              112.4,
              23.100002
            ],
            [
              112.8,
              23.100002
            ],
            [
              112.8,
              23.5
            ],
            [
              112.4,
              23.5
            ],
            [
              112.4,
              23.100002
            ]
          ]
        ]
      }
    },
    {
      "type": "Feature",
      "properties": {
        "cell_id": "CEG2000_f4_r0012_c0098",
        "region_id": "广东"
      },
      "geometry": {
        "type": "Polygon",
        "coordinates": [
          [
            [
              112.800006,
              23.100002
            ],
            [
              113.199994,
              23.100002
            ],
            [
              113.199994,
              23.5
            ],
            [
              112.800006,
              23.5
            ],
            [
              112.800006,
              23.100002
            ]
          ]
        ]
      }
    },
    {
      "type": "Feature",
      "properties": {
        "cell_id": "CEG2000_f4_r0012_c0099",
        "region_id": "广东"
      },
      "geometry": {
        "type": "Polygon",
        "coordinates": [
          [
            [
              113.2,
              23.100002
            ],
            [
              113.6,
              23.100002
            ],
            [
              113.6,
              23.5
            ],
            [
              113.2,
              23.5
            ],
            [
              113.2,
              23.100002
            ]
          ]
        ]
      }
    },
    {
      "type": "Feature",
      "properties": {
        "cell_id": "CEG2000_f4_r0012_c0100",
        "region_id": "广东"
      },
      "geometry": {
        "type": "Polygon",
        "coordinates": [
          [
            [
              113.59999400000001,
              23.100002
            ],
            [
              114.0,
              23.100002
            ],
            [
              114.0,
              23.5
            ],
            [
              113.59999400000001,
              23.5
            ],
            [
              113.59999400000001,
              23.100002
            ]
          ]
        ]
      }
    },
    {
      "type": "Feature",
      "properties": {
        "cell_id": "CEG2000_f4_r0012_c0101",
        "region_id": "广东"
      },
      "geometry": {
        "type": "Polygon",
        "coordinates": [
          [
            [
              114.0,
              23.100002
            ],
            [
              114.40000599999999,
              23.100002
            ],
            [
              114.40000599999999,
              23.5
            ],
            [
              114.0,
              23.5
            ],
            [
              114.0,
              23.100002
            ]
          ]
        ]
      }
    },
    {
      "type": "Feature",
      "properties": {
        "cell_id": "CEG2000_f4_r0012_c0102",
        "region_id": "广东"
      },
      "geometry": {
        "type": "Polygon",
        "coordinates": [
          [
            [
              114.4,
              23.100002
            ],
            [
              114.8,
              23.100002
            ],
            [
              114.8,
              23.5
            ],
            [
              114.4,
              23.5
            ],
            [
              114.4,
              23.100002
            ]
          ]
        ]
      }
    },
    {
      "type": "Feature",
      "properties": {
        "cell_id": "CEG2000_f4_r0012_c0103",
        "region_id": "广东"
      },
      "geometry": {
        "type": "Polygon",
        "coordinates": [
          [
            [
              114.800006,
              23.100002
            ],
            [
              115.199994,
              23.100002
            ],
            [
              115.199994,
              23.5
            ],
            [
              114.800006,
              23.5
            ],
            [
              114.800006,
              23.100002
            ]
          ]
        ]
      }
    },
    {
      "type": "Feature",
      "properties": {
        "cell_id": "CEG2000_f4_r0012_c0104",
        "region_id": "广东"
      },
      "geometry": {
        "type": "Polygon",
        "coordinates": [
          [
            [
              115.2,
              23.100002
            ],
            [
              115.6,
              23.100002
            ],
            [
              115.6,
              23.5
            ],
            [
              115.2,
              23.5
            ],
            [
              115.2,
              23.100002
            ]
          ]
        ]
      }
    },
    {
      "type": "Feature",
      "properties": {
        "cell_id": "CEG2000_f4_r0012_c0105",
        "region_id": "广东"
      },
      "geometry": {
        "type": "Polygon",
        "coordinates": [
          [
            [
              115.59999400000001,
              23.100002
            ],
            [
              116.0,
              23.100002
            ],
            [
              116.0,
              23.5
            ],
            [
              115.59999400000001,
              23.5
            ],
            [
              115.59999400000001,
              23.100002
            ]
          ]
        ]
      }
    },
    {
      "type": "Feature",
      "properties": {
        "cell_id": "CEG2000_f4_r0012_c0106",
        "region_id": "广东"
      },
      "geometry": {
        "type": "Polygon",
        "coordinates": [
          [
            [
              116.0,
              23.100002
            ],
            [
              116.40000599999999,
              23.100002
            ],
            [
              116.40000599999999,
              23.5
            ],
            [
              116.0,
              23.5
            ],
            [
              116.0,
              23.100002
            ]
          ]
        ]
      }
    },
    {
      "type": "Feature",
      "properties": {
        "cell_id": "CEG2000_f4_r0012_c0107",
        "region_id": "广东"
      },
      "geometry": {
        "type": "Polygon",
        "coordinates": [
          [
            [
              116.4,
              23.100002
            ],
            [
              116.8,
              23.100002
            ],
            [
              116.8,
              23.5
            ],
            [
              116.4,
              23.5
            ],
            [
              116.4,
              23.100002
            ]
          ]
        ]
      }
    },
    {
      "type": "Feature",
      "properties": {
        "cell_id": "CEG2000_f4_r0013_c0095",
        "region_id": "广东"
      },
      "geometry": {
        "type": "Polygon",
        "coordinates": [
          [
            [
              111.59999400000001,
              23.5
            ],
            [
              112.0,
              23.5
            ],
            [
              112.0,
              23.900000000000002
            ],
            [
              111.59999400000001,
              23.900000000000002
            ],
            [
              111.59999400000001,
              23.5
            ]
          ]
        ]
      }
    },
    {
      "type": "Feature",
      "properties": {
        "cell_id": "CEG2000_f4_r0013_c0096",
        "region_id": "广东"
      },
      "geometry": {
        "type": "Polygon",
        "coordinates": [
          [
            [
              112.0,
              23.5
            ],
            [
              112.40000599999999,
              23.5
            ],
            [
              112.40000599999999,
              23.900000000000002
            ],
            [
              112.0,
              23.900000000000002
            ],
            [
              112.0,
              23.5
            ]
          ]
        ]
      }
    },
    {
      "type": "Feature",
      "properties": {
        "cell_id": "CEG2000_f4_r0013_c0097",
        "region_id": "广东"
      },
      "geometry": {
        "type": "Polygon",
        "coordinates": [
          [
            [
              112.4,
              23.5
            ],
            [
              112.8,
              23.5
            ],
            [
              112.8,
              23.900000000000002
            ],
            [
              112.4,
              23.900000000000002
            ],
            [
              112.4,
              23.5
            ]
          ]
        ]
      }
    },
    {
      "type": "Feature",
      "properties": {
        "cell_id": "CEG2000_f4_r0013_c0098",
        "region_id": "广东"
      },
      "geometry": {
        "type": "Polygon",
        "coordinates": [
          [
            [
              112.800006,
              23.5
            ],
            [
              113.199994,
              23.5
            ],
            [
              113.199994,
              23.900000000000002
            ],
            [
              112.800006,
              23.900000000000002
            ],
            [
              112.800006,
              23.5
            ]
          ]
        ]
      }
    },
    {
      "type": "Feature",
      "properties": {
        "cell_id": "CEG2000_f4_r0013_c0099",
        "region_id": "广东"
      },
      "geometry": {
        "type": "Polygon",
        "coordinates": [
          [
            [
              113.2,
              23.5
            ],
            [
              113.6,
              23.5
            ],
            [
              113.6,
              23.900000000000002
            ],
            [
              113.2,
              23.900000000000002
            ],
            [
              113.2,
              23.5
            ]
          ]
        ]
      }
    },
    {
      "type": "Feature",
      "properties": {
        "cell_id": "CEG2000_f4_r0013_c0100",
        "region_id": "广东"
      },
      "geometry": {
        "type": "Polygon",
        "coordinates": [
          [
            [
              113.59999400000001,
              23.5
            ],
            [
              114.0,
              23.5
            ],
            [
              114.0,
              23.900000000000002
            ],
            [
              113.59999400000001,
              23.900000000000002
            ],
            [
              113.59999400000001,
              23.5
            ]
          ]
        ]
      }
    },
    {
      "type": "Feature",
      "properties": {
        "cell_id": "CEG2000_f4_r0013_c0101",
        "region_id": "广东"
      },
      "geometry": {
        "type": "Polygon",
        "coordinates": [
          [
            [
              114.0,
              23.5
            ],
            [
              114.40000599999999,
              23.5
            ],
            [
              114.40000599999999,
              23.900000000000002
            ],
            [
              114.0,
              23.900000000000002
            ],
            [
              114.0,
              23.5
            ]
          ]
        ]
      }
    },
    {
      "type": "Feature",
      "properties": {
        "cell_id": "CEG2000_f4_r0013_c0102",
        "region_id": "广东"
      },
      "geometry": {
        "type": "Polygon",
        "coordinates": [
          [
            [
              114.4,
              23.5
            ],
            [
              114.8,
              23.5
            ],
            [
              114.8,
              23.900000000000002
            ],
            [
              114.4,
              23.900000000000002
            ],
            [
              114.4,
              23.5
            ]
          ]
        ]
      }
    },
    {
      "type": "Feature",
      "properties": {
        "cell_id": "CEG2000_f4_r0013_c0103",
        "region_id": "广东"
      },
      "geometry": {
        "type": "Polygon",
        "coordinates": [
          [
            [
              114.800006,
              23.5
            ],
            [
              115.199994,
              23.5
            ],
            [
              115.199994,
              23.900000000000002
            ],
            [
              114.800006,
              23.900000000000002
            ],
            [
              114.800006,
              23.5
            ]
          ]
        ]
      }
    },
    {
      "type": "Feature",
      "properties": {
        "cell_id": "CEG2000_f4_r0013_c0104",
        "region_id": "广东"
      },
      "geometry": {
        "type": "Polygon",
        "coordinates": [
          [
            [
              115.2,
              23.5
            ],
            [
              115.6,
              23.5
            ],
            [
              115.6,
              23.900000000000002
            ],
            [
              115.2,
              23.900000000000002
            ],
            [
              115.2,
              23.5
            ]
          ]
        ]
      }
    },
    {
      "type": "Feature",
      "properties": {
        "cell_id": "CEG2000_f4_r0013_c0105",
        "region_id": "广东"
      },
      "geometry": {
        "type": "Polygon",
        "coordinates": [
          [
            [
              115.59999400000001,
              23.5
            ],
            [
              116.0,
              23.5
            ],
            [
              116.0,
              23.900000000000002
            ],
            [
              115.59999400000001,
              23.900000000000002
            ],
            [
              115.59999400000001,
              23.5
            ]
          ]
        ]
      }
    },
    {
      "type": "Feature",
      "properties": {
        "cell_id": "CEG2000_f4_r0013_c0106",
        "region_id": "广东"
      },
      "geometry": {
        "type": "Polygon",
        "coordinates": [
          [
            [
              116.0,
              23.5
            ],
            [
              116.40000599999999,
              23.5
            ],
            [
              116.40000599999999,
              23.900000000000002
            ],
            [
              116.0,
              23.900000000000002
            ],
            [
              116.0,
              23.5
            ]
          ]
        ]
      }
    },
    {
      "type": "Feature",
      "properties": {
        "cell_id": "CEG2000_f4_r0013_c0107",
        "region_id": "广东"
      },
      "geometry": {
        "type": "Polygon",
        "coordinates": [
          [
            [
              116.4,
              23.5
            ],
            [
              116.8,
              23.5
            ],
            [
              116.8,
              23.900000000000002
            ],
            [
              116.4,
              23.900000000000002
            ],
            [
              116.4,
              23.5
            ]
          ]
        ]
      }
    },
    {
      "type": "Feature",
      "properties": {
        "cell_id": "CEG2000_f4_r0013_c0108",
        "region_id": "广东"
      },
      "geometry": {
        "type": "Polygon",
        "coordinates": [
          [
            [
              116.800006,
              23.5
            ],
            [
              117.199994,
              23.5
            ],
            [
              117.199994,
              23.900000000000002
            ],
            [
              116.800006,
              23.900000000000002
            ],
            [
              116.800006,
              23.5
            ]
          ]
        ]
      }
    },
    {
      "type": "Feature",
      "properties": {
        "cell_id": "CEG2000_f4_r0014_c0095",
        "region_id": "广东"
      },
      "geometry": {
        "type": "Polygon",
        "coordinates": [
          [
            [
              111.59999400000001,
              23.9
            ],
            [
              112.0,
              23.9
            ],
            [
              112.0,
              24.3
            ],
            [
              111.59999400000001,
              24.3
            ],
            [
              111.59999400000001,
              23.9
            ]
          ]
        ]
      }
    },
    {
      "type": "Feature",
      "properties": {
        "cell_id": "CEG2000_f4_r0014_c0096",
        "region_id": "广东"
      },
      "geometry": {
        "type": "Polygon",
        "coordinates": [
          [
            [
              112.0,
              23.9
            ],
            [
              112.40000599999999,
              23.9
            ],
            [
              112.40000599999999,
              24.3
            ],
            [
              112.0,
              24.3
            ],
            [
              112.0,
              23.9
            ]
          ]
        ]
      }
    },
    {
      "type": "Feature",
      "properties": {
        "cell_id": "CEG2000_f4_r0014_c0097",
        "region_id": "广东"
      },
      "geometry": {
        "type": "Polygon",
        "coordinates": [
          [
            [
              112.4,
              23.9
            ],
            [
              112.8,
              23.9
            ],
            [
              112.8,
              24.3
            ],
            [
              112.4,
              24.3
            ],
            [
              112.4,
              23.9
            ]
          ]
        ]
      }
    },
    {
      "type": "Feature",
      "properties": {
        "cell_id": "CEG2000_f4_r0014_c0098",
        "region_id": "广东"
      },
      "geometry": {
        "type": "Polygon",
        "coordinates": [
          [
            [
              112.800006,
              23.9
            ],
            [
              113.199994,
              23.9
            ],
            [
              113.199994,
              24.3
            ],
            [
              112.800006,
              24.3
            ],
            [
              112.800006,
              23.9
            ]
          ]
        ]
      }
    },
    {
      "type": "Feature",
      "properties": {
        "cell_id": "CEG2000_f4_r0014_c0099",
        "region_id": "广东"
      },
      "geometry": {
        "type": "Polygon",
        "coordinates": [
          [
            [
              113.2,
              23.9
            ],
            [
              113.6,
              23.9
            ],
            [
              113.6,
              24.3
            ],
            [
              113.2,
              24.3
            ],
            [
              113.2,
              23.9
            ]
          ]
        ]
      }
    },
    {
      "type": "Feature",
      "properties": {
        "cell_id": "CEG2000_f4_r0014_c0100",
        "region_id": "广东"
      },
      "geometry": {
        "type": "Polygon",
        "coordinates": [
          [
            [
              113.59999400000001,
              23.9
            ],
            [
              114.0,
              23.9
            ],
            [
              114.0,
              24.3
            ],
            [
              113.59999400000001,
              24.3
            ],
            [
              113.59999400000001,
              23.9
            ]
          ]
        ]
      }
    },
    {
      "type": "Feature",
      "properties": {
        "cell_id": "CEG2000_f4_r0014_c0101",
        "region_id": "广东"
      },
      "geometry": {
        "type": "Polygon",
        "coordinates": [
          [
            [
              114.0,
              23.9
            ],
            [
              114.40000599999999,
              23.9
            ],
            [
              114.40000599999999,
              24.3
            ],
            [
              114.0,
              24.3
            ],
            [
              114.0,
              23.9
            ]
          ]
        ]
      }
    },
    {
      "type": "Feature",
      "properties": {
        "cell_id": "CEG2000_f4_r0014_c0102",
        "region_id": "广东"
      },
      "geometry": {
        "type": "Polygon",
        "coordinates": [
          [
            [
              114.4,
              23.9
            ],
            [
              114.8,
              23.9
            ],
            [
              114.8,
              24.3
            ],
            [
              114.4,
              24.3
            ],
            [
              114.4,
              23.9
            ]
          ]
        ]
      }
    },
    {
      "type": "Feature",
      "properties": {
        "cell_id": "CEG2000_f4_r0014_c0103",
        "region_id": "广东"
      },
      "geometry": {
        "type": "Polygon",
        "coordinates": [
          [
            [
              114.800006,
              23.9
            ],
            [
              115.199994,
              23.9
            ],
            [
              115.199994,
              24.3
            ],
            [
              114.800006,
              24.3
            ],
            [
              114.800006,
              23.9
            ]
          ]
        ]
      }
    },
    {
      "type": "Feature",
      "properties": {
        "cell_id": "CEG2000_f4_r0014_c0104",
        "region_id": "广东"
      },
      "geometry": {
        "type": "Polygon",
        "coordinates": [
          [
            [
              115.2,
              23.9
            ],
            [
              115.6,
              23.9
            ],
            [
              115.6,
              24.3
            ],
            [
              115.2,
              24.3
            ],
            [
              115.2,
              23.9
            ]
          ]
        ]
      }
    },
    {
      "type": "Feature",
      "properties": {
        "cell_id": "CEG2000_f4_r0014_c0105",
        "region_id": "广东"
      },
      "geometry": {
        "type": "Polygon",
        "coordinates": [
          [
            [
              115.59999400000001,
              23.9
            ],
            [
              116.0,
              23.9
            ],
            [
              116.0,
              24.3
            ],
            [
              115.59999400000001,
              24.3
            ],
            [
              115.59999400000001,
              23.9
            ]
          ]
        ]
      }
    },
    {
      "type": "Feature",
      "properties": {
        "cell_id": "CEG2000_f4_r0014_c0106",
        "region_id": "广东"
      },
      "geometry": {
        "type": "Polygon",
        "coordinates": [
          [
            [
              116.0,
              23.9
            ],
            [
              116.40000599999999,
              23.9
            ],
            [
              116.40000599999999,
              24.3
            ],
            [
              116.0,
              24.3
            ],
            [
              116.0,
              23.9
            ]
          ]
        ]
      }
    },
    {
      "type": "Feature",
      "properties": {
        "cell_id": "CEG2000_f4_r0014_c0107",
        "region_id": "广东"
      },
      "geometry": {
        "type": "Polygon",
        "coordinates": [
          [
            [
              116.4,
              23.9
            ],
            [
              116.8,
              23.9
            ],
            [
              116.8,
              24.3
            ],
            [
              116.4,
              24.3
            ],
            [
              116.4,
              23.9
            ]
          ]
        ]
      }
    },
    {
      "type": "Feature",
      "properties": {
        "cell_id": "CEG2000_f4_r0014_c0108",
        "region_id": "广东"
      },
      "geometry": {
        "type": "Polygon",
        "coordinates": [
          [
            [
              116.800006,
              23.9
            ],
            [
              117.199994,
              23.9
            ],
            [
              117.199994,
              24.3
            ],
            [
              116.800006,
              24.3
            ],
            [
              116.800006,
              23.9
            ]
          ]
        ]
      }
    },
    {
      "type": "Feature",
      "properties": {
        "cell_id": "CEG2000_f4_r0015_c0096",
        "region_id": "广东"
      },
      "geometry": {
        "type": "Polygon",
        "coordinates": [
          [
            [
              112.0,
              24.3
            ],
            [
              112.40000599999999,
              24.3
            ],
            [
              112.40000599999999,
              24.700002
            ],
            [
              112.0,
              24.700002
            ],
            [
              112.0,
              24.3
            ]
          ]
        ]
      }
    },
    {
      "type": "Feature",
      "properties": {
        "cell_id": "CEG2000_f4_r0015_c0097",
        "region_id": "广东"
      },
      "geometry": {
        "type": "Polygon",
        "coordinates": [
          [
            [
              112.4,
              24.3
            ],
            [
              112.8,
              24.3
            ],
            [
              112.8,
              24.700002
            ],
            [
              112.4,
              24.700002
            ],
            [
              112.4,
              24.3
            ]
          ]
        ]
      }
    },
    {
      "type": "Feature",
      "properties": {
        "cell_id": "CEG2000_f4_r0015_c0098",
        "region_id": "广东"
      },
      "geometry": {
        "type": "Polygon",
        "coordinates": [
          [
            [
              112.800006,
              24.3
            ],
            [
              113.199994,
              24.3
            ],
            [
              113.199994,
              24.700002
            ],
            [
              112.800006,
              24.700002
            ],
            [
              112.800006,
              24.3
            ]
          ]
        ]
      }
    },
    {
      "type": "Feature",
      "properties": {
        "cell_id": "CEG2000_f4_r0015_c0099",
        "region_id": "广东"
      },
      "geometry": {
        "type": "Polygon",
        "coordinates": [
          [
            [
              113.2,
              24.3
            ],
            [
              113.6,
              24.3
            ],
            [
              113.6,
              24.700002
            ],
            [
              113.2,
              24.700002
            ],
            [
              113.2,
              24.3
            ]
          ]
        ]
      }
    },
    {
      "type": "Feature",
      "properties": {
        "cell_id": "CEG2000_f4_r0015_c0100",
        "region_id": "广东"
      },
      "geometry": {
        "type": "Polygon",
        "coordinates": [
          [
            [
              113.59999400000001,
              24.3
            ],
            [
              114.0,
              24.3
            ],
            [
              114.0,
              24.700002
            ],
            [
              113.59999400000001,
              24.700002
            ],
            [
              113.59999400000001,
              24.3
            ]
          ]
        ]
      }
    },
    {
      "type": "Feature",
      "properties": {
        "cell_id": "CEG2000_f4_r0015_c0101",
        "region_id": "广东"
      },
      "geometry": {
        "type": "Polygon",
        "coordinates": [
          [
            [
              114.0,
              24.3
            ],
            [
              114.40000599999999,
              24.3
            ],
            [
              114.40000599999999,
              24.700002
            ],
            [
              114.0,
              24.700002
            ],
            [
              114.0,
              24.3
            ]
          ]
        ]
      }
    },
    {
      "type": "Feature",
      "properties": {
        "cell_id": "CEG2000_f4_r0015_c0102",
        "region_id": "广东"
      },
      "geometry": {
        "type": "Polygon",
        "coordinates": [
          [
            [
              114.4,
              24.3
            ],
            [
              114.8,
              24.3
            ],
            [
              114.8,
              24.700002
            ],
            [
              114.4,
              24.700002
            ],
            [
              114.4,
              24.3
            ]
          ]
        ]
      }
    },
    {
      "type": "Feature",
      "properties": {
        "cell_id": "CEG2000_f4_r0015_c0103",
        "region_id": "广东"
      },
      "geometry": {
        "type": "Polygon",
        "coordinates": [
          [
            [
              114.800006,
              24.3
            ],
            [
              115.199994,
              24.3
            ],
            [
              115.199994,
              24.700002
            ],
            [
              114.800006,
              24.700002
            ],
            [
              114.800006,
              24.3
            ]
          ]
        ]
      }
    },
    {
      "type": "Feature",
      "properties": {
        "cell_id": "CEG2000_f4_r0015_c0104",
        "region_id": "广东"
      },
      "geometry": {
        "type": "Polygon",
        "coordinates": [
          [
            [
              115.2,
              24.3
            ],
            [
              115.6,
              24.3
            ],
            [
              115.6,
              24.700002
            ],
            [
              115.2,
              24.700002
            ],
            [
              115.2,
              24.3
            ]
          ]
        ]
      }
    },
    {
      "type": "Feature",
      "properties": {
        "cell_id": "CEG2000_f4_r0015_c0105",
        "region_id": "广东"
      },
      "geometry": {
        "type": "Polygon",
        "coordinates": [
          [
            [
              115.59999400000001,
              24.3
            ],
            [
              116.0,
              24.3
            ],
            [
              116.0,
              24.700002
            ],
            [
              115.59999400000001,
              24.700002
            ],
            [
              115.59999400000001,
              24.3
            ]
          ]
        ]
      }
    },
    {
      "type": "Feature",
      "properties": {
        "cell_id": "CEG2000_f4_r0015_c0106",
        "region_id": "广东"
      },
      "geometry": {
        "type": "Polygon",
        "coordinates": [
          [
            [
              116.0,
              24.3
            ],
            [
              116.40000599999999,
              24.3
            ],
            [
              116.40000599999999,
              24.700002
            ],
            [
              116.0,
              24.700002
            ],
            [
              116.0,
              24.3
            ]
          ]
        ]
      }
    },
    {
      "type": "Feature",
      "properties": {
        "cell_id": "CEG2000_f4_r0015_c0107",
        "region_id": "广东"
      },
      "geometry": {
        "type": "Polygon",
        "coordinates": [
          [
            [
              116.4,
              24.3
            ],
            [
              116.8,
              24.3
            ],
            [
              116.8,
              24.700002
            ],
            [
              116.4,
              24.700002
            ],
            [
              116.4,
              24.3
            ]
          ]
        ]
      }
    },
    {
      "type": "Feature",
      "properties": {
        "cell_id": "CEG2000_f4_r0016_c0096",
        "region_id": "广东"
      },
      "geometry": {
        "type": "Polygon",
        "coordinates": [
          [
            [
              112.0,
              24.7
            ],
            [
              112.40000599999999,
              24.7
            ],
            [
              112.40000599999999,
              25.1
            ],
            [
              112.0,
              25.1
            ],
            [
              112.0,
              24.7
            ]
          ]
        ]
      }
    },
    {
      "type": "Feature",
      "properties": {
        "cell_id": "CEG2000_f4_r0016_c0097",
        "region_id": "广东"
      },
      "geometry": {
        "type": "Polygon",
        "coordinates": [
          [
            [
              112.4,
              24.7
            ],
            [
              112.8,
              24.7
            ],
            [
              112.8,
              25.1
            ],
            [
              112.4,
              25.1
            ],
            [
              112.4,
              24.7
            ]
          ]
        ]
      }
    },
    {
      "type": "Feature",
      "properties": {
        "cell_id": "CEG2000_f4_r0016_c0098",
        "region_id": "广东"
      },
      "geometry": {
        "type": "Polygon",
        "coordinates": [
          [
            [
              112.800006,
              24.7
            ],
            [
              113.199994,
              24.7
            ],
            [
              113.199994,
              25.1
            ],
            [
              112.800006,
              25.1
            ],
            [
              112.800006,
              24.7
            ]
          ]
        ]
      }
    },
    {
      "type": "Feature",
      "properties": {
        "cell_id": "CEG2000_f4_r0016_c0099",
        "region_id": "广东"
      },
      "geometry": {
        "type": "Polygon",
        "coordinates": [
          [
            [
              113.2,
              24.7
            ],
            [
              113.6,
              24.7
            ],
            [
              113.6,
              25.1
            ],
            [
              113.2,
              25.1
            ],
            [
              113.2,
              24.7
            ]
          ]
        ]
      }
    },
    {
      "type": "Feature",
      "properties": {
        "cell_id": "CEG2000_f4_r0016_c0100",
        "region_id": "广东"
      },
      "geometry": {
        "type": "Polygon",
        "coordinates": [
          [
            [
              113.59999400000001,
              24.7
            ],
            [
              114.0,
              24.7
            ],
            [
              114.0,
              25.1
            ],
            [
              113.59999400000001,
              25.1
            ],
            [
              113.59999400000001,
              24.7
            ]
          ]
        ]
      }
    },
    {
      "type": "Feature",
      "properties": {
        "cell_id": "CEG2000_f4_r0016_c0101",
        "region_id": "广东"
      },
      "geometry": {
        "type": "Polygon",
        "coordinates": [
          [
            [
              114.0,
              24.7
            ],
            [
              114.40000599999999,
              24.7
            ],
            [
              114.40000599999999,
              25.1
            ],
            [
              114.0,
              25.1
            ],
            [
              114.0,
              24.7
            ]
          ]
        ]
      }
    },
    {
      "type": "Feature",
      "properties": {
        "cell_id": "CEG2000_f4_r0016_c0105",
        "region_id": "广东"
      },
      "geometry": {
        "type": "Polygon",
        "coordinates": [
          [
            [
              115.59999400000001,
              24.7
            ],
            [
              116.0,
              24.7
            ],
            [
              116.0,
              25.1
            ],
            [
              115.59999400000001,
              25.1
            ],
            [
              115.59999400000001,
              24.7
            ]
          ]
        ]
      }
    },
    {
      "type": "Feature",
      "properties": {
        "cell_id": "CEG2000_f4_r0016_c0106",
        "region_id": "广东"
      },
      "geometry": {
        "type": "Polygon",
        "coordinates": [
          [
            [
              116.0,
              24.7
            ],
            [
              116.40000599999999,
              24.7
            ],
            [
              116.40000599999999,
              25.1
            ],
            [
              116.0,
              25.1
            ],
            [
              116.0,
              24.7
            ]
          ]
        ]
      }
    },
    {
      "type": "Feature",
      "properties": {
        "cell_id": "CEG2000_f4_r0017_c0098",
        "region_id": "广东"
      },
      "geometry": {
        "type": "Polygon",
        "coordinates": [
          [
            [
              112.800006,
              25.100002
            ],
            [
              113.199994,
              25.100002
            ],
            [
              113.199994,
              25.5
            ],
            [
              112.800006,
              25.5
            ],
            [
              112.800006,
              25.100002
            ]
          ]
        ]
      }
    },
    {
      "type": "Feature",
      "properties": {
        "cell_id": "CEG2000_f4_r0017_c0099",
        "region_id": "广东"
      },
      "geometry": {
        "type": "Polygon",
        "coordinates": [
          [
            [
              113.2,
              25.100002
            ],
            [
              113.6,
              25.100002
            ],
            [
              113.6,
              25.5
            ],
            [
              113.2,
              25.5
            ],
            [
              113.2,
              25.100002
            ]
          ]
        ]
      }
    },
    {
      "type": "Feature",
      "properties": {
        "cell_id": "CEG2000_f4_r0017_c0100",
        "region_id": "广东"
      },
      "geometry": {
        "type": "Polygon",
        "coordinates": [
          [
            [
              113.59999400000001,
              25.100002
            ],
            [
              114.0,
              25.100002
            ],
            [
              114.0,
              25.5
            ],
            [
              113.59999400000001,
              25.5
            ],
            [
              113.59999400000001,
              25.100002
            ]
          ]
        ]
      }
    },
    {
      "type": "Feature",
      "properties": {
        "cell_id": "CEG2000_f4_r0017_c0101",
        "region_id": "广东"
      },
      "geometry": {
        "type": "Polygon",
        "coordinates": [
          [
            [
              114.0,
              25.100002
            ],
            [
              114.40000599999999,
              25.100002
            ],
            [
              114.40000599999999,
              25.5
            ],
            [
              114.0,
              25.5
            ],
            [
              114.0,
              25.100002
            ]
          ]
        ]
      }
    },
    {
      "type": "Feature",
      "properties": {
        "cell_id": "CEG2000_f4_r0017_c0102",
        "region_id": "广东"
      },
      "geometry": {
        "type": "Polygon",
        "coordinates": [
          [
            [
              114.4,
              25.100002
            ],
            [
              114.8,
              25.100002
            ],
            [
              114.8,
              25.5
            ],
            [
              114.4,
              25.5
            ],
            [
              114.4,
              25.100002
            ]
          ]
        ]
      }
    }
  ]
}