{
  "type": "FeatureCollection",
  "features": [
    {
      "type": "Feature",
      "properties": {
        "cell_id": "CEG2000_f4_r0022_c0115",
        "region_id": "浙江"
      },
      "geometry": {
        "type": "Polygon",
        "coordinates": [
          [
            [
              119.59999400000001,
              27.100002
            ],
            [
              120.0,
              27.100002
            ],
            [
              120.0,
              27.5
            ],
            [
              119.59999400000001,
              27.5
            ],
            [
              119.59999400000001,
              27.100002
            ]
          ]
        ]
      }
    },
    {
      "type": "Feature",
      "properties": {
        "cell_id": "CEG2000_f4_r0022_c0116",
        "region_id": "浙江"
      },
      "geometry": {
        "type": "Polygon",
        "coordinates": [
          [
            [
              120.0,
              27.100002
            ],
            [
              120.40000599999999,
              27.100002
            ],
            [
              120.40000599999999,
              27.5
            ],
            [
              120.0,
              27.5
            ],
            [
              120.0,
              27.100002
            ]
          ]
        ]
      }
    },
    {
      "type": "Feature",
      "properties": {
        "cell_id": "CEG2000_f4_r0023_c0113",
        "region_id": "浙江"
      },
      "geometry": {
        "type": "Polygon",
        "coordinates": [
          [
            [
              118.800006,
              27.5
            ],
            [
              119.199994,
              27.5
            ],
            [
              119.199994,
              27.900000000000002
            ],
            [
              118.800006,
              27.900000000000002
            ],
            [
              118.800006,
              27.5
            ]
          ]
        ]
      }
    },
    {
      "type": "Feature",
      "properties": {
        "cell_id": "CEG2000_f4_r0023_c0114",
        "region_id": "浙江"
      },
      "geometry": {
        "type": "Polygon",
        "coordinates": [
          [
            [
              119.2,
              27.5
            ],
            [
              119.6,
              27.5
            ],
            [
              119.6,
              27.900000000000002
            ],
            [
              119.2,
              27.900000000000002
            ],
            [
              119.2,
              27.5
            ]
          ]
        ]
      }
    },
    {
      "type": "Feature",
      "properties": {
        "cell_id": "CEG2000_f4_r0023_c0115",
        "region_id": "浙江"
      },
      "geometry": {
        "type": "Polygon",
        "coordinates": [
          [
            [
              119.59999400000001,
              27.5
            ],
            [
              120.0,
              27.5
            ],
            [
              120.0,
              27.900000000000002
            ],
            [
              119.59999400000001,
              27.900000000000002
            ],
            [
              119.59999400000001,
              27.5
            ]
          ]
        ]
      }
    },
    {
      "type": "Feature",
      "properties": {
        "cell_id": "CEG2000_f4_r0023_c0116",
        "region_id": "浙江"
      },
      "geometry": {
        "type": "Polygon",
        "coordinates": [
          [
            [
              120.0,
              27.5
            ],
            [
              120.40000599999999,
              27.5
            ],
            [
              120.40000599999999,
              27.900000000000002
            ],
            [
              120.0,
              27.900000000000002
            ],
            [
              120.0,
              27.5
            ]
          ]
        ]
      }
    },
    {
      "type": "Feature",
      "properties": {
        "cell_id": "CEG2000_f4_r0023_c0117",
        "region_id": "浙江"
      },
      "geometry": {
        "type": "Polygon",
        "coordinates": [
          [
            [
              120.4,
              27.5
            ],
            [
              120.8,
              27.5
            ],
            [
              120.8,
              27.900000000000002
            ],
            [
              120.4,
              27.900000000000002
            ],
            [
              120.4,
              27.5
            ]
          ]
        ]
      }
    },
    {
      "type": "Feature",
      "properties": {
        "cell_id": "CEG2000_f4_r0024_c0113",
        "region_id": "浙江"
      },
      "geometry": {
        "type": "Polygon",
        "coordinates": [
          [
            [
              118.800006,
              27.9
            ],
            [
              119.199994,
              27.9
            ],
            [
              119.199994,
              28.3
            ],
            [
              118.800006,
              28.3
            ],
            [
              118.800006,
              27.9
            ]
          ]
        ]
      }
    },
    {
      "type": "Feature",
      "properties": {
        "cell_id": "CEG2000_f4_r0024_c0114",
        "region_id": "浙江"
      },
      "geometry": {
        "type": "Polygon",
        "coordinates": [
          [
            [
              119.2,
              27.9
            ],
            [
              119.6,
              27.9
            ],
            [
              119.6,
              28.3
            ],
            [
              119.2,
              28.3
            ],
            [
              119.2,
              27.9
            ]
          ]
        ]
      }
    },
    {
      "type": "Feature",
      "properties": {
        "cell_id": "CEG2000_f4_r0024_c0115",
        "region_id": "浙江"
      },
      "geometry": {
        "type": "Polygon",
        "coordinates": [
          [
            [
              119.59999400000001,
              27.9
            ],
            [
              120.0,
              27.9
            ],
            [
              120.0,
              28.3
            ],
            [
              119.59999400000001,
              28.3
            ],
            [
              119.59999400000001,
              27.9
            ]
          ]
        ]
      }
    },
    {
      "type": "Feature",
      "properties": {
        "cell_id": "CEG2000_f4_r0024_c0116",
        "region_id": "浙江"
      },
      "geometry": {
        "type": "Polygon",
        "coordinates": [
          [
            [
              120.0,
              27.9
            ],
            [
              120.40000599999999,
              27.9
            ],
            [
              120.40000599999999,
              28.3
            ],
            [
              120.0,
              28.3
            ],
            [
              120.0,
              27.9
            ]
          ]
        ]
      }
    },
    {
      "type": "Feature",
      "properties": {
        "cell_id": "CEG2000_f4_r0024_c0117",
        "region_id": "浙江"
      },
      "geometry": {
        "type": "Polygon",
        "coordinates": [
          [
            [
              120.4,
              27.9
            ],
            [
              120.8,
              27.9
            ],
            [
              120.8,
              28.3
            ],
            [
              120.4,
              28.3
            ],
            [
              120.4,
              27.9
            ]
          ]
        ]
      }
    },
    {
      "type": "Feature",
      "properties": {
        "cell_id": "CEG2000_f4_r0024_c0118",
        "region_id": "浙江"
      },
      "geometry": {
        "type": "Polygon",
        "coordinates": [
          [
            [
              120.800006,
              27.9
            ],
            [
              121.199994,
              27.9
            ],
            [
              121.199994,
              28.3
            ],
            [
              120.800006,
              28.3
            ],
            [
              120.800006,
              27.9
            ]
          ]
        ]
      }
    },
    {
      "type": "Feature",
      "properties": {
        "cell_id": "CEG2000_f4_r0025_c0112",
        "region_id": "浙江"
      },
      "geometry": {
        "type": "Polygon",
        "coordinates": [
          [
            [
              118.4,
              28.3
            ],
            [
              118.8,
              28.3
            ],
            [
              118.8,
              28.700002
            ],
            [
              118.4,
              28.700002
            ],
            [
              118.4,
              28.3
            ]
          ]
        ]
      }
    },
    {
      "type": "Feature",
      "properties": {
        "cell_id": "CEG2000_f4_r0025_c0113",
        "region_id": "浙江"
      },
      "geometry": {
        "type": "Polygon",
        "coordinates": [
          [
            [
              118.800006,
              28.3
            ],
            [
              119.199994,
              28.3
            ],
            [
              119.199994,
              28.700002
            ],
            [
              118.800006,
              28.700002
            ],
            [
              118.800006,
              28.3
            ]
          ]
        ]
      }
    },
    {
      "type": "Feature",
      "properties": {
        "cell_id": "CEG2000_f4_r0025_c0114",
        "region_id": "浙江"
      },
      "geometry": {
        "type": "Polygon",
        "coordinates": [
          [
            [
              119.2,
              28.3
            ],
            [
              119.6,
              28.3
            ],
            [
              119.6,
              28.700002
            ],
            [
              119.2,
              28.700002
            ],
            [
              119.2,
              28.3
            ]
          ]
        ]
      }
    },
    {
      "type": "Feature",
      "properties": {
        "cell_id": "CEG2000_f4_r0025_c0115",
        "region_id": "浙江"
      },
      "geometry": {
        "type": "Polygon",
        "coordinates": [
          [
            [
              119.59999400000001,
              28.3
            ],
            [
              120.0,
              28.3
            ],
            [
              120.0,
              28.700002
            ],
            [
              119.59999400000001,
              28.700002
            ],
            [
              119.59999400000001,
              28.3
            ]
          ]
        ]
      }
    },
    {
      "type": "Feature",
      "properties": {
        "cell_id": "CEG2000_f4_r0025_c0116",
        "region_id": "浙江"
      },
      "geometry": {
        "type": "Polygon",
        "coordinates": [
          [
            [
              120.0,
              28.3
            ],
            [
              120.40000599999999,
              28.3
            ],
            [
              120.40000599999999,
              28.700002
            ],
            [
              120.0,
              28.700002
            ],
            [
              120.0,
              28.3
            ]
          ]
        ]
      }
    },
    {
      "type": "Feature",
      "properties": {
        "cell_id": "CEG2000_f4_r0025_c0117",
        "region_id": "浙江"
      },
      "geometry": {
        "type": "Polygon",
        "coordinates": [
          [
            [
              120.4,
              28.3
            ],
            [
              120.8,
              28.3
            ],
            [
              120.8,
              28.700002
            ],
            [
              120.4,
              28.700002
            ],
            [
              120.4,
              28.3
            ]
          ]
        ]
      }
    },
    {
      "type": "Feature",
      "properties": {
        "cell_id": "CEG2000_f4_r0025_c0118",
        "region_id": "浙江"
      },
      "geometry": {
        "type": "Polygon",
        "coordinates": [
          [
            [
              120.800006,
              28.3
            ],
            [
              121.199994,
              28.3
            ],
            [
              121.199994,
              28.700002
            ],
            [
              120.800006,
              28.700002
            ],
            [
              120.800006,
              28.3
            ]
          ]
        ]
      }
    },
    {
      "type": "Feature",
      "properties": {
        "cell_id": "CEG2000_f4_r0025_c0119",
        "region_id": "浙江"
      },
      "geometry": {
        "type": "Polygon",
        "coordinates": [
          [
            [
              121.2,
              28.3
            ],
            [
              121.6,
              28.3
            ],
            [
              121.6,
              28.700002
            ],
            [
              121.2,
              28.700002
            ],
            [
              121.2,
              28.3
            ]
          ]
        ]
      }
    },
    {
      "type": "Feature",
      "properties": {
        "cell_id": "CEG2000_f4_r0026_c0111",
        "region_id": "浙江"
      },
      "geometry": {
        "type": "Polygon",
        "coordinates": [
          [
            [
              118.0,
              28.7
            ],
            [
              118.40000599999999,
              28.7
            ],
            [
              118.40000599999999,
              29.1
            ],
            [
              118.0,
              29.1
            ],
            [
              118.0,
              28.7
            ]
          ]
        ]
      }
    },
    {
      "type": "Feature",
      "properties": {
        "cell_id": "CEG2000_f4_r0026_c0112",
        "region_id": "浙江"
      },
      "geometry": {
        "type": "Polygon",
        "coordinates": [
          [
            [
              118.4,
              28.7
            ],
            [
              118.8,
              28.7
            ],
            [
              118.8,
              29.1
            ],
            [
              118.4,
              29.1
            ],
            [
              118.4,
              28.7
            ]
          ]
        ]
      }
    },
    {
      "type": "Feature",
      "properties": {
        "cell_id": "CEG2000_f4_r0026_c0113",
        "region_id": "浙江"
      },
      "geometry": {
        "type": "Polygon",
        "coordinates": [
          [
            [
              118.800006,
              28.7
            ],
            [
              119.199994,
              28.7
            ],
            [
              119.199994,
              29.1
            ],
            [
              118.800006,
              29.1
            ],
            [
              118.800006,
              28.7
            ]
          ]
        ]
      }
    },
    {
      "type": "Feature",
      "properties": {
        "cell_id": "CEG2000_f4_r0026_c0114",
        "region_id": "浙江"
      },
      "geometry": {
        "type": "Polygon",
        "coordinates": [
          [
            [
              119.2,
              28.7
            ],
            [
              119.6,
              28.7
            ],
            [
              119.6,
              29.1
            ],
            [
              119.2,
              29.1
            ],
            [
              119.2,
              28.7
            ]
          ]
        ]
      }
    },
    {
      "type": "Feature",
      "properties": {
        "cell_id": "CEG2000_f4_r0026_c0115",
        "region_id": "浙江"
      },
      "geometry": {
        "type": "Polygon",
        "coordinates": [
          [
            [
              119.59999400000001,
              28.7
            ],
            [
              120.0,
              28.7
            ],
            [
              120.0,
              29.1
            ],
            [
              119.59999400000001,
              29.1
            ],
            [
              119.59999400000001,
              28.7
            ]
          ]
        ]
      }
    },
    {
      "type": "Feature",
      "properties": {
        "cell_id": "CEG2000_f4_r0026_c0116",
        "region_id": "浙江"
      },
      "geometry": {
        "type": "Polygon",
        "coordinates": [
          [
            [
              120.0,
              28.7
            ],
            [
              120.40000599999999,
              28.7
            ],
            [
              120.40000599999999,
              29.1
            ],
            [
              120.0,
              29.1
            ],
            [
              120.0,
              28.7
            ]
          ]
        ]
      }
    },
    {
      "type": "Feature",
      "properties": {
        "cell_id": "CEG2000_f4_r0026_c0117",
        "region_id": "浙江"
      },
      "geometry": {
        "type": "Polygon",
        "coordinates": [
          [
            [
              120.4,
              28.7
            ],
            [
              120.8,
              28.7
            ],
            [
              120.8,
              29.1
            ],
            [
              120.4,
              29.1
            ],
            [
              120.4,
              28.7
            ]
          ]
        ]
      }
    },
    {
      "type": "Feature",
      "properties": {
        "cell_id": "CEG2000_f4_r0026_c0118",
        "region_id": "浙江"
      },
      "geometry": {
        "type": "Polygon",
        "coordinates": [
          [
            [
              120.800006,
              28.7
            ],
            [
              121.199994,
              28.7
            ],
            [
              121.199994,
              29.1
            ],
            [
              120.800006,
              29.1
            ],
            [
              120.800006,
              28.7
            ]
          ]
        ]
      }
    },
    {
      "type": "Feature",
      "properties": {
        "cell_id": "CEG2000_f4_r0026_c0119",
        "region_id": "浙江"
      },
      "geometry": {
        "type": "Polygon",
        "coordinates": [
          [
            [
              121.2,
              28.7
            ],
            [
              121.6,
              28.7
            ],
            [
              121.6,
              29.1
            ],
            [
              121.2,
              29.1
            ],
            [
              121.2,
              28.7
            ]
          ]
        ]
      }
    },
    {
      "type": "Feature",
      "properties": {
        "cell_id": "CEG2000_f4_r0027_c0111",
        "region_id": "浙江"
      },
      "geometry": {
        "type": "Polygon",
        "coordinates": [
          [
            [
              118.0,
              29.100002
            ],
            [
              118.40000599999999,
              29.100002
            ],
            [
              118.40000599999999,
              29.5
            ],
            [
              118.0,
              29.5
            ],
            [
              118.0,
              29.100002
            ]
          ]
        ]
      }
    },
    {
      "type": "Feature",
      "properties": {
        "cell_id": "CEG2000_f4_r0027_c0112",
        "region_id": "浙江"
      },
      "geometry": {
        "type": "Polygon",
        "coordinates": [
          [
            [
              118.4,
              29.100002
            ],
            [
              118.8,
              29.100002
            ],
            [
              118.8,
              29.5
            ],
            [
              118.4,
              29.5
            ],
            [
              118.4,
              29.100002
            ]
          ]
        ]
      }
    },
    {
      "type": "Feature",
      "properties": {
        "cell_id": "CEG2000_f4_r0027_c0113",
        "region_id": "浙江"
      },
      "geometry": {
        "type": "Polygon",
        "coordinates": [
          [
            [
              118.800006,
              29.100002
            ],
            [
              119.199994,
              29.100002
            ],
            [
              119.199994,
              29.5
            ],
            [
              118.800006,
              29.5
            ],
            [
              118.800006,
              29.100002
            ]
          ]
        ]
      }
    },
    {
      "type": "Feature",
      "properties": {
        "cell_id": "CEG2000_f4_r0027_c0114",
        "region_id": "浙江"
      },
      "geometry": {
        "type": "Polygon",
        "coordinates": [
          [
            [
              119.2,
              29.100002
            ],
            [
              119.6,
              29.100002
            ],
            [
              119.6,
              29.5
            ],
            [
              119.2,
              29.5
            ],
            [
              119.2,
              29.100002
            ]
          ]
        ]
      }
    },
    {
      "type": "Feature",
      "properties": {
        "cell_id": "CEG2000_f4_r0027_c0115",
        "region_id": "浙江"
      },
      "geometry": {
        "type": "Polygon",
        "coordinates": [
          [
            [
              119.59999400000001,
              29.100002
            ],
            [
              120.0,
              29.100002
            ],
            [
              120.0,
              29.5
            ],
            [
              119.59999400000001,
              29.5
            ],
            [
              119.59999400000001,
              29.100002
            ]
          ]
        ]
      }
    },
    {
      "type": "Feature",
      "properties": {
        "cell_id": "CEG2000_f4_r0027_c0116",
        "region_id": "浙江"
      },
      "geometry": {
        "type": "Polygon",
        "coordinates": [
          [
            [
              120.0,
              29.100002
            ],
            [
              120.40000599999999,
              29.100002
            ],
            [
              120.40000599999999,
              29.5
            ],
            [
              120.0,
              29.5
            ],
            [
              120.0,
              29.100002
            ]
          ]
        ]
      }
    },
    {
      "type": "Feature",
      "properties": {
        "cell_id": "CEG2000_f4_r0027_c0117",
        "region_id": "浙江"
      },
      "geometry": {
        "type": "Polygon",
        "coordinates": [
          [
            [
              120.4,
              29.100002
            ],
            [
              120.8,
              29.100002
            ],
            [
              120.8,
              29.5
            ],
            [
              120.4,
              29.5
            ],
            [
              120.4,
              29.100002
            ]
          ]
        ]
      }
    },
    {
      "type": "Feature",
      "properties": {
        "cell_id": "CEG2000_f4_r0027_c0118",
        "region_id": "浙江"
      },
      "geometry": {
        "type": "Polygon",
        "coordinates": [
          [
            [
              120.800006,
              29.100002
            ],
            [
              121.199994,
              29.100002
            ],
            [
              121.199994,
              29.5
            ],
            [
              120.800006,
              29.5
            ],
            [
              120.800006,
              29.100002
            ]
          ]
        ]
      }
    },
    {
      "type": "Feature",
      "properties": {
        "cell_id": "CEG2000_f4_r0027_c0119",
        "region_id": "浙江"
      },
      "geometry": {
        "type": "Polygon",
        "coordinates": [
          [
            [
              121.2,
              29.100002
            ],
            [
              121.6,
              29.100002
            ],
            [
              121.6,
              29.5
            ],
            [
              121.2,
              29.5
            ],
            [
              121.2,
              29.100002
            ]
          ]
        ]
      }
    },
    {
      "type": "Feature",
      "properties": {
        "cell_id": "CEG2000_f4_r0027_c0120",
        "region_id": "浙江"
      },
      "geometry": {
        "type": "Polygon",
        "coordinates": [
          [
            [
              121.59999400000001,
              29.100002
            ],
            [
              122.0,
              29.100002
            ],
            [
              122.0,
              29.5
            ],
            [
              121.59999400000001,
              29.5
            ],
            [
              121.59999400000001,
              29.100002
            ]
          ]
        ]
      }
    },
    {
      "type": "Feature",
      "properties": {
        "cell_id": "CEG2000_f4_r0028_c0112",
        "region_id": "浙江"
      },
      "geometry": {
        "type": "Polygon",
        "coordinates": [
          [
            [
              118.4,
              29.5
            ],
            [
              118.8,
              29.5
            ],
            [
              118.8,
              29.900000000000002
            ],
            [
              118.4,
              29.900000000000002
            ],
            [
              118.4,
              29.5
            ]
          ]
        ]
      }
    },
    {
      "type": "Feature",
      "properties": {
        "cell_id": "CEG2000_f4_r0028_c0113",
        "region_id": "浙江"
      },
      "geometry": {
        "type": "Polygon",
        "coordinates": [
          [
            [
              118.800006,
              29.5
            ],
            [
              119.199994,
              29.5
            ],
            [
              119.199994,
              29.900000000000002
            ],
            [
              118.800006,
              29.900000000000002
            ],
            [
              118.800006,
              29.5
            ]
          ]
        ]
      }
    },
    {
      "type": "Feature",
      "properties": {
        "cell_id": "CEG2000_f4_r0028_c0114",
        "region_id": "浙江"
      },
      "geometry": {
        "type": "Polygon",
        "coordinates": [
          [
            [
              119.2,
              29.5
            ],
            [
              119.6,
              29.5
            ],
            [
              119.6,
              29.900000000000002
            ],
            [
              119.2,
              29.900000000000002
            ],
            [
              119.2,
              29.5
            ]
          ]
        ]
      }
    },
    {
      "type": "Feature",
      "properties": {
        "cell_id": "CEG2000_f4_r0028_c0115",
        "region_id": "浙江"
      },
      "geometry": {
        "type": "Polygon",
        "coordinates": [
          [
            [
              119.59999400000001,
              29.5
            ],
            [
              120.0,
              29.5
            ],
            [
              120.0,
              29.900000000000002
            ],
            [
              119.59999400000001,
              29.900000000000002
            ],
            [
              119.59999400000001,
              29.5
            ]
          ]
        ]
      }
    },
    {
      "type": "Feature",
      "properties": {
        "cell_id": "CEG2000_f4_r0028_c0116",
        "region_id": "浙江"
      },
      "geometry": {
        "type": "Polygon",
        "coordinates": [
          [
            [
              120.0,
              29.5
            ],
            [
              120.40000599999999,
              29.5
            ],
            [
              120.40000599999999,
              29.900000000000002
            ],
            [
              120.0,
              29.900000000000002
            ],
            [
              120.0,
              29.5
            ]
          ]
        ]
      }
    },
    {
      "type": "Feature",
      "properties": {
        "cell_id": "CEG2000_f4_r0028_c0117",
        "region_id": "浙江"
      },
      "geometry": {
        "type": "Polygon",
        "coordinates": [
          [
            [
              120.4,
              29.5
            ],
            [
              120.8,
              29.5
            ],
            [
              120.8,
              29.900000000000002
            ],
            [
              120.4,
              29.900000000000002
            ],
            [
              120.4,
              29.5
            ]
          ]
        ]
      }
    },
    {
      "type": "Feature",
      "properties": {
        "cell_id": "CEG2000_f4_r0028_c0118",
        "region_id": "浙江"
      },
      "geometry": {
        "type": "Polygon",
        "coordinates": [
          [
            [
              120.800006,
              29.5
            ],
            [
              121.199994,
              29.5
            ],
            [
              121.199994,
              29.900000000000002
            ],
            [
              120.800006,
              29.900000000000002
            ],
            [
              120.800006,
              29.5
            ]
          ]
        ]
      }
    },
    {
      "type": "Feature",
      "properties": {
        "cell_id": "CEG2000_f4_r0028_c0119",
        "region_id": "浙江"
      },
      "geometry": {
        "type": "Polygon",
        "coordinates": [
          [
            [
              121.2,
              29.5
            ],
            [
              121.6,
              29.5
            ],
            [
              121.6,
              29.900000000000002
            ],
            [
              121.2,
              29.900000000000002
            ],
            [
              121.2,
              29.5
            ]
          ]
        ]
      }
    },
    {
      "type": "Feature",
      "properties": {
        "cell_id": "CEG2000_f4_r0028_c0120",
        "region_id": "浙江"
      },
      "geometry": {
        "type": "Polygon",
        "coordinates": [
          [
            [
              121.59999400000001,
              29.5
            ],
            [
              122.0,
              29.5
            ],
            [
              122.0,
              29.900000000000002
            ],
            [
              121.59999400000001,
              29.900000000000002
            ],
            [
              121.59999400000001,
              29.5
            ]
          ]
        ]
      }
    },
    {
      "type": "Feature",
      "properties": {
        "cell_id": "CEG2000_f4_r0029_c0113",
        "region_id": "浙江"
      },
      "geometry": {
        "type": "Polygon",
        "coordinates": [
          [
            [
              118.800006,
              29.9
            ],
            [
              119.199994,
              29.9
            ],
            [
              119.199994,
              30.3
            ],
            [
              118.800006,
              30.3
            ],
            [
              118.800006,
              29.9
            ]
          ]
        ]
      }
    },
    {
      "type": "Feature",
      "properties": {
        "cell_id": "CEG2000_f4_r0029_c0114",
        "region_id": "浙江"
      },
      "geometry": {
        "type": "Polygon",
        "coordinates": [
          [
            [
              119.2,
              29.9
            ],
            [
              119.6,
              29.9
            ],
            [
              119.6,
              30.3
            ],
            [
              119.2,
              30.3
            ],
            [
              119.2,
              29.9
            ]
          ]
        ]
      }
    },
    {
      "type": "Feature",
      "properties": {
        "cell_id": "CEG2000_f4_r0029_c0115",
        "region_id": "浙江"
      },
      "geometry": {
        "type": "Polygon",
        "coordinates": [
          [
            [
              119.59999400000001,
              29.9
            ],
            [
              120.0,
              29.9
            ],
            [
              120.0,
              30.3
            ],
            [
              119.59999400000001,
              30.3
            ],
            [
              119.59999400000001,
              29.9
            ]
          ]
        ]
      }
    },
    {
      "type": "Feature",
      "properties": {
        "cell_id": "CEG2000_f4_r0029_c0116",
        "region_id": "浙江"
      },
      "geometry": {
        "type": "Polygon",
        "coordinates": [
          [
            [
              120.0,
              29.9
            ],
            [
              120.40000599999999,
              29.9
            ],
            [
              120.40000599999999,
              30.3
            ],
            [
              120.0,
              30.3
            ],
            [
              120.0,
              29.9
            ]
          ]
        ]
      }
    },
    {
      "type": "Feature",
      "properties": {
        "cell_id": "CEG2000_f4_r0029_c0117",
        "region_id": "浙江"
      },
      "geometry": {
        "type": "Polygon",
        "coordinates": [
          [
            [
              120.4,
              29.9
            ],
            [
              120.8,
              29.9
            ],
            [
              120.8,
              30.3
            ],
            [
              120.4,
              30.3
            ],
            [
              120.4,
              29.9
            ]
          ]
        ]
      }
    },
    {
      "type": "Feature",
      "properties": {
        "cell_id": "CEG2000_f4_r0029_c0118",
        "region_id": "浙江"
      },
      "geometry": {
        "type": "Polygon",
        "coordinates": [
          [
            [
              120.800006,
              29.9
            ],
            [
              121.199994,
              29.9
            ],
            [
              121.199994,
              30.3
            ],
            [
              120.800006,
              30.3
            ],
            [
              120.800006,
              29.9
            ]
          ]
        ]
      }
    },
    {
      "type": "Feature",
      "properties": {
        "cell_id": "CEG2000_f4_r0029_c0119",
        "region_id": "浙江"
      },
      "geometry": {
        "type": "Polygon",
        "coordinates": [
          [
            [
              121.2,
              29.9
            ],
            [
              121.6,
              29.9
            ],
            [
              121.6,
              30.3
            ],
            [
              121.2,
              30.3
            ],
            [
              121.2,
              29.9
            ]
          ]
        ]
      }
    },
    {
      "type": "Feature",
      "properties": {
        "cell_id": "CEG2000_f4_r0030_c0114",
        "region_id": "浙江"
      },
      "geometry": {
        "type": "Polygon",
        "coordinates": [
          [
            [
              119.2,
              30.3
            ],
            [
              119.6,
              30.3
            ],
            [
              119.6,
              30.700002
            ],
            [
              119.2,
              30.700002
            ],
            [
              119.2,
              30.3
            ]
          ]
        ]
      }
    },
    {
      "type": "Feature",
      "properties": {
        "cell_id": "CEG2000_f4_r0030_c0115",
        "region_id": "浙江"
      },
      "geometry": {
        "type": "Polygon",
        "coordinates": [
          [
            [
              119.59999400000001,
              30.3
            ],
            [
              120.0,
              30.3
            ],
            [
              120.0,
              30.700002
            ],
            [
              119.59999400000001,
              30.700002
            ],
            [
              119.59999400000001,
              30.3
            ]
          ]
        ]
      }
    },
    {
      "type": "Feature",
      "properties": {
        "cell_id": "CEG2000_f4_r0030_c0116",
        "region_id": "浙江"
      },
      "geometry": {
        "type": "Polygon",
        "coordinates": [
          [
            [
              120.0,
              30.3
            ],
            [
              120.40000599999999,
              30.3
            ],
            [
              120.40000599999999,
              30.700002
            ],
            [
              120.0,
              30.700002
            ],
            [
              120.0,
              30.3
            ]
          ]
        ]
      }
    },
    {
      "type": "Feature",
      "properties": {
        "cell_id": "CEG2000_f4_r0030_c0117",
        "region_id": "浙江"
      },
      "geometry": {
        "type": "Polygon",
        "coordinates": [
          [
            [
              120.4,
              30.3
            ],
            [
              120.8,
              30.3
            ],
            [
              120.8,
              30.700002
            ],
            [
              120.4,
              30.700002
            ],
            [
              120.4,
              30.3
            ]
          ]
        ]
      }
    },
    {
      "type": "Feature",
      "properties": {
        "cell_id": "CEG2000_f4_r0030_c0118",
        "region_id": "浙江"
      },
      "geometry": {
        "type": "Polygon",
        "coordinates": [
          [
            [
              120.800006,
              30.3
            ],
            [
              121.199994,
              30.3
            ],
            [
              121.199994,
              30.700002
            ],
            [
              120.800006,
              30.700002
            ],
            [
              120.800006,
              30.3
            ]
          ]
        ]
      }
    },
    {
      "type": "Feature",
      "properties": {
        "cell_id": "CEG2000_f4_r0031_c0115",
        "region_id": "浙江"
      },
      "geometry": {
        "type": "Polygon",
        "coordinates": [
          [
            [
              119.59999400000001,
              30.7
            ],
            [
              120.0,
              30.7
            ],
            [
              120.0,
              31.1
            ],
            [
              119.59999400000001,
              31.1
            ],
            [
              119.59999400000001,
              30.7
            ]
          ]
        ]
      }
    },
    {
      "type": "Feature",
      "properties": {
        "cell_id": "CEG2000_f4_r0031_c0116",
        "region_id": "浙江"
      },
      "geometry": {
        "type": "Polygon",
        "coordinates": [
          [
            [
              120.0,
              30.7
            ],
            [
              120.40000599999999,
              30.7
            ],
            [
              120.40000599999999,
              31.1
            ],
            [
              120.0,
              31.1
            ],
            [
              120.0,
              30.7
            ]
          ]
        ]
      }
    },
    {
      "type": "Feature",
      "properties": {
        "cell_id": "CEG2000_f4_r0031_c0117",
        "region_id": "浙江"
      },
      "geometry": {
        "type": "Polygon",
        "coordinates": [
          [
            [
              120.4,
              30.7
            ],
            [
              120.8,
              30.7
            ],
            [
              120.8,
              31.1
            ],
            [
              120.4,
              31.1
            ],
            [
              120.4,
              30.7
            ]
          ]
        ]
      }
    },
    {
      "type": "Feature",
      "properties": {
        "cell_id": "CEG2000_f4_r0031_c0118",
        "region_id": "浙江"
      },
      "geometry": {
        "type": "Polygon",
        "coordinates": [
          [
            [
              120.800006,
              30.7
            ],
            [
              121.199994,
              30.7
            ],
            [
              121.199994,
              31.1
            ],
            [
              120.800006,
              31.1
            ],
            [
              120.800006,
              30.7
            ]
          ]
        ]
      }
    }
  ]
}